{
"type": "FeatureCollection",
"name": "Desarenador",
"features": [
{ "type": "Feature", "properties": { "Name": "Desarenador D 10.1 - I", "COD_EST": "CANAL LATERAL 10", "ESTRUCTURA": "Desarenador", "Field_1": "D 10.1 - I", "NOMBRE": "D 10.1 - I", "PROGRESIVA": "1+553.70", "TRAMO": "Tramo VII" }, "geometry": { "type": "Point", "coordinates": [ -78.7567525, -8.3862308, 0.0 ] } },
{ "type": "Feature", "properties": { "Name": "Desarenador D ANGOSTURA - 1", "COD_EST": "CANAL LATERAL 10", "ESTRUCTURA": "Desarenador", "Field_1": "D ANGOSTURA - 1", "NOMBRE": "D ANGOSTURA - 1", "PROGRESIVA": "3+007.16", "TRAMO": "Tramo VIII" }, "geometry": { "type": "Point", "coordinates": [ -78.7681053, -8.3855277, 0.0 ] } },
{ "type": "Feature", "properties": { "Name": "Desarenador D ANGOSTURA - 2", "COD_EST": "CANAL LATERAL 10", "ESTRUCTURA": "Desarenador", "Field_1": "D ANGOSTURA - 2", "NOMBRE": "D ANGOSTURA - 2", "PROGRESIVA": "3+007.16", "TRAMO": "Tramo VIII" }, "geometry": { "type": "Point", "coordinates": [ -78.7680995, -8.3855938, 0.0 ] } },
{ "type": "Feature", "properties": { "Name": "Desarenador D 10.1 - A", "COD_EST": "CANAL LATERAL 10", "ESTRUCTURA": "Desarenador", "Field_1": "D 10.1 - A", "NOMBRE": "D 10.1 - A", "PROGRESIVA": "4+399.70", "TRAMO": "Tramo VIII" }, "geometry": { "type": "Point", "coordinates": [ -78.778958, -8.3855257, 0.0 ] } },
{ "type": "Feature", "properties": { "Name": "Desarenador D 10.2", "COD_EST": "CANAL LATERAL 10", "ESTRUCTURA": "Desarenador", "Field_1": "D 10.2", "NOMBRE": "D 10.2", "PROGRESIVA": "5+816.68", "TRAMO": "Tramo IX" }, "geometry": { "type": "Point", "coordinates": [ -78.7846043, -8.3808119, 0.0 ] } },
{ "type": "Feature", "properties": { "Name": "Desarenador D 10.2 - 1", "COD_EST": "CANAL LATERAL 10", "ESTRUCTURA": "Desarenador", "Field_1": "D 10.2 - 1", "NOMBRE": "D 10.2 - 1", "PROGRESIVA": "5+950.84", "TRAMO": "Tramo IX" }, "geometry": { "type": "Point", "coordinates": [ -78.7861579, -8.3808672, 0.0 ] } },
{ "type": "Feature", "properties": { "Name": "Desarenador D 10.2 - A", "COD_EST": "CANAL LATERAL 10", "ESTRUCTURA": "Desarenador", "Field_1": "D 10.2 - A", "NOMBRE": "D 10.2 - A", "PROGRESIVA": "8+497.09", "TRAMO": "Tramo IX" }, "geometry": { "type": "Point", "coordinates": [ -78.7957891, -8.3728324, 0.0 ] } },
{ "type": "Feature", "properties": { "Name": "Desarenador D 10.3", "COD_EST": "CANAL LATERAL 10", "ESTRUCTURA": "Desarenador", "Field_1": "D 10.3", "NOMBRE": "D 10.3", "PROGRESIVA": "8+898.75", "TRAMO": "Tramo IX" }, "geometry": { "type": "Point", "coordinates": [ -78.798436, -8.3708538, 0.0 ] } },
{ "type": "Feature", "properties": { "Name": "Desarenador D 10.3 - A", "COD_EST": "CANAL LATERAL 10", "ESTRUCTURA": "Desarenador", "Field_1": "D 10.3 - A", "NOMBRE": "D 10.3 - A", "PROGRESIVA": "12+592.52", "TRAMO": "Tramo IX" }, "geometry": { "type": "Point", "coordinates": [ -78.8165002, -8.3830469, 0.0 ] } },
{ "type": "Feature", "properties": { "Name": "Desarenador D 10.3 - A -1", "COD_EST": "CANAL LATERAL 10", "ESTRUCTURA": "Desarenador", "Field_1": "D 10.3 - A -1", "NOMBRE": "D 10.3 - A -1", "PROGRESIVA": "12+714.09", "TRAMO": "Tramo IX" }, "geometry": { "type": "Point", "coordinates": [ -78.8174799, -8.3836268, 0.0 ] } },
{ "type": "Feature", "properties": { "Name": "Desarenador D 10.4", "COD_EST": "CANAL LATERAL 10", "ESTRUCTURA": "Desarenador", "Field_1": "D 10.4", "NOMBRE": "D 10.4", "PROGRESIVA": "13+610.49", "TRAMO": "Tramo IX" }, "geometry": { "type": "Point", "coordinates": [ -78.8249999, -8.3839163, 0.0 ] } },
{ "type": "Feature", "properties": { "Name": "Desarenador D 10.4 - 1", "COD_EST": "CANAL LATERAL 10", "ESTRUCTURA": "Desarenador", "Field_1": "D 10.4 - 1", "NOMBRE": "D 10.4 - 1", "PROGRESIVA": "13+786.95", "TRAMO": "Tramo IX" }, "geometry": { "type": "Point", "coordinates": [ -78.8266732, -8.384162, 0.0 ] } },
{ "type": "Feature", "properties": { "Name": "Desarenador D 10.4 - A", "COD_EST": "CANAL LATERAL 10", "ESTRUCTURA": "Desarenador", "Field_1": "D 10.4 - A", "NOMBRE": "D 10.4 - A", "PROGRESIVA": "15+611.24", "TRAMO": "Tramo IX" }, "geometry": { "type": "Point", "coordinates": [ -78.8386687, -8.3791474, 0.0 ] } },
{ "type": "Feature", "properties": { "Name": "Desarenador D 10.4 - A - 1", "COD_EST": "CANAL LATERAL 10", "ESTRUCTURA": "Desarenador", "Field_1": "D 10.4 - A - 1", "NOMBRE": "D 10.4 - A - 1", "PROGRESIVA": "15+735.44", "TRAMO": "Tramo IX" }, "geometry": { "type": "Point", "coordinates": [ -78.839078, -8.3793652, 0.0 ] } },
{ "type": "Feature", "properties": { "Name": "Desarenador D 10.5 - 2", "COD_EST": "CANAL LATERAL 10", "ESTRUCTURA": "Desarenador", "Field_1": "D 10.5 - 2", "NOMBRE": "D 10.5 - 2", "PROGRESIVA": "17+724.75", "TRAMO": "Tramo IX" }, "geometry": { "type": "Point", "coordinates": [ -78.8495626, -8.3654515, 0.0 ] } },
{ "type": "Feature", "properties": { "Name": "Desarenador D 10.5 - A", "COD_EST": "CANAL LATERAL 10", "ESTRUCTURA": "Desarenador", "Field_1": "D 10.5 - A", "NOMBRE": "D 10.5 - A", "PROGRESIVA": "18+432.78", "TRAMO": "Tramo IX" }, "geometry": { "type": "Point", "coordinates": [ -78.8511975, -8.3580221, 0.0 ] } },
{ "type": "Feature", "properties": { "Name": "Desarenador D 10.6", "COD_EST": "CANAL LATERAL 10", "ESTRUCTURA": "Desarenador", "Field_1": "D 10.6", "NOMBRE": "D 10.6", "PROGRESIVA": "20+052.57", "TRAMO": "Tramo X" }, "geometry": { "type": "Point", "coordinates": [ -78.8565838, -8.3472611, 0.0 ] } },
{ "type": "Feature", "properties": { "Name": "Desarenador D 10.7", "COD_EST": "CANAL LATERAL 10", "ESTRUCTURA": "Desarenador", "Field_1": "D 10.7", "NOMBRE": "D 10.7", "PROGRESIVA": "20+052.57", "TRAMO": "Tramo X" }, "geometry": { "type": "Point", "coordinates": [ -78.8565504, -8.3468735, 0.0 ] } }
]
}
