{
"type": "FeatureCollection",
"name": "Pase de Tuberias",
"features": [
{ "type": "Feature", "properties": { "Name": "Pase de Tubería PA-01", "COD_EST": "CANAL LATERAL 10", "ESTRUCTURA": "Pase de Tubería", "FID": 1, "NOMBRE": "PA-01", "Nº": 1, "PROGRESIVA": "8+884.44", "TRAMO": "Tramo IX" }, "geometry": { "type": "Point", "coordinates": [ -78.798231, -8.3708307, 0.0 ] } },
{ "type": "Feature", "properties": { "Name": "Pase de Tubería PA-02", "COD_EST": "CANAL LATERAL 10", "ESTRUCTURA": "Pase de Tubería", "FID": 2, "NOMBRE": "PA-02", "Nº": 2, "PROGRESIVA": "9+285.58", "TRAMO": "Tramo IX" }, "geometry": { "type": "Point", "coordinates": [ -78.7991756, -8.3679706, 0.0 ] } },
{ "type": "Feature", "properties": { "Name": "Pase de Tubería PA-03", "COD_EST": "CANAL LATERAL 10", "ESTRUCTURA": "Pase de Tubería", "FID": 3, "NOMBRE": "PA-03", "Nº": 3, "PROGRESIVA": "9+288.53", "TRAMO": "Tramo IX" }, "geometry": { "type": "Point", "coordinates": [ -78.7991991, -8.3679555, 0.0 ] } },
{ "type": "Feature", "properties": { "Name": "Pase de Tubería PA-04", "COD_EST": "CANAL LATERAL 10", "ESTRUCTURA": "Pase de Tubería", "FID": 4, "NOMBRE": "PA-04", "Nº": 4, "PROGRESIVA": "12+718.41", "TRAMO": "Tramo IX" }, "geometry": { "type": "Point", "coordinates": [ -78.8176122, -8.3834939, 0.0 ] } },
{ "type": "Feature", "properties": { "Name": "Pase de Tubería PA-05", "COD_EST": "CANAL LATERAL 10", "ESTRUCTURA": "Pase de Tubería", "FID": 5, "NOMBRE": "PA-05", "Nº": 5, "PROGRESIVA": "12+799.25", "TRAMO": "Tramo IX" }, "geometry": { "type": "Point", "coordinates": [ -78.8182171, -8.3838069, 0.0 ] } },
{ "type": "Feature", "properties": { "Name": "Pase de Tubería PA-06", "COD_EST": "CANAL LATERAL 10", "ESTRUCTURA": "Pase de Tubería", "FID": 6, "NOMBRE": "PA-06", "Nº": 6, "PROGRESIVA": "13+344.01", "TRAMO": "Tramo IX" }, "geometry": { "type": "Point", "coordinates": [ -78.8228914, -8.3835919, 0.0 ] } },
{ "type": "Feature", "properties": { "Name": "Pase de Tubería PA-07", "COD_EST": "CANAL LATERAL 10", "ESTRUCTURA": "Pase de Tubería", "FID": 7, "NOMBRE": "PA-07", "Nº": 7, "PROGRESIVA": "13+347.36", "TRAMO": "Tramo IX" }, "geometry": { "type": "Point", "coordinates": [ -78.8229327, -8.3835713, 0.0 ] } },
{ "type": "Feature", "properties": { "Name": "Pase de Tubería PA-08", "COD_EST": "CANAL LATERAL 10", "ESTRUCTURA": "Pase de Tubería", "FID": 8, "NOMBRE": "PA-08", "Nº": 8, "PROGRESIVA": "13+967.29", "TRAMO": "Tramo IX" }, "geometry": { "type": "Point", "coordinates": [ -78.8281452, -8.384234, 0.0 ] } },
{ "type": "Feature", "properties": { "Name": "Pase de Tubería PA-09", "COD_EST": "CANAL LATERAL 10", "ESTRUCTURA": "Pase de Tubería", "FID": 9, "NOMBRE": "PA-09", "Nº": 9, "PROGRESIVA": "15+971.08", "TRAMO": "Tramo IX" }, "geometry": { "type": "Point", "coordinates": [ -78.8405466, -8.3766312, 0.0 ] } },
{ "type": "Feature", "properties": { "Name": "Pase de Tubería PA-10", "COD_EST": "CANAL LATERAL 10", "ESTRUCTURA": "Pase de Tubería", "FID": 10, "NOMBRE": "PA-10", "Nº": 10, "PROGRESIVA": "18+220.86", "TRAMO": "Tramo IX" }, "geometry": { "type": "Point", "coordinates": [ -78.8509051, -8.3614466, 0.0 ] } }
]
}
