{
"type": "FeatureCollection",
"name": "Toma",
"features": [
{ "type": "Feature", "properties": { "Name": "Toma MC Desarenador", "COD_EST": "CANAL MADRE", "ESTRUCTURA": "Toma", "FID": 0, "Field_1": "MC Desarenador", "NOMBRE": "MC Desarenador", "N_": 1, "PROGRESIVA": "4+525.37", "TRAMO": "Tramo 0" }, "geometry": { "type": "Point", "coordinates": [ -78.3336859, -8.6645571, 0.0 ] } },
{ "type": "Feature", "properties": { "Name": "Toma MC Tanguche", "COD_EST": "CANAL MADRE", "ESTRUCTURA": "Toma", "FID": 1, "Field_1": "MC Tanguche", "NOMBRE": "MC Tanguche", "N_": 2, "PROGRESIVA": "18+526.00", "TRAMO": "Tramo 0" }, "geometry": { "type": "Point", "coordinates": [ -78.4472114, -8.7104616, 0.0 ] } },
{ "type": "Feature", "properties": { "Name": "Toma 0 (Coscomba)", "COD_EST": "CANAL MADRE", "ESTRUCTURA": "Toma", "FID": 3, "Field_1": "0 (Coscomba)", "NOMBRE": "0 (Coscomba)", "N_": 4, "PROGRESIVA": "35+897.00", "TRAMO": "Tramo I" }, "geometry": { "type": "Point", "coordinates": [ -78.5876069, -8.6643927, 0.0 ] } },
{ "type": "Feature", "properties": { "Name": "Toma Intercuencas", "COD_EST": "CANAL MADRE", "ESTRUCTURA": "Toma", "FID": 4, "Field_1": "Intercuencas", "NOMBRE": "Intercuencas", "N_": 5, "PROGRESIVA": "36+130.00", "TRAMO": "Tramo I" }, "geometry": { "type": "Point", "coordinates": [ -78.5886985, -8.6626915, 0.0 ] } },
{ "type": "Feature", "properties": { "Name": "Toma TO1", "COD_EST": "CANAL MADRE", "ESTRUCTURA": "Toma", "FID": 6, "Field_1": "TO1", "NOMBRE": "TO1", "N_": 7, "PROGRESIVA": "37+558.00", "TRAMO": "Tramo I" }, "geometry": { "type": "Point", "coordinates": [ -78.597238, -8.6537348, 0.0 ] } },
{ "type": "Feature", "properties": { "Name": "Toma TO1B", "COD_EST": "CANAL MADRE", "ESTRUCTURA": "Toma", "FID": 8, "Field_1": "TO1B", "NOMBRE": "TO1B", "N_": 9, "PROGRESIVA": "40+870.00", "TRAMO": "Tramo II" }, "geometry": { "type": "Point", "coordinates": [ -78.594497, -8.6248244, 0.0 ] } },
{ "type": "Feature", "properties": { "Name": "Toma TO1A", "COD_EST": "CANAL MADRE", "ESTRUCTURA": "Toma", "FID": 9, "Field_1": "TO1A", "NOMBRE": "TO1A", "N_": 10, "PROGRESIVA": "40+954.25", "TRAMO": "Tramo II" }, "geometry": { "type": "Point", "coordinates": [ -78.5949825, -8.6241496, 0.0 ] } },
{ "type": "Feature", "properties": { "Name": "Toma TO1C", "COD_EST": "CANAL MADRE", "ESTRUCTURA": "Toma", "FID": 11, "Field_1": "TO1C", "NOMBRE": "TO1C", "N_": 12, "PROGRESIVA": "43+750.00", "TRAMO": "Tramo III" }, "geometry": { "type": "Point", "coordinates": [ -78.6017096, -8.6014258, 0.0 ] } },
{ "type": "Feature", "properties": { "Name": "Toma TO1D-2", "COD_EST": "CANAL MADRE", "ESTRUCTURA": "Toma", "FID": 12, "Field_1": "TO1D-2", "NOMBRE": "TO1D-2", "N_": 13, "PROGRESIVA": "44+270.00", "TRAMO": "Tramo III" }, "geometry": { "type": "Point", "coordinates": [ -78.6019377, -8.5969175, 0.0 ] } },
{ "type": "Feature", "properties": { "Name": "Toma TO1E", "COD_EST": "CANAL MADRE", "ESTRUCTURA": "Toma", "FID": 13, "Field_1": "TO1E", "NOMBRE": "TO1E", "N_": 14, "PROGRESIVA": "44+410.00", "TRAMO": "Tramo III" }, "geometry": { "type": "Point", "coordinates": [ -78.6024181, -8.595619, 0.0 ] } },
{ "type": "Feature", "properties": { "Name": "Toma TO1D-1", "COD_EST": "CANAL MADRE", "ESTRUCTURA": "Toma", "FID": 14, "Field_1": "TO 1D-1", "NOMBRE": "TO1D-1", "N_": 15, "PROGRESIVA": "45+250.00", "TRAMO": "Tramo III" }, "geometry": { "type": "Point", "coordinates": [ -78.6024105, -8.5881629, 0.0 ] } },
{ "type": "Feature", "properties": { "Name": "Toma TO1D", "COD_EST": "CANAL MADRE", "ESTRUCTURA": "Toma", "FID": 15, "Field_1": "TO1D", "NOMBRE": "TO1D", "N_": 16, "PROGRESIVA": "45+982.00", "TRAMO": "Tramo III" }, "geometry": { "type": "Point", "coordinates": [ -78.6035423, -8.5843289, 0.0 ] } },
{ "type": "Feature", "properties": { "Name": "Toma TO1F", "COD_EST": "CANAL MADRE", "ESTRUCTURA": "Toma", "FID": 16, "Field_1": "TO1F", "NOMBRE": "TO1F", "N_": 17, "PROGRESIVA": "46+670.49", "TRAMO": "Tramo III" }, "geometry": { "type": "Point", "coordinates": [ -78.605701, -8.5702255, 0.0 ] } },
{ "type": "Feature", "properties": { "Name": "Toma TO1G", "COD_EST": "CANAL MADRE", "ESTRUCTURA": "Toma", "FID": 19, "Field_1": "TO1G", "NOMBRE": "TO1G", "N_": 20, "PROGRESIVA": "50+791.00", "TRAMO": "Tramo III" }, "geometry": { "type": "Point", "coordinates": [ -78.6254498, -8.5643915, 0.0 ] } },
{ "type": "Feature", "properties": { "Name": "Toma TO3", "COD_EST": "CANAL MADRE", "ESTRUCTURA": "Toma", "FID": 20, "Field_1": "TO3", "NOMBRE": "TO3", "N_": 21, "PROGRESIVA": "52+673.25", "TRAMO": "Tramo IV" }, "geometry": { "type": "Point", "coordinates": [ -78.6366145, -8.5561632, 0.0 ] } },
{ "type": "Feature", "properties": { "Name": "Toma San Carlos", "COD_EST": "CANAL MADRE", "ESTRUCTURA": "Toma", "FID": 21, "Field_1": "San Carlos", "NOMBRE": "San Carlos", "N_": 22, "PROGRESIVA": "54+649.00", "TRAMO": "Tramo IV" }, "geometry": { "type": "Point", "coordinates": [ -78.6315622, -8.5406233, 0.0 ] } },
{ "type": "Feature", "properties": { "Name": "Toma TO3A", "COD_EST": "CANAL MADRE", "ESTRUCTURA": "Toma", "FID": 22, "Field_1": "TO3A", "NOMBRE": "TO3A", "N_": 23, "PROGRESIVA": "55+514.48", "TRAMO": "Tramo IV" }, "geometry": { "type": "Point", "coordinates": [ -78.629517, -8.5336607, 0.0 ] } },
{ "type": "Feature", "properties": { "Name": "Toma B-San Carlos Alto", "COD_EST": "CANAL MADRE", "ESTRUCTURA": "Toma", "FID": 23, "Field_1": "B-San Carlos Alto", "NOMBRE": "B-San Carlos Alto", "N_": 24, "PROGRESIVA": "57+106.00", "TRAMO": "Tramo V" }, "geometry": { "type": "Point", "coordinates": [ -78.6202904, -8.5244732, 0.0 ] } },
{ "type": "Feature", "properties": { "Name": "Toma TO3B", "COD_EST": "CANAL MADRE", "ESTRUCTURA": "Toma", "FID": 24, "Field_1": "TO3B", "NOMBRE": "TO3B", "N_": 25, "PROGRESIVA": "59+624.00", "TRAMO": "Tramo V" }, "geometry": { "type": "Point", "coordinates": [ -78.605956, -8.5104245, 0.0 ] } },
{ "type": "Feature", "properties": { "Name": "Toma B-Montegrande+San Carlos III", "COD_EST": "CANAL MADRE", "ESTRUCTURA": "Toma", "FID": 25, "Field_1": "B-Montegrande+San Carlos III", "NOMBRE": "B-Montegrande+San Carlos III", "N_": 26, "PROGRESIVA": "60+245.00", "TRAMO": "Tramo V" }, "geometry": { "type": "Point", "coordinates": [ -78.6021115, -8.5065301, 0.0 ] } },
{ "type": "Feature", "properties": { "Name": "Toma Lat.4", "COD_EST": "CANAL MADRE", "ESTRUCTURA": "Toma", "FID": 26, "Field_1": "Lat.4", "NOMBRE": "Lat.4", "N_": 27, "PROGRESIVA": "62+681.00", "TRAMO": "Tramo V" }, "geometry": { "type": "Point", "coordinates": [ -78.5924029, -8.4884426, 0.0 ] } },
{ "type": "Feature", "properties": { "Name": "Toma Lat.5", "COD_EST": "CANAL MADRE", "ESTRUCTURA": "Toma", "FID": 28, "Field_1": "Lat.5", "NOMBRE": "Lat.5", "N_": 29, "PROGRESIVA": "64+763.00", "TRAMO": "Tramo V" }, "geometry": { "type": "Point", "coordinates": [ -78.5940273, -8.471028, 0.0 ] } },
{ "type": "Feature", "properties": { "Name": "Toma Lat.6", "COD_EST": "CANAL MADRE", "ESTRUCTURA": "Toma", "FID": 29, "Field_1": "Lat.6", "NOMBRE": "Lat.6", "N_": 30, "PROGRESIVA": "65+510.00", "TRAMO": "Tramo V" }, "geometry": { "type": "Point", "coordinates": [ -78.596581, -8.4647083, 0.0 ] } },
{ "type": "Feature", "properties": { "Name": "Toma PTAP Chao", "COD_EST": "CANAL MADRE", "ESTRUCTURA": "Toma", "FID": 30, "Field_1": "PTAP Chao", "NOMBRE": "PTAP Chao", "N_": 31, "PROGRESIVA": "69+700.00", "TRAMO": "Tramo VI" }, "geometry": { "type": "Point", "coordinates": [ -78.6259931, -8.4549508, 0.0 ] } },
{ "type": "Feature", "properties": { "Name": "Toma Lat.7", "COD_EST": "CANAL MADRE", "ESTRUCTURA": "Toma", "FID": 31, "Field_1": "Lat.7", "NOMBRE": "Lat.7", "N_": 32, "PROGRESIVA": "70+818.80", "TRAMO": "Tramo VI" }, "geometry": { "type": "Point", "coordinates": [ -78.6361901, -8.4565989, 0.0 ] } },
{ "type": "Feature", "properties": { "Name": "Toma B-Portachuelo", "COD_EST": "CANAL MADRE", "ESTRUCTURA": "Toma", "FID": 33, "Field_1": "B-Portachuelo", "NOMBRE": "B-Portachuelo", "N_": 34, "PROGRESIVA": "75+357.00", "TRAMO": "Tramo VI" }, "geometry": { "type": "Point", "coordinates": [ -78.6740825, -8.4539109, 0.0 ] } },
{ "type": "Feature", "properties": { "Name": "Toma TO7A-I", "COD_EST": "CANAL MADRE", "ESTRUCTURA": "Toma", "FID": 34, "Field_1": "TO7A-I", "NOMBRE": "TO7A-I", "N_": 35, "PROGRESIVA": "75+370.00", "TRAMO": "Tramo VI" }, "geometry": { "type": "Point", "coordinates": [ -78.6743132, -8.4540076, 0.0 ] } },
{ "type": "Feature", "properties": { "Name": "Toma TO7A", "COD_EST": "CANAL MADRE", "ESTRUCTURA": "Toma", "FID": 35, "Field_1": "TO7A", "NOMBRE": "TO7A", "N_": 36, "PROGRESIVA": "75+453.93", "TRAMO": "Tramo VI" }, "geometry": { "type": "Point", "coordinates": [ -78.6749588, -8.4538216, 0.0 ] } },
{ "type": "Feature", "properties": { "Name": "Toma TO7B", "COD_EST": "CANAL MADRE", "ESTRUCTURA": "Toma", "FID": 36, "Field_1": "TO7B", "NOMBRE": "TO7B", "N_": 37, "PROGRESIVA": "75+793.93", "TRAMO": "Tramo VI" }, "geometry": { "type": "Point", "coordinates": [ -78.6779234, -8.4529444, 0.0 ] } },
{ "type": "Feature", "properties": { "Name": "Toma TO7C", "COD_EST": "CANAL MADRE", "ESTRUCTURA": "Toma", "FID": 38, "Field_1": "TO7C", "NOMBRE": "TO7C", "N_": 39, "PROGRESIVA": "78+461.95", "TRAMO": "Tramo VI" }, "geometry": { "type": "Point", "coordinates": [ -78.6920194, -8.4364155, 0.0 ] } },
{ "type": "Feature", "properties": { "Name": "Toma B-DB-5II", "COD_EST": "CANAL MADRE", "ESTRUCTURA": "Toma", "FID": 39, "Field_1": "B-DB-5II", "NOMBRE": "B-DB-5II", "N_": 40, "PROGRESIVA": "79+366.00", "TRAMO": "Tramo VI" }, "geometry": { "type": "Point", "coordinates": [ -78.6882465, -8.4297592, 0.0 ] } },
{ "type": "Feature", "properties": { "Name": "Toma TO7D-II", "COD_EST": "CANAL MADRE", "ESTRUCTURA": "Toma", "FID": 41, "Field_1": "TO7D-II", "NOMBRE": "TO7D-II", "N_": 42, "PROGRESIVA": "81+094.00", "TRAMO": "Tramo VI" }, "geometry": { "type": "Point", "coordinates": [ -78.7025898, -8.4279815, 0.0 ] } },
{ "type": "Feature", "properties": { "Name": "Toma TO7D-I", "COD_EST": "CANAL MADRE", "ESTRUCTURA": "Toma", "FID": 42, "Field_1": "TO7D-I", "NOMBRE": "TO7D-I", "N_": 43, "PROGRESIVA": "81+611.95", "TRAMO": "Tramo VI" }, "geometry": { "type": "Point", "coordinates": [ -78.7067249, -8.4256015, 0.0 ] } },
{ "type": "Feature", "properties": { "Name": "Toma 7E-Napo", "COD_EST": "CANAL MADRE", "ESTRUCTURA": "Toma", "FID": 43, "Field_1": "7E-Napo", "NOMBRE": "7E-Napo", "N_": 44, "PROGRESIVA": "83+425.00", "TRAMO": "Tramo VI" }, "geometry": { "type": "Point", "coordinates": [ -78.7175568, -8.4142762, 0.0 ] } },
{ "type": "Feature", "properties": { "Name": "Toma CANAL DE DESCARGA", "COD_EST": "CANAL MADRE", "ESTRUCTURA": "Toma", "FID": 44, "Field_1": "CANAL DE DESCARGA", "NOMBRE": "CANAL DE DESCARGA", "N_": 45, "PROGRESIVA": "83+520.00", "TRAMO": "Tramo VI" }, "geometry": { "type": "Point", "coordinates": [ -78.7183211, -8.4139733, 0.0 ] } },
{ "type": "Feature", "properties": { "Name": "Toma CH VIRU", "COD_EST": "CANAL MADRE", "ESTRUCTURA": "Toma", "FID": 45, "Field_1": "CH VIRU", "NOMBRE": "CH VIRU", "N_": 46, "PROGRESIVA": "83+520.00", "TRAMO": "Tramo VI" }, "geometry": { "type": "Point", "coordinates": [ -78.7183487, -8.4139012, 0.0 ] } },
{ "type": "Feature", "properties": { "Name": "Toma LA GLORIA", "COD_EST": "CANAL MADRE", "ESTRUCTURA": "Toma", "FID": 46, "Field_1": "LA GLORIA", "NOMBRE": "LA GLORIA", "N_": 47, "PROGRESIVA": "1+271.00", "TRAMO": "Tramo VI" }, "geometry": { "type": "Point", "coordinates": [ -78.7246317, -8.4089393, 0.0 ] } },
{ "type": "Feature", "properties": { "Name": "Toma CHEQUEPE", "COD_EST": "CANAL MADRE", "ESTRUCTURA": "Toma", "FID": 47, "Field_1": "CHEQUEPE", "NOMBRE": "CHEQUEPE", "N_": 48, "PROGRESIVA": "2+403.00", "TRAMO": "Tramo VI" }, "geometry": { "type": "Point", "coordinates": [ -78.7320252, -8.4018416, 0.0 ] } },
{ "type": "Feature", "properties": { "Name": "Toma INTEGRADOR MARGEN IZQUIERDA", "COD_EST": "CANAL MADRE", "ESTRUCTURA": "Toma", "FID": 48, "Field_1": "INTEGRADOR MARGEN  IZQUIERDA", "NOMBRE": "INTEGRADOR MARGEN  IZQUIERDA", "N_": 49, "PROGRESIVA": "2+487.00", "TRAMO": "Tramo VI" }, "geometry": { "type": "Point", "coordinates": [ -78.7325729, -8.4013114, 0.0 ] } },
{ "type": "Feature", "properties": { "Name": "Toma SAN IDELFONSO", "COD_EST": "CANAL MADRE", "ESTRUCTURA": "Toma", "FID": 49, "Field_1": "SAN IDELFONSO", "NOMBRE": "SAN IDELFONSO", "N_": 50, "PROGRESIVA": "2+905.00", "TRAMO": "Tramo VI" }, "geometry": { "type": "Point", "coordinates": [ -78.7353112, -8.398688, 0.0 ] } },
{ "type": "Feature", "properties": { "Name": "Toma INTEGRADOR MARGEN DERECHA", "COD_EST": "CANAL MADRE", "ESTRUCTURA": "Toma", "FID": 50, "Field_1": "INTEGRADOR MARGEN DERECHA", "NOMBRE": "INTEGRADOR MARGEN DERECHA", "N_": 51, "PROGRESIVA": "0+394.00", "TRAMO": "Tramo VI" }, "geometry": { "type": "Point", "coordinates": [ -78.7404976, -8.3933579, 0.0 ] } },
{ "type": "Feature", "properties": { "Name": "Toma LATERAL 10", "COD_EST": "CANAL MADRE", "ESTRUCTURA": "Toma", "FID": 52, "Field_1": "LATERAL 10", "NOMBRE": "LATERAL 10", "N_": 53, "PROGRESIVA": "88+770.00", "TRAMO": "Tramo VII" }, "geometry": { "type": "Point", "coordinates": [ -78.7515724, -8.3804959, 0.0 ] } },
{ "type": "Feature", "properties": { "Name": "Toma Queneto II", "COD_EST": "CANAL MADRE", "ESTRUCTURA": "Toma", "FID": 53, "Field_1": "Queneto II", "NOMBRE": "Queneto II", "N_": 54, "PROGRESIVA": "92+789.00", "TRAMO": "Tramo IX" }, "geometry": { "type": "Point", "coordinates": [ -78.7844921, -8.3757831, 0.0 ] } },
{ "type": "Feature", "properties": { "Name": "Toma LATERAL 11", "COD_EST": "CANAL MADRE", "ESTRUCTURA": "Toma", "FID": 54, "Field_1": "LATERAL 11", "NOMBRE": "LATERAL 11", "N_": 55, "PROGRESIVA": "94+462.00", "TRAMO": "Tramo IX" }, "geometry": { "type": "Point", "coordinates": [ -78.789831, -8.3625801, 0.0 ] } },
{ "type": "Feature", "properties": { "Name": "Toma TO11", "COD_EST": "CANAL MADRE", "ESTRUCTURA": "Toma", "FID": 55, "Field_1": "TO11", "NOMBRE": "TO11", "N_": 56, "PROGRESIVA": "94+746.00", "TRAMO": "Tramo IX" }, "geometry": { "type": "Point", "coordinates": [ -78.7910581, -8.3606345, 0.0 ] } },
{ "type": "Feature", "properties": { "Name": "Toma 11A", "COD_EST": "CANAL MADRE", "ESTRUCTURA": "Toma", "FID": 56, "Field_1": "11A", "NOMBRE": "11A", "N_": 57, "PROGRESIVA": "95+882.00", "TRAMO": "Tramo IX" }, "geometry": { "type": "Point", "coordinates": [ -78.800215, -8.3591941, 0.0 ] } },
{ "type": "Feature", "properties": { "Name": "Toma 11A-1", "COD_EST": "CANAL MADRE", "ESTRUCTURA": "Toma", "FID": 57, "Field_1": "11A-1", "NOMBRE": "11A-1", "N_": 58, "PROGRESIVA": "99+917.00", "TRAMO": "Tramo IX" }, "geometry": { "type": "Point", "coordinates": [ -78.8295711, -8.347045, 0.0 ] } },
{ "type": "Feature", "properties": { "Name": "Toma 11B", "COD_EST": "CANAL MADRE", "ESTRUCTURA": "Toma", "FID": 58, "Field_1": "11B", "NOMBRE": "11B", "N_": 59, "PROGRESIVA": "103+151.00", "TRAMO": "Tramo X" }, "geometry": { "type": "Point", "coordinates": [ -78.8459649, -8.3267329, 0.0 ] } },
{ "type": "Feature", "properties": { "Name": "Toma 11C", "COD_EST": "CANAL MADRE", "ESTRUCTURA": "Toma", "FID": 59, "Field_1": "11C", "NOMBRE": "11C", "N_": 60, "PROGRESIVA": "106+954.09", "TRAMO": "Tramo XI" }, "geometry": { "type": "Point", "coordinates": [ -78.8429821, -8.2946094, 0.0 ] } },
{ "type": "Feature", "properties": { "Name": "Toma B-B1", "COD_EST": "CANAL MADRE", "ESTRUCTURA": "Toma", "FID": 61, "Field_1": "B-B1", "NOMBRE": "B-B1", "N_": 62, "PROGRESIVA": "107+672.00", "TRAMO": "Tramo XI" }, "geometry": { "type": "Point", "coordinates": [ -78.841453, -8.2887979, 0.0 ] } },
{ "type": "Feature", "properties": { "Name": "Toma 11D", "COD_EST": "CANAL MADRE", "ESTRUCTURA": "Toma", "FID": 62, "Field_1": "11D", "NOMBRE": "11D", "N_": 63, "PROGRESIVA": "110+104.09", "TRAMO": "Tramo XI" }, "geometry": { "type": "Point", "coordinates": [ -78.851779, -8.2722666, 0.0 ] } },
{ "type": "Feature", "properties": { "Name": "Toma 12A", "COD_EST": "CANAL MADRE", "ESTRUCTURA": "Toma", "FID": 65, "Field_1": "12A", "NOMBRE": "12A", "N_": 66, "PROGRESIVA": "115+517.00", "TRAMO": "Tramo XII" }, "geometry": { "type": "Point", "coordinates": [ -78.8843389, -8.2466235, 0.0 ] } },
{ "type": "Feature", "properties": { "Name": "Toma B-B2", "COD_EST": "CANAL MADRE", "ESTRUCTURA": "Toma", "FID": 66, "Field_1": "B-B2", "NOMBRE": "B-B2", "N_": 67, "PROGRESIVA": "119+180.23", "TRAMO": "Tramo XII" }, "geometry": { "type": "Point", "coordinates": [ -78.9075655, -8.2403273, 0.0 ] } },
{ "type": "Feature", "properties": { "Name": "Toma 12B", "COD_EST": "CANAL MADRE", "ESTRUCTURA": "Toma", "FID": 67, "Field_1": "12B", "NOMBRE": "12B", "N_": 68, "PROGRESIVA": "119+280.23", "TRAMO": "Tramo XII" }, "geometry": { "type": "Point", "coordinates": [ -78.9084069, -8.2407837, 0.0 ] } },
{ "type": "Feature", "properties": { "Name": "Toma 12C", "COD_EST": "CANAL MADRE", "ESTRUCTURA": "Toma", "FID": 70, "Field_1": "12C", "NOMBRE": "12C", "N_": 71, "PROGRESIVA": "122+473.32", "TRAMO": "Tramo XII" }, "geometry": { "type": "Point", "coordinates": [ -78.9276866, -8.2517766, 0.0 ] } },
{ "type": "Feature", "properties": { "Name": "Toma B-B3", "COD_EST": "CANAL MADRE", "ESTRUCTURA": "Toma", "FID": 71, "Field_1": "B-B3", "NOMBRE": "B-B3", "N_": 72, "PROGRESIVA": "123+753.32", "TRAMO": "Tramo XII" }, "geometry": { "type": "Point", "coordinates": [ -78.9351806, -8.2450626, 0.0 ] } },
{ "type": "Feature", "properties": { "Name": "Toma 12D-I", "COD_EST": "CANAL MADRE", "ESTRUCTURA": "Toma", "FID": 72, "Field_1": "12D-I", "NOMBRE": "12D-I", "N_": 73, "PROGRESIVA": "124+633.32", "TRAMO": "Tramo XII" }, "geometry": { "type": "Point", "coordinates": [ -78.9430735, -8.2418941, 0.0 ] } },
{ "type": "Feature", "properties": { "Name": "Toma 12D-II", "COD_EST": "CANAL MADRE", "ESTRUCTURA": "Toma", "FID": 73, "Field_1": "12D-II", "NOMBRE": "12D-II", "N_": 74, "PROGRESIVA": "126+650.00", "TRAMO": "Tramo XII" }, "geometry": { "type": "Point", "coordinates": [ -78.9557462, -8.2303155, 0.0 ] } },
{ "type": "Feature", "properties": { "Name": "Toma B-B4", "COD_EST": "CANAL MADRE", "ESTRUCTURA": "Toma", "FID": 74, "Field_1": "B-B4", "NOMBRE": "B-B4", "N_": 75, "PROGRESIVA": "127+038.68", "TRAMO": "Tramo XII" }, "geometry": { "type": "Point", "coordinates": [ -78.956637, -8.2282408, 0.0 ] } },
{ "type": "Feature", "properties": { "Name": "Toma 13A", "COD_EST": "CANAL MADRE", "ESTRUCTURA": "Toma", "FID": 76, "Field_1": "13A", "NOMBRE": "13A", "N_": 77, "PROGRESIVA": "131+201.42", "TRAMO": "Tramo XII" }, "geometry": { "type": "Point", "coordinates": [ -78.9642653, -8.202127, 0.0 ] } },
{ "type": "Feature", "properties": { "Name": "Toma B-B5", "COD_EST": "CANAL MADRE", "ESTRUCTURA": "Toma", "FID": 77, "Field_1": "B-B5", "NOMBRE": "B-B5", "N_": 78, "PROGRESIVA": "132+716.00", "TRAMO": "Tramo XII" }, "geometry": { "type": "Point", "coordinates": [ -78.9733176, -8.179428, 0.0 ] } },
{ "type": "Feature", "properties": { "Name": "Toma 13B", "COD_EST": "CANAL MADRE", "ESTRUCTURA": "Toma", "FID": 78, "Field_1": "13B", "NOMBRE": "13B", "N_": 79, "PROGRESIVA": "134+481.00", "TRAMO": "Tramo XII" }, "geometry": { "type": "Point", "coordinates": [ -78.9735135, -8.1747643, 0.0 ] } },
{ "type": "Feature", "properties": { "Name": "Toma 13C-PTAP", "COD_EST": "CANAL MADRE", "ESTRUCTURA": "Toma", "FID": 80, "Field_1": "13C-PTAP", "NOMBRE": "13C-PTAP", "N_": 81, "PROGRESIVA": "135+031.00", "TRAMO": "Tramo XII" }, "geometry": { "type": "Point", "coordinates": [ -78.9729158, -8.1709645, 0.0 ] } },
{ "type": "Feature", "properties": { "Name": "Toma SANTA LUCIA", "COD_EST": "CANAL MADRE", "ESTRUCTURA": "Toma", "FID": 81, "Field_1": "SANTA LUCIA", "NOMBRE": "SANTA LUCIA", "N_": 82, "PROGRESIVA": "135+050.00", "TRAMO": "Tramo XII" }, "geometry": { "type": "Point", "coordinates": [ -78.9726497, -8.1697518, 0.0 ] } },
{ "type": "Feature", "properties": { "Name": "Toma UPAO", "COD_EST": "CANAL MADRE", "ESTRUCTURA": "Toma", "FID": 82, "Field_1": "UPAO", "NOMBRE": "UPAO", "N_": 83, "PROGRESIVA": "135+908.00", "TRAMO": "Tramo XIII" }, "geometry": { "type": "Point", "coordinates": [ -78.9699124, -8.1656339, 0.0 ] } },
{ "type": "Feature", "properties": { "Name": "Toma 13D", "COD_EST": "CANAL MADRE", "ESTRUCTURA": "Toma", "FID": 83, "Field_1": "13D", "NOMBRE": "13D", "N_": 84, "PROGRESIVA": "136+733.57", "TRAMO": "Tramo XIII" }, "geometry": { "type": "Point", "coordinates": [ -78.9657389, -8.1602613, 0.0 ] } },
{ "type": "Feature", "properties": { "Name": "Toma 13D-I", "COD_EST": "CANAL MADRE", "ESTRUCTURA": "Toma", "FID": 84, "Field_1": "13D-I", "NOMBRE": "13D-I", "N_": 85, "PROGRESIVA": "138+337.50", "TRAMO": "Tramo XIII" }, "geometry": { "type": "Point", "coordinates": [ -78.9582184, -8.1547814, 0.0 ] } },
{ "type": "Feature", "properties": { "Name": "Toma 13E", "COD_EST": "CANAL MADRE", "ESTRUCTURA": "Toma", "FID": 85, "Field_1": "13E", "NOMBRE": "13E", "N_": 86, "PROGRESIVA": "141+335.41", "TRAMO": "Tramo XIII" }, "geometry": { "type": "Point", "coordinates": [ -78.9438018, -8.1406967, 0.0 ] } },
{ "type": "Feature", "properties": { "Name": "Toma 14", "COD_EST": "CANAL MADRE", "ESTRUCTURA": "Toma", "FID": 87, "Field_1": "14", "NOMBRE": "14", "N_": 88, "PROGRESIVA": "147+728.00", "TRAMO": "Tramo XIII" }, "geometry": { "type": "Point", "coordinates": [ -78.9091065, -8.1188152, 0.0 ] } },
{ "type": "Feature", "properties": { "Name": "Toma B-B7", "COD_EST": "CANAL MADRE", "ESTRUCTURA": "Toma", "FID": 88, "Field_1": "B-B7", "NOMBRE": "B-B7", "N_": 89, "PROGRESIVA": "148+030.00", "TRAMO": "Tramo XIII" }, "geometry": { "type": "Point", "coordinates": [ -78.9077077, -8.1174069, 0.0 ] } },
{ "type": "Feature", "properties": { "Name": "Toma Santo Domingo", "COD_EST": "CANAL MADRE", "ESTRUCTURA": "Toma", "FID": 90, "Field_1": "Santo Domingo", "NOMBRE": "Santo Domingo", "N_": 91, "PROGRESIVA": "152+750.00", "TRAMO": "Tramo XIII" }, "geometry": { "type": "Point", "coordinates": [ -78.8908664, -8.0922893, 0.0 ] } },
{ "type": "Feature", "properties": { "Name": "Toma Huatape", "COD_EST": "CANAL MADRE", "ESTRUCTURA": "Toma", "FID": 91, "Field_1": "Huatape", "NOMBRE": "Huatape", "N_": 92, "PROGRESIVA": "154+706.00", "TRAMO": "Tramo XIII" }, "geometry": { "type": "Point", "coordinates": [ -78.8754583, -8.0865598, 0.0 ] } },
{ "type": "Feature", "properties": { "Name": "Toma Mochica", "COD_EST": "CANAL MADRE", "ESTRUCTURA": "Toma", "FID": 92, "Field_1": "Mochica", "NOMBRE": "Mochica", "N_": 93, "PROGRESIVA": "155+409.00", "TRAMO": "Tramo XIII" }, "geometry": { "type": "Point", "coordinates": [ -78.8763187, -8.0816015, 0.0 ] } }
]
}
