{
"type": "FeatureCollection",
"name": "Toma no2",
"features": [
{ "type": "Feature", "properties": { "Name": "Toma 10.1-I", "COD_EST": "CANAL LATERAL 10", "ESTRUCTURA": "Toma", "Field_1": "10.1-I", "NOMBRE": "10.1-I", "Nro": 1, "PROGRESIVA": "1+553.70", "TRAMO": "Tramo VII" }, "geometry": { "type": "Point", "coordinates": [ -78.7566163, -8.3861798, 0.0 ] } },
{ "type": "Feature", "properties": { "Name": "Toma 10.1-II", "COD_EST": "CANAL LATERAL 10", "ESTRUCTURA": "Toma", "Field_1": "10.1-II", "NOMBRE": "10.1-II", "Nro": 2, "PROGRESIVA": "2+623.64", "TRAMO": "Tramo VII" }, "geometry": { "type": "Point", "coordinates": [ -78.7647405, -8.3856693, 0.0 ] } },
{ "type": "Feature", "properties": { "Name": "Toma ANGOSTURA", "COD_EST": "CANAL LATERAL 10", "ESTRUCTURA": "Toma", "Field_1": "ANGOSTURA", "NOMBRE": "ANGOSTURA", "Nro": 3, "PROGRESIVA": "3+007.16", "TRAMO": "Tramo VII" }, "geometry": { "type": "Point", "coordinates": [ -78.7681207, -8.3853935, 0.0 ] } },
{ "type": "Feature", "properties": { "Name": "Toma 10.1-A", "COD_EST": "CANAL LATERAL 10", "ESTRUCTURA": "Toma", "Field_1": "10.1-A", "NOMBRE": "10.1-A", "Nro": 4, "PROGRESIVA": "4+399.70", "TRAMO": "Tramo VIII" }, "geometry": { "type": "Point", "coordinates": [ -78.7789115, -8.3854119, 0.0 ] } },
{ "type": "Feature", "properties": { "Name": "Toma 10.2", "COD_EST": "CANAL LATERAL 10", "ESTRUCTURA": "Toma", "Field_1": "10.2", "NOMBRE": "10.2", "Nro": 5, "PROGRESIVA": "5+816.68", "TRAMO": "Tramo IX" }, "geometry": { "type": "Point", "coordinates": [ -78.7848786, -8.3808855, 0.0 ] } },
{ "type": "Feature", "properties": { "Name": "Toma 10.2 - 1", "COD_EST": "CANAL LATERAL 10", "ESTRUCTURA": "Toma", "Field_1": "10.2 - 1", "NOMBRE": "10.2 - 1", "Nro": 6, "PROGRESIVA": "5+950.84", "TRAMO": "Tramo IX" }, "geometry": { "type": "Point", "coordinates": [ -78.7860719, -8.3807738, 0.0 ] } },
{ "type": "Feature", "properties": { "Name": "Toma 10.2-A", "COD_EST": "CANAL LATERAL 10", "ESTRUCTURA": "Toma", "Field_1": "10.2-A", "NOMBRE": "10.2-A", "Nro": 7, "PROGRESIVA": "8+497.09", "TRAMO": "Tramo IX" }, "geometry": { "type": "Point", "coordinates": [ -78.7958857, -8.3727136, 0.0 ] } },
{ "type": "Feature", "properties": { "Name": "Toma 10.3", "COD_EST": "CANAL LATERAL 10", "ESTRUCTURA": "Toma", "Field_1": "10.3", "NOMBRE": "10.3", "Nro": 8, "PROGRESIVA": "8+898.75", "TRAMO": "Tramo IX" }, "geometry": { "type": "Point", "coordinates": [ -78.7983487, -8.3707443, 0.0 ] } },
{ "type": "Feature", "properties": { "Name": "Toma 10.3-A", "COD_EST": "CANAL LATERAL 10", "ESTRUCTURA": "Toma", "Field_1": "10.3-A", "NOMBRE": "10.3-A", "Nro": 9, "PROGRESIVA": "12+592.52", "TRAMO": "Tramo IX" }, "geometry": { "type": "Point", "coordinates": [ -78.8166185, -8.383, 0.0 ] } },
{ "type": "Feature", "properties": { "Name": "Toma 10.3-A -  1", "COD_EST": "CANAL LATERAL 10", "ESTRUCTURA": "Toma", "Field_1": "10.3-A -  1", "NOMBRE": "10.3-A -  1", "Nro": 10, "PROGRESIVA": "12+714.09", "TRAMO": "Tramo IX" }, "geometry": { "type": "Point", "coordinates": [ -78.8175354, -8.3835327, 0.0 ] } },
{ "type": "Feature", "properties": { "Name": "Toma 10.4", "COD_EST": "CANAL LATERAL 10", "ESTRUCTURA": "Toma", "Field_1": "10.4", "NOMBRE": "10.4", "Nro": 11, "PROGRESIVA": "13+610.49", "TRAMO": "Tramo IX" }, "geometry": { "type": "Point", "coordinates": [ -78.8250863, -8.3837354, 0.0 ] } },
{ "type": "Feature", "properties": { "Name": "Toma 10.4 - 1", "COD_EST": "CANAL LATERAL 10", "ESTRUCTURA": "Toma", "Field_1": "10.4 - 1", "NOMBRE": "10.4 - 1", "Nro": 12, "PROGRESIVA": "13+786.95", "TRAMO": "Tramo IX" }, "geometry": { "type": "Point", "coordinates": [ -78.826667, -8.3840263, 0.0 ] } },
{ "type": "Feature", "properties": { "Name": "Toma 10.4-A", "COD_EST": "CANAL LATERAL 10", "ESTRUCTURA": "Toma", "Field_1": "10.4-A", "NOMBRE": "10.4-A", "Nro": 13, "PROGRESIVA": "15+611.24", "TRAMO": "Tramo IX" }, "geometry": { "type": "Point", "coordinates": [ -78.8385687, -8.3790838, 0.0 ] } },
{ "type": "Feature", "properties": { "Name": "Toma 10.4-A - 1", "COD_EST": "CANAL LATERAL 10", "ESTRUCTURA": "Toma", "Field_1": "10.4-A - 1", "NOMBRE": "10.4-A - 1", "Nro": 14, "PROGRESIVA": "15+735.44", "TRAMO": "Tramo IX" }, "geometry": { "type": "Point", "coordinates": [ -78.8393216, -8.3783368, 0.0 ] } },
{ "type": "Feature", "properties": { "Name": "Toma 10.5", "COD_EST": "CANAL LATERAL 10", "ESTRUCTURA": "Toma", "Field_1": "10.5", "NOMBRE": "10.5", "Nro": 15, "PROGRESIVA": "17+517.48", "TRAMO": "Tramo IX" }, "geometry": { "type": "Point", "coordinates": [ -78.8479513, -8.365966, 0.0 ] } },
{ "type": "Feature", "properties": { "Name": "Toma 10.5 - 1", "COD_EST": "CANAL LATERAL 10", "ESTRUCTURA": "Toma", "Field_1": "10.5 - 1", "NOMBRE": "10.5 - 1", "Nro": 16, "PROGRESIVA": "17+577.92", "TRAMO": "Tramo IX" }, "geometry": { "type": "Point", "coordinates": [ -78.8483292, -8.3657305, 0.0 ] } },
{ "type": "Feature", "properties": { "Name": "Toma 10.5 - 2", "COD_EST": "CANAL LATERAL 10", "ESTRUCTURA": "Toma", "Field_1": "10.5 - 2", "NOMBRE": "10.5 - 2", "Nro": 17, "PROGRESIVA": "17+724.75", "TRAMO": "Tramo IX" }, "geometry": { "type": "Point", "coordinates": [ -78.8494812, -8.3653365, 0.0 ] } },
{ "type": "Feature", "properties": { "Name": "Toma 10.5-A", "COD_EST": "CANAL LATERAL 10", "ESTRUCTURA": "Toma", "Field_1": "10.5-A", "NOMBRE": "10.5-A", "Nro": 18, "PROGRESIVA": "18+432.78", "TRAMO": "Tramo IX" }, "geometry": { "type": "Point", "coordinates": [ -78.8509204, -8.3595376, 0.0 ] } },
{ "type": "Feature", "properties": { "Name": "Toma 10.5-A - 1", "COD_EST": "CANAL LATERAL 10", "ESTRUCTURA": "Toma", "Field_1": "10.5-A - 1", "NOMBRE": "10.5-A - 1", "Nro": 19, "PROGRESIVA": "18+619.10", "TRAMO": "Tramo IX" }, "geometry": { "type": "Point", "coordinates": [ -78.8510959, -8.3579458, 0.0 ] } },
{ "type": "Feature", "properties": { "Name": "Toma 10.6-7", "COD_EST": "CANAL LATERAL 10", "ESTRUCTURA": "Toma", "Field_1": "10.6-7", "NOMBRE": "10.6-7", "Nro": 20, "PROGRESIVA": "19+686.01", "TRAMO": "Tramo X" }, "geometry": { "type": "Point", "coordinates": [ -78.8541242, -8.3494904, 0.0 ] } },
{ "type": "Feature", "properties": { "Name": "Toma 10.6", "COD_EST": "CANAL LATERAL 10", "ESTRUCTURA": "Toma", "Field_1": "10.6", "NOMBRE": "10.6", "Nro": 21, "PROGRESIVA": "20+052.57", "TRAMO": "Tramo X" }, "geometry": { "type": "Point", "coordinates": [ -78.8564379, -8.3472917, 0.0 ] } },
{ "type": "Feature", "properties": { "Name": "Toma 10.7", "COD_EST": "CANAL LATERAL 10", "ESTRUCTURA": "Toma", "Field_1": "10.7", "NOMBRE": "10.7", "Nro": 22, "PROGRESIVA": "20+052.57", "TRAMO": "Tramo X" }, "geometry": { "type": "Point", "coordinates": [ -78.8564227, -8.3472897, 0.0 ] } }
]
}
