{
"type": "FeatureCollection",
"name": "Aliviadero",
"features": [
{ "type": "Feature", "properties": { "Name": "Aliviadero", "COD_EST": "CANAL MADRE", "ESTE": 763987.08, "ESTRUCTURA": "Aliviadero", "Field": 0, "Field_1": null, "LONGITUD": 8.5, "N": 1, "NOMBRE": null, "NORTE": 9064157.12, "PROGRESIVA": "66+806.48", "TRAMO": "Tramo VI" }, "geometry": { "type": "Point", "coordinates": [ -78.6023713, -8.4588954, 0.0 ] } },
{ "type": "Feature", "properties": { "Name": "Aliviadero A1", "COD_EST": "CANAL MADRE", "ESTE": 738377.6988, "ESTRUCTURA": "Aliviadero", "Field": 0, "Field_1": "A1", "LONGITUD": 8.42, "N": 3, "NOMBRE": "A1", "NORTE": 9078110.7723999992, "PROGRESIVA": "101+341.613", "TRAMO": "Tramo X" }, "geometry": { "type": "Point", "coordinates": [ -78.8355444, -8.3341266, 0.0 ] } },
{ "type": "Feature", "properties": { "Name": "Aliviadero A2", "COD_EST": "CANAL MADRE", "ESTE": 731614.3078, "ESTRUCTURA": "Aliviadero", "Field": 0, "Field_1": "A2", "LONGITUD": 8.825, "N": 4, "NOMBRE": "A2", "NORTE": 9088957.1459, "PROGRESIVA": "117+745.233", "TRAMO": "Tramo XII" }, "geometry": { "type": "Point", "coordinates": [ -78.8974477, -8.2364132, 0.0 ] } },
{ "type": "Feature", "properties": { "Name": "Aliviadero A3", "COD_EST": "CANAL MADRE", "ESTE": 729269.3152, "ESTRUCTURA": "Aliviadero", "Field": 0, "Field_1": "A3", "LONGITUD": 8.42, "N": 5, "NOMBRE": "A3", "NORTE": 9099754.0516, "PROGRESIVA": "144+355.663", "TRAMO": "Tramo XIII" }, "geometry": { "type": "Point", "coordinates": [ -78.9192324, -8.1389258, 0.0 ] } },
{ "type": "Feature", "properties": { "Name": "Aliviadero", "COD_EST": "CANAL MADRE", "ESTE": 762198.26, "ESTRUCTURA": "Aliviadero", "Field": 0, "Field_1": null, "LONGITUD": 8.5, "N": 2, "NOMBRE": null, "NORTE": 9064795.53, "PROGRESIVA": "68+444.000", "TRAMO": "Tramo VI" }, "geometry": { "type": "Point", "coordinates": [ -78.6186438, -8.453225, 0.0 ] } }
]
}
