{
"type": "FeatureCollection",
"name": "Caja Hidraulica",
"features": [
{ "type": "Feature", "properties": { "Name": "Caja Hidráulica 10,1A-C1", "COD_EST": "Sub lateral 10.1A", "ESTRUCTURA": "Caja Hidráulica", "FID": 1, "Field_1": "10,1A-C1", "NOMBRE": "10,1A-C1", "Nº": 1, "PROGRESIVA": "0+000,00", "TRAMO": "Tramo VIII" }, "geometry": { "type": "Point", "coordinates": [ -78.7791273, -8.3858201, 0.0 ] } },
{ "type": "Feature", "properties": { "Name": "Caja Hidráulica 10,1A-C2", "COD_EST": "Sub lateral 10.1A", "ESTRUCTURA": "Caja Hidráulica", "FID": 2, "Field_1": "10,1A-C2", "NOMBRE": "10,1A-C2", "Nº": 2, "PROGRESIVA": "0+096,01", "TRAMO": "Tramo VIII" }, "geometry": { "type": "Point", "coordinates": [ -78.779559, -8.3865739, 0.0 ] } },
{ "type": "Feature", "properties": { "Name": "Caja Hidráulica 10,1A-C3", "COD_EST": "Sub lateral 10.1A", "ESTRUCTURA": "Caja Hidráulica", "FID": 3, "Field_1": "10,1A-C3", "NOMBRE": "10,1A-C3", "Nº": 3, "PROGRESIVA": "0+109,81", "TRAMO": "Tramo VIII" }, "geometry": { "type": "Point", "coordinates": [ -78.7796219, -8.3866818, 0.0 ] } },
{ "type": "Feature", "properties": { "Name": "Caja Hidráulica 10,1A-CH1", "COD_EST": "Sub lateral 10.1A", "ESTRUCTURA": "Caja Hidráulica", "FID": 4, "Field_1": "10,1A-CH1", "NOMBRE": "10,1A-CH1", "Nº": 4, "PROGRESIVA": "0+317,18", "TRAMO": "Tramo VIII" }, "geometry": { "type": "Point", "coordinates": [ -78.780442, -8.3883739, 0.0 ] } },
{ "type": "Feature", "properties": { "Name": "Caja Hidráulica 10,1A-CH2", "COD_EST": "Sub lateral 10.1A", "ESTRUCTURA": "Caja Hidráulica", "FID": 5, "Field_1": "10,1A-CH2", "NOMBRE": "10,1A-CH2", "Nº": 5, "PROGRESIVA": "0+322,59", "TRAMO": "Tramo VIII" }, "geometry": { "type": "Point", "coordinates": [ -78.7806155, -8.3883315, 0.0 ] } },
{ "type": "Feature", "properties": { "Name": "Caja Hidráulica 10,1A-C4", "COD_EST": "Sub lateral 10.1A", "ESTRUCTURA": "Caja Hidráulica", "FID": 6, "Field_1": "10,1A-C4", "NOMBRE": "10,1A-C4", "Nº": 6, "PROGRESIVA": "0+326,82", "TRAMO": "Tramo VIII" }, "geometry": { "type": "Point", "coordinates": [ -78.780599, -8.388385, 0.0 ] } },
{ "type": "Feature", "properties": { "Name": "Caja Hidráulica 10,2-C1", "COD_EST": "Sub lateral 10.2", "ESTRUCTURA": "Caja Hidráulica", "FID": 7, "Field_1": "10,2-C1", "NOMBRE": "10,2-C1", "Nº": 7, "PROGRESIVA": "0+000,00", "TRAMO": "Tramo IX" }, "geometry": { "type": "Point", "coordinates": [ -78.7863873, -8.3811184, 0.0 ] } },
{ "type": "Feature", "properties": { "Name": "Caja Hidráulica 10,2-C1,1", "COD_EST": "Sub lateral 10.2", "ESTRUCTURA": "Caja Hidráulica", "FID": 8, "Field_1": "10,2-C1,1", "NOMBRE": "10,2-C1,1", "Nº": 8, "PROGRESIVA": "0+027,36", "TRAMO": "Tramo IX" }, "geometry": { "type": "Point", "coordinates": [ -78.7865562, -8.3812997, 0.0 ] } },
{ "type": "Feature", "properties": { "Name": "Caja Hidráulica 10,2-C2", "COD_EST": "Sub lateral 10.2", "ESTRUCTURA": "Caja Hidráulica", "FID": 9, "Field_1": "10,2-C2", "NOMBRE": "10,2-C2", "Nº": 9, "PROGRESIVA": "0+047,69", "TRAMO": "Tramo IX" }, "geometry": { "type": "Point", "coordinates": [ -78.7866821, -8.381434, 0.0 ] } },
{ "type": "Feature", "properties": { "Name": "Caja Hidráulica 10,2-C3", "COD_EST": "Sub lateral 10.2", "ESTRUCTURA": "Caja Hidráulica", "FID": 10, "Field_1": "10,2-C3", "NOMBRE": "10,2-C3", "Nº": 10, "PROGRESIVA": "0+072,66", "TRAMO": "Tramo IX" }, "geometry": { "type": "Point", "coordinates": [ -78.7868347, -8.381601, 0.0 ] } },
{ "type": "Feature", "properties": { "Name": "Caja Hidráulica 10,2-C3,1", "COD_EST": "Sub lateral 10.2", "ESTRUCTURA": "Caja Hidráulica", "FID": 11, "Field_1": "10,2-C3,1", "NOMBRE": "10,2-C3,1", "Nº": 11, "PROGRESIVA": "0+102,41", "TRAMO": "Tramo IX" }, "geometry": { "type": "Point", "coordinates": [ -78.7869344, -8.3818743, 0.0 ] } },
{ "type": "Feature", "properties": { "Name": "Caja Hidráulica 10,2-C3,2", "COD_EST": "Sub lateral 10.2", "ESTRUCTURA": "Caja Hidráulica", "FID": 12, "Field_1": "10,2-C3,2", "NOMBRE": "10,2-C3,2", "Nº": 12, "PROGRESIVA": "0+105,67", "TRAMO": "Tramo IX" }, "geometry": { "type": "Point", "coordinates": [ -78.7870404, -8.3818179, 0.0 ] } },
{ "type": "Feature", "properties": { "Name": "Caja Hidráulica 10,2-CH1", "COD_EST": "Sub lateral 10.2", "ESTRUCTURA": "Caja Hidráulica", "FID": 13, "Field_1": "10,2-CH1", "NOMBRE": "10,2-CH1", "Nº": 13, "PROGRESIVA": "0+245,25", "TRAMO": "Tramo IX" }, "geometry": { "type": "Point", "coordinates": [ -78.7877979, -8.3828375, 0.0 ] } },
{ "type": "Feature", "properties": { "Name": "Caja Hidráulica 10,2-CH2", "COD_EST": "Sub lateral 10.2", "ESTRUCTURA": "Caja Hidráulica", "FID": 14, "Field_1": "10,2-CH2", "NOMBRE": "10,2-CH2", "Nº": 14, "PROGRESIVA": "0+249,67", "TRAMO": "Tramo IX" }, "geometry": { "type": "Point", "coordinates": [ -78.7879211, -8.3827796, 0.0 ] } },
{ "type": "Feature", "properties": { "Name": "Caja Hidráulica 10,2-C4", "COD_EST": "Sub lateral 10.2", "ESTRUCTURA": "Caja Hidráulica", "FID": 15, "Field_1": "10,2-C4", "NOMBRE": "10,2-C4", "Nº": 15, "PROGRESIVA": "0+254,81", "TRAMO": "Tramo IX" }, "geometry": { "type": "Point", "coordinates": [ -78.7879455, -8.3828203, 0.0 ] } },
{ "type": "Feature", "properties": { "Name": "Caja Hidráulica 10,2A-C1", "COD_EST": "Sub lateral 10.2A", "ESTRUCTURA": "Caja Hidráulica", "FID": 16, "Field_1": "10,2A-C1", "NOMBRE": "10,2A-C1", "Nº": 16, "PROGRESIVA": "0+000,00", "TRAMO": "Tramo IX" }, "geometry": { "type": "Point", "coordinates": [ -78.795503, -8.3727497, 0.0 ] } },
{ "type": "Feature", "properties": { "Name": "Caja Hidráulica 10,2A-C2", "COD_EST": "Sub lateral 10.2A", "ESTRUCTURA": "Caja Hidráulica", "FID": 17, "Field_1": "10,2A-C2", "NOMBRE": "10,2A-C2", "Nº": 17, "PROGRESIVA": "0+086,41", "TRAMO": "Tramo IX" }, "geometry": { "type": "Point", "coordinates": [ -78.7951076, -8.3734242, 0.0 ] } },
{ "type": "Feature", "properties": { "Name": "Caja Hidráulica 10,2A-C3", "COD_EST": "Sub lateral 10.2A", "ESTRUCTURA": "Caja Hidráulica", "FID": 18, "Field_1": "10,2A-C3", "NOMBRE": "10,2A-C3", "Nº": 18, "PROGRESIVA": "0+099,06", "TRAMO": "Tramo IX" }, "geometry": { "type": "Point", "coordinates": [ -78.7950519, -8.3735241, 0.0 ] } },
{ "type": "Feature", "properties": { "Name": "Caja Hidráulica 10,2A-CH1", "COD_EST": "Sub lateral 10.2A", "ESTRUCTURA": "Caja Hidráulica", "FID": 19, "Field_1": "10,2A-CH1", "NOMBRE": "10,2A-CH1", "Nº": 19, "PROGRESIVA": "0+237,21", "TRAMO": "Tramo IX" }, "geometry": { "type": "Point", "coordinates": [ -78.7944803, -8.3746356, 0.0 ] } },
{ "type": "Feature", "properties": { "Name": "Caja Hidráulica 10,2A-CH2", "COD_EST": "Sub lateral 10.2A", "ESTRUCTURA": "Caja Hidráulica", "FID": 20, "Field_1": "10,2A-CH2", "NOMBRE": "10,2A-CH2", "Nº": 20, "PROGRESIVA": "0+450,90", "TRAMO": "Tramo IX" }, "geometry": { "type": "Point", "coordinates": [ -78.7946863, -8.3763987, 0.0 ] } },
{ "type": "Feature", "properties": { "Name": "Caja Hidráulica 10,2A-C4", "COD_EST": "Sub lateral 10.2A", "ESTRUCTURA": "Caja Hidráulica", "FID": 21, "Field_1": "10,2A-C4", "NOMBRE": "10,2A-C4", "Nº": 21, "PROGRESIVA": "0+452,54", "TRAMO": "Tramo IX" }, "geometry": { "type": "Point", "coordinates": [ -78.7946516, -8.3763985, 0.0 ] } },
{ "type": "Feature", "properties": { "Name": "Caja Hidráulica 10,3-C1", "COD_EST": "Sub lateral 10.3", "ESTRUCTURA": "Caja Hidráulica", "FID": 22, "Field_1": "10,3-C1", "NOMBRE": "10,3-C1", "Nº": 22, "PROGRESIVA": "0+000,00", "TRAMO": "Tramo IX" }, "geometry": { "type": "Point", "coordinates": [ -78.7986413, -8.3711311, 0.0 ] } },
{ "type": "Feature", "properties": { "Name": "Caja Hidráulica 10,3-C2", "COD_EST": "Sub lateral 10.3", "ESTRUCTURA": "Caja Hidráulica", "FID": 23, "Field_1": "10,3-C2", "NOMBRE": "10,3-C2", "Nº": 23, "PROGRESIVA": "0+078,46", "TRAMO": "Tramo IX" }, "geometry": { "type": "Point", "coordinates": [ -78.7990843, -8.3716864, 0.0 ] } },
{ "type": "Feature", "properties": { "Name": "Caja Hidráulica 10,3-C3", "COD_EST": "Sub lateral 10.3", "ESTRUCTURA": "Caja Hidráulica", "FID": 24, "Field_1": "10,3-C3", "NOMBRE": "10,3-C3", "Nº": 24, "PROGRESIVA": "0+092,54", "TRAMO": "Tramo IX" }, "geometry": { "type": "Point", "coordinates": [ -78.7991628, -8.3717868, 0.0 ] } },
{ "type": "Feature", "properties": { "Name": "Caja Hidráulica 10,3-C3,1", "COD_EST": "Sub lateral 10.4", "ESTRUCTURA": "Caja Hidráulica", "FID": 25, "Field_1": "10,3-C3,1", "NOMBRE": "10,3-C3,1", "Nº": 25, "PROGRESIVA": "0+372,12", "TRAMO": "Tramo IX" }, "geometry": { "type": "Point", "coordinates": [ -78.8007242, -8.3737788, 0.0 ] } },
{ "type": "Feature", "properties": { "Name": "Caja Hidráulica 10,3-CH1", "COD_EST": "Sub lateral 10.3", "ESTRUCTURA": "Caja Hidráulica", "FID": 26, "Field_1": "10,3-CH1", "NOMBRE": "10,3-CH1", "Nº": 26, "PROGRESIVA": "0+428,85", "TRAMO": "Tramo IX" }, "geometry": { "type": "Point", "coordinates": [ -78.8010754, -8.3741541, 0.0 ] } },
{ "type": "Feature", "properties": { "Name": "Caja Hidráulica 10,3-C4", "COD_EST": "Sub lateral 10.3", "ESTRUCTURA": "Caja Hidráulica", "FID": 27, "Field_1": "10,3-C4", "NOMBRE": "10,3-C4", "Nº": 27, "PROGRESIVA": "0+507,77", "TRAMO": "Tramo IX" }, "geometry": { "type": "Point", "coordinates": [ -78.8011425, -8.3748697, 0.0 ] } },
{ "type": "Feature", "properties": { "Name": "Caja Hidráulica 10,3-CH2", "COD_EST": "Sub lateral 10.3", "ESTRUCTURA": "Caja Hidráulica", "FID": 28, "Field_1": "10,3-CH2", "NOMBRE": "10,3-CH2", "Nº": 28, "PROGRESIVA": "1+117,46", "TRAMO": "Tramo IX" }, "geometry": { "type": "Point", "coordinates": [ -78.8014986, -8.3803702, 0.0 ] } },
{ "type": "Feature", "properties": { "Name": "Caja Hidráulica 10,3-CH3", "COD_EST": "Sub lateral 10.3", "ESTRUCTURA": "Caja Hidráulica", "FID": 29, "Field_1": "10,3-CH3", "NOMBRE": "10,3-CH3", "Nº": 29, "PROGRESIVA": "1+297,58", "TRAMO": "Tramo IX" }, "geometry": { "type": "Point", "coordinates": [ -78.8014091, -8.3820047, 0.0 ] } },
{ "type": "Feature", "properties": { "Name": "Caja Hidráulica 10,3-CH4", "COD_EST": "Sub lateral 10.3", "ESTRUCTURA": "Caja Hidráulica", "FID": 30, "Field_1": "10,3-CH4", "NOMBRE": "10,3-CH4", "Nº": 30, "PROGRESIVA": "1+587,52", "TRAMO": "Tramo IX" }, "geometry": { "type": "Point", "coordinates": [ -78.8017415, -8.3846125, 0.0 ] } },
{ "type": "Feature", "properties": { "Name": "Caja Hidráulica 10,3-C5", "COD_EST": "Sub lateral 10.3", "ESTRUCTURA": "Caja Hidráulica", "FID": 31, "Field_1": "10,3-C5", "NOMBRE": "10,3-C5", "Nº": 31, "PROGRESIVA": "1+632,65", "TRAMO": "Tramo IX" }, "geometry": { "type": "Point", "coordinates": [ -78.8017108, -8.3850224, 0.0 ] } },
{ "type": "Feature", "properties": { "Name": "Caja Hidráulica 10,3A-C1", "COD_EST": "Sub lateral 10.3A", "ESTRUCTURA": "Caja Hidráulica", "FID": 32, "Field_1": "10,3A-C1", "NOMBRE": "10,3A-C1", "Nº": 32, "PROGRESIVA": "0+000,00", "TRAMO": "Tramo IX" }, "geometry": { "type": "Point", "coordinates": [ -78.8174695, -8.3839685, 0.0 ] } },
{ "type": "Feature", "properties": { "Name": "Caja Hidráulica 10,3A-C2", "COD_EST": "Sub lateral 10.3A", "ESTRUCTURA": "Caja Hidráulica", "FID": 33, "Field_1": "10,3A-C2", "NOMBRE": "10,3A-C2", "Nº": 33, "PROGRESIVA": "0+073,27", "TRAMO": "Tramo IX" }, "geometry": { "type": "Point", "coordinates": [ -78.8174467, -8.3846304, 0.0 ] } },
{ "type": "Feature", "properties": { "Name": "Caja Hidráulica 10,3A-C3", "COD_EST": "Sub lateral 10.3A", "ESTRUCTURA": "Caja Hidráulica", "FID": 34, "Field_1": "10,3A-C3", "NOMBRE": "10,3A-C3", "Nº": 34, "PROGRESIVA": "0+088,90", "TRAMO": "Tramo IX" }, "geometry": { "type": "Point", "coordinates": [ -78.8174437, -8.3847717, 0.0 ] } },
{ "type": "Feature", "properties": { "Name": "Caja Hidráulica 10,3A-CH1", "COD_EST": "Sub lateral 10.3A", "ESTRUCTURA": "Caja Hidráulica", "FID": 35, "Field_1": "10,3A-CH1", "NOMBRE": "10,3A-CH1", "Nº": 35, "PROGRESIVA": "0+284,82", "TRAMO": "Tramo IX" }, "geometry": { "type": "Point", "coordinates": [ -78.8173369, -8.3865395, 0.0 ] } },
{ "type": "Feature", "properties": { "Name": "Caja Hidráulica 10,3A-C4", "COD_EST": "Sub lateral 10.3A", "ESTRUCTURA": "Caja Hidráulica", "FID": 36, "Field_1": "10,3A-C4", "NOMBRE": "10,3A-C4", "Nº": 36, "PROGRESIVA": "0+466,59", "TRAMO": "Tramo IX" }, "geometry": { "type": "Point", "coordinates": [ -78.8173452, -8.3881832, 0.0 ] } },
{ "type": "Feature", "properties": { "Name": "Caja Hidráulica 10,3A-CH2", "COD_EST": "Sub lateral 10.3A", "ESTRUCTURA": "Caja Hidráulica", "FID": 37, "Field_1": "10,3A-CH2", "NOMBRE": "10,3A-CH2", "Nº": 37, "PROGRESIVA": "0+465,74", "TRAMO": "Tramo IX" }, "geometry": { "type": "Point", "coordinates": [ -78.817464, -8.3881759, 0.0 ] } },
{ "type": "Feature", "properties": { "Name": "Caja Hidráulica 10,3A-CH3", "COD_EST": "Sub lateral 10.3A", "ESTRUCTURA": "Caja Hidráulica", "FID": 38, "Field_1": "10,3A-CH3", "NOMBRE": "10,3A-CH3", "Nº": 38, "PROGRESIVA": "0+470,02", "TRAMO": "Tramo IX" }, "geometry": { "type": "Point", "coordinates": [ -78.8172843, -8.3882108, 0.0 ] } },
{ "type": "Feature", "properties": { "Name": "Caja Hidráulica 10,3A-CH4", "COD_EST": "Sub lateral 10.3A", "ESTRUCTURA": "Caja Hidráulica", "FID": 39, "Field_1": "10,3A-CH4", "NOMBRE": "10,3A-CH4", "Nº": 39, "PROGRESIVA": "0+505,48", "TRAMO": "Tramo IX" }, "geometry": { "type": "Point", "coordinates": [ -78.817455, -8.3885415, 0.0 ] } },
{ "type": "Feature", "properties": { "Name": "Caja Hidráulica 10,3A-C5", "COD_EST": "Sub lateral 10.3A", "ESTRUCTURA": "Caja Hidráulica", "FID": 40, "Field_1": "10,3A-C5", "NOMBRE": "10,3A-C5", "Nº": 40, "PROGRESIVA": "0+511,28", "TRAMO": "Tramo IX" }, "geometry": { "type": "Point", "coordinates": [ -78.817322, -8.3885865, 0.0 ] } },
{ "type": "Feature", "properties": { "Name": "Caja Hidráulica 10,4-C1", "COD_EST": "Sub lateral 10.4", "ESTRUCTURA": "Caja Hidráulica", "FID": 41, "Field_1": "10,4-C1", "NOMBRE": "10,4-C1", "Nº": 41, "PROGRESIVA": "0+000,00", "TRAMO": "Tramo IX" }, "geometry": { "type": "Point", "coordinates": [ -78.826697, -8.3845894, 0.0 ] } },
{ "type": "Feature", "properties": { "Name": "Caja Hidráulica 10,4-C1,1", "COD_EST": "Sub lateral 10.4", "ESTRUCTURA": "Caja Hidráulica", "FID": 42, "Field_1": "10,4-C1,1", "NOMBRE": "10,4-C1,1", "Nº": 42, "PROGRESIVA": "0+002,84", "TRAMO": "Tramo IX" }, "geometry": { "type": "Point", "coordinates": [ -78.8266968, -8.384615, 0.0 ] } },
{ "type": "Feature", "properties": { "Name": "Caja Hidráulica 10,4-C2", "COD_EST": "Sub lateral 10.4", "ESTRUCTURA": "Caja Hidráulica", "FID": 43, "Field_1": "10,4-C2", "NOMBRE": "10,4-C2", "Nº": 43, "PROGRESIVA": "0+050,32", "TRAMO": "Tramo IX" }, "geometry": { "type": "Point", "coordinates": [ -78.8267141, -8.3850439, 0.0 ] } },
{ "type": "Feature", "properties": { "Name": "Caja Hidráulica 10,4-C3", "COD_EST": "Sub lateral 10.4", "ESTRUCTURA": "Caja Hidráulica", "FID": 44, "Field_1": "10,4-C3", "NOMBRE": "10,4-C3", "Nº": 44, "PROGRESIVA": "0+063,28", "TRAMO": "Tramo IX" }, "geometry": { "type": "Point", "coordinates": [ -78.8267193, -8.3851609, 0.0 ] } },
{ "type": "Feature", "properties": { "Name": "Caja Hidráulica 10,4-C4", "COD_EST": "Sub lateral 10.4", "ESTRUCTURA": "Caja Hidráulica", "FID": 45, "Field_1": "10,4-C4", "NOMBRE": "10,4-C4", "Nº": 45, "PROGRESIVA": "0+572,73", "TRAMO": "Tramo IX" }, "geometry": { "type": "Point", "coordinates": [ -78.8269358, -8.3897608, 0.0 ] } },
{ "type": "Feature", "properties": { "Name": "Caja Hidráulica 10,4-CH1", "COD_EST": "Sub lateral 10.4", "ESTRUCTURA": "Caja Hidráulica", "FID": 46, "Field_1": "10,4-CH1", "NOMBRE": "10,4-CH1", "Nº": 46, "PROGRESIVA": "0+578,68", "TRAMO": "Tramo IX" }, "geometry": { "type": "Point", "coordinates": [ -78.8269732, -8.3898118, 0.0 ] } },
{ "type": "Feature", "properties": { "Name": "Caja Hidráulica 10,4-CH2", "COD_EST": "Sub lateral 10.4", "ESTRUCTURA": "Caja Hidráulica", "FID": 47, "Field_1": "10,4-CH2", "NOMBRE": "10,4-CH2", "Nº": 47, "PROGRESIVA": "0+847,12", "TRAMO": "Tramo IX" }, "geometry": { "type": "Point", "coordinates": [ -78.8271266, -8.3922361, 0.0 ] } },
{ "type": "Feature", "properties": { "Name": "Caja Hidráulica 10,4-CH3", "COD_EST": "Sub lateral 10.4", "ESTRUCTURA": "Caja Hidráulica", "FID": 48, "Field_1": "10,4-CH3", "NOMBRE": "10,4-CH3", "Nº": 48, "PROGRESIVA": "0+857,14", "TRAMO": "Tramo IX" }, "geometry": { "type": "Point", "coordinates": [ -78.8269225, -8.3923348, 0.0 ] } },
{ "type": "Feature", "properties": { "Name": "Caja Hidráulica 10,4-C5", "COD_EST": "Sub lateral 10.4", "ESTRUCTURA": "Caja Hidráulica", "FID": 49, "Field_1": "10,4-C5", "NOMBRE": "10,4-C5", "Nº": 49, "PROGRESIVA": "1+338,80", "TRAMO": "Tramo IX" }, "geometry": { "type": "Point", "coordinates": [ -78.8272576, -8.396677, 0.0 ] } },
{ "type": "Feature", "properties": { "Name": "Caja Hidráulica 10,4-C6", "COD_EST": "Sub lateral 10.4", "ESTRUCTURA": "Caja Hidráulica", "FID": 50, "Field_1": "10,4-C6", "NOMBRE": "10,4-C6", "Nº": 50, "PROGRESIVA": "1+597,90", "TRAMO": "Tramo IX" }, "geometry": { "type": "Point", "coordinates": [ -78.8273922, -8.3990152, 0.0 ] } },
{ "type": "Feature", "properties": { "Name": "Caja Hidráulica 10,4A-C1", "COD_EST": "Sub lateral 10.4A", "ESTRUCTURA": "Caja Hidráulica", "FID": 51, "Field_1": "10,4A-C1", "NOMBRE": "10,4A-C1", "Nº": 51, "PROGRESIVA": "0+000,00", "TRAMO": "Tramo IX" }, "geometry": { "type": "Point", "coordinates": [ -78.8388666, -8.3794836, 0.0 ] } },
{ "type": "Feature", "properties": { "Name": "Caja Hidráulica 10,4A-C2", "COD_EST": "Sub lateral 10.4A", "ESTRUCTURA": "Caja Hidráulica", "FID": 52, "Field_1": "10,4A-C2", "NOMBRE": "10,4A-C2", "Nº": 52, "PROGRESIVA": "0+005,23", "TRAMO": "Tramo IX" }, "geometry": { "type": "Point", "coordinates": [ -78.8388922, -8.3795235, 0.0 ] } },
{ "type": "Feature", "properties": { "Name": "Caja Hidráulica 10,4A-C3", "COD_EST": "Sub lateral 10.4A", "ESTRUCTURA": "Caja Hidráulica", "FID": 53, "Field_1": "10,4A-C3", "NOMBRE": "10,4A-C3", "Nº": 53, "PROGRESIVA": "0+031,14", "TRAMO": "Tramo IX" }, "geometry": { "type": "Point", "coordinates": [ -78.8390429, -8.3797137, 0.0 ] } },
{ "type": "Feature", "properties": { "Name": "Caja Hidráulica 10,4A-C4", "COD_EST": "Sub lateral 10.4A", "ESTRUCTURA": "Caja Hidráulica", "FID": 54, "Field_1": "10,4A-C4", "NOMBRE": "10,4A-C4", "Nº": 54, "PROGRESIVA": "0+044,05", "TRAMO": "Tramo IX" }, "geometry": { "type": "Point", "coordinates": [ -78.8390273, -8.379817, 0.0 ] } },
{ "type": "Feature", "properties": { "Name": "Caja Hidráulica 10,4A-CH1", "COD_EST": "Sub lateral 10.4A", "ESTRUCTURA": "Caja Hidráulica", "FID": 55, "Field_1": "10,4A-CH1", "NOMBRE": "10,4A-CH1", "Nº": 55, "PROGRESIVA": "0+451,92", "TRAMO": "Tramo IX" }, "geometry": { "type": "Point", "coordinates": [ -78.8408082, -8.3829616, 0.0 ] } },
{ "type": "Feature", "properties": { "Name": "Caja Hidráulica 10,4A-C5", "COD_EST": "Sub lateral 10.4A", "ESTRUCTURA": "Caja Hidráulica", "FID": 56, "Field_1": "10,4A-C5", "NOMBRE": "10,4A-C5", "Nº": 56, "PROGRESIVA": "0+490,29", "TRAMO": "Tramo IX" }, "geometry": { "type": "Point", "coordinates": [ -78.8410409, -8.3832239, 0.0 ] } },
{ "type": "Feature", "properties": { "Name": "Caja Hidráulica 10,4A-C6", "COD_EST": "Sub lateral 10.4A", "ESTRUCTURA": "Caja Hidráulica", "FID": 57, "Field_1": "10,4A-C6", "NOMBRE": "10,4A-C6", "Nº": 57, "PROGRESIVA": "0+489,77", "TRAMO": "Tramo IX" }, "geometry": { "type": "Point", "coordinates": [ -78.8411308, -8.3831585, 0.0 ] } },
{ "type": "Feature", "properties": { "Name": "Caja Hidráulica 10,4A-CH2", "COD_EST": "Sub lateral 10.4A", "ESTRUCTURA": "Caja Hidráulica", "FID": 58, "Field_1": "10,4A-CH2", "NOMBRE": "10,4A-CH2", "Nº": 58, "PROGRESIVA": "0+500,33", "TRAMO": "Tramo IX" }, "geometry": { "type": "Point", "coordinates": [ -78.8411872, -8.3832348, 0.0 ] } },
{ "type": "Feature", "properties": { "Name": "Caja Hidráulica 10,4A-CH3", "COD_EST": "Sub lateral 10.4A", "ESTRUCTURA": "Caja Hidráulica", "FID": 59, "Field_1": "10,4A-CH3", "NOMBRE": "10,4A-CH3", "Nº": 59, "PROGRESIVA": "0+501,97", "TRAMO": "Tramo IX" }, "geometry": { "type": "Point", "coordinates": [ -78.841063, -8.3833366, 0.0 ] } },
{ "type": "Feature", "properties": { "Name": "Caja Hidráulica 10,4A-C7", "COD_EST": "Sub lateral 10.4A", "ESTRUCTURA": "Caja Hidráulica", "FID": 60, "Field_1": "10,4A-C7", "NOMBRE": "10,4A-C7", "Nº": 60, "PROGRESIVA": "1+001,87", "TRAMO": "Tramo IX" }, "geometry": { "type": "Point", "coordinates": [ -78.8437162, -8.3870048, 0.0 ] } },
{ "type": "Feature", "properties": { "Name": "Caja Hidráulica 10,4A-CH4", "COD_EST": "Sub lateral 10.4A", "ESTRUCTURA": "Caja Hidráulica", "FID": 61, "Field_1": "10,4A-CH4", "NOMBRE": "10,4A-CH4", "Nº": 61, "PROGRESIVA": "1+001,19", "TRAMO": "Tramo IX" }, "geometry": { "type": "Point", "coordinates": [ -78.8437514, -8.3869733, 0.0 ] } },
{ "type": "Feature", "properties": { "Name": "Caja Hidráulica 10,4A-CH5", "COD_EST": "Sub lateral 10.4A", "ESTRUCTURA": "Caja Hidráulica", "FID": 62, "Field_1": "10,4A-CH5", "NOMBRE": "10,4A-CH5", "Nº": 62, "PROGRESIVA": "1+101,51", "TRAMO": "Tramo IX" }, "geometry": { "type": "Point", "coordinates": [ -78.8441118, -8.3878254, 0.0 ] } },
{ "type": "Feature", "properties": { "Name": "Caja Hidráulica 10,4A-C8", "COD_EST": "Sub lateral 10.4A", "ESTRUCTURA": "Caja Hidráulica", "FID": 63, "Field_1": "10,4A-C8", "NOMBRE": "10,4A-C8", "Nº": 63, "PROGRESIVA": "1+729,57", "TRAMO": "Tramo IX" }, "geometry": { "type": "Point", "coordinates": [ -78.847349, -8.3924987, 0.0 ] } },
{ "type": "Feature", "properties": { "Name": "Caja Hidráulica 10,4A-C9", "COD_EST": "Sub lateral 10.4A", "ESTRUCTURA": "Caja Hidráulica", "FID": 64, "Field_1": "10,4A-C9", "NOMBRE": "10,4A-C9", "Nº": 64, "PROGRESIVA": "1+767,28", "TRAMO": "Tramo IX" }, "geometry": { "type": "Point", "coordinates": [ -78.8475411, -8.3927808, 0.0 ] } },
{ "type": "Feature", "properties": { "Name": "Caja Hidráulica 10,4A-C10", "COD_EST": "Sub lateral 10.4A", "ESTRUCTURA": "Caja Hidráulica", "FID": 65, "Field_1": "10,4A-C10", "NOMBRE": "10,4A-C10", "Nº": 65, "PROGRESIVA": "1+801,42", "TRAMO": "Tramo IX" }, "geometry": { "type": "Point", "coordinates": [ -78.8478221, -8.3929648, 0.0 ] } },
{ "type": "Feature", "properties": { "Name": "Caja Hidráulica 10,4A-CH6", "COD_EST": "Sub lateral 10.4A", "ESTRUCTURA": "Caja Hidráulica", "FID": 66, "Field_1": "10,4A-CH6", "NOMBRE": "10,4A-CH6", "Nº": 66, "PROGRESIVA": "1+802,37", "TRAMO": "Tramo IX" }, "geometry": { "type": "Point", "coordinates": [ -78.8477204, -8.3930429, 0.0 ] } },
{ "type": "Feature", "properties": { "Name": "Caja Hidráulica 10,4A-CH7", "COD_EST": "Sub lateral 10.4A", "ESTRUCTURA": "Caja Hidráulica", "FID": 67, "Field_1": "10,4A-CH7", "NOMBRE": "10,4A-CH7", "Nº": 67, "PROGRESIVA": "1+806,24", "TRAMO": "Tramo IX" }, "geometry": { "type": "Point", "coordinates": [ -78.8477077, -8.3930936, 0.0 ] } },
{ "type": "Feature", "properties": { "Name": "Caja Hidráulica 10,4A-C11", "COD_EST": "Sub lateral 10.4A", "ESTRUCTURA": "Caja Hidráulica", "FID": 68, "Field_1": "10,4A-C11", "NOMBRE": "10,4A-C11", "Nº": 68, "PROGRESIVA": "1+812,51", "TRAMO": "Tramo IX" }, "geometry": { "type": "Point", "coordinates": [ -78.8477697, -8.3931204, 0.0 ] } },
{ "type": "Feature", "properties": { "Name": "Caja Hidráulica 10.5-C1,1", "COD_EST": "Sub lateral 10.5", "ESTRUCTURA": "Caja Hidráulica", "FID": 69, "Field_1": "10.5-C1,1", "NOMBRE": "10.5-C1,1", "Nº": 69, "PROGRESIVA": "0+000,00", "TRAMO": "Tramo IX" }, "geometry": { "type": "Point", "coordinates": [ -78.8497917, -8.3658948, 0.0 ] } },
{ "type": "Feature", "properties": { "Name": "Caja Hidráulica 10.5-CH1", "COD_EST": "Sub lateral 10.5", "ESTRUCTURA": "Caja Hidráulica", "FID": 70, "Field_1": "10.5-CH1", "NOMBRE": "10.5-CH1", "Nº": 70, "PROGRESIVA": "0+111,06", "TRAMO": "Tramo IX" }, "geometry": { "type": "Point", "coordinates": [ -78.8490789, -8.3666045, 0.0 ] } },
{ "type": "Feature", "properties": { "Name": "Caja Hidráulica 10.5-C1", "COD_EST": "Sub lateral 10.5", "ESTRUCTURA": "Caja Hidráulica", "FID": 71, "Field_1": "10.5-C1", "NOMBRE": "10.5-C1", "Nº": 71, "PROGRESIVA": "0+228,02", "TRAMO": "Tramo IX" }, "geometry": { "type": "Point", "coordinates": [ -78.8499606, -8.3660157, 0.0 ] } },
{ "type": "Feature", "properties": { "Name": "Caja Hidráulica 10.5-C2", "COD_EST": "Sub lateral 10.5", "ESTRUCTURA": "Caja Hidráulica", "FID": 72, "Field_1": "10.5-C2", "NOMBRE": "10.5-C2", "Nº": 72, "PROGRESIVA": "0+348,19", "TRAMO": "Tramo IX" }, "geometry": { "type": "Point", "coordinates": [ -78.8505841, -8.3669069, 0.0 ] } },
{ "type": "Feature", "properties": { "Name": "Caja Hidráulica 10.5-C3", "COD_EST": "Sub lateral 10.5", "ESTRUCTURA": "Caja Hidráulica", "FID": 73, "Field_1": "10.5-C3", "NOMBRE": "10.5-C3", "Nº": 73, "PROGRESIVA": "0+362,91", "TRAMO": "Tramo IX" }, "geometry": { "type": "Point", "coordinates": [ -78.850669, -8.3670097, 0.0 ] } },
{ "type": "Feature", "properties": { "Name": "Caja Hidráulica 10.5-C4", "COD_EST": "Sub lateral 10.5", "ESTRUCTURA": "Caja Hidráulica", "FID": 74, "Field_1": "10.5-C4", "NOMBRE": "10.5-C4", "Nº": 74, "PROGRESIVA": "0+794,79", "TRAMO": "Tramo IX" }, "geometry": { "type": "Point", "coordinates": [ -78.8529142, -8.3702097, 0.0 ] } },
{ "type": "Feature", "properties": { "Name": "Caja Hidráulica 10.5-CH2", "COD_EST": "Sub lateral 10.5", "ESTRUCTURA": "Caja Hidráulica", "FID": 75, "Field_1": "10.5-CH2", "NOMBRE": "10.5-CH2", "Nº": 75, "PROGRESIVA": "0+981,86", "TRAMO": "Tramo IX" }, "geometry": { "type": "Point", "coordinates": [ -78.8538665, -8.3716097, 0.0 ] } },
{ "type": "Feature", "properties": { "Name": "Caja Hidráulica 10,5-CH3", "COD_EST": "Sub lateral 10.5", "ESTRUCTURA": "Caja Hidráulica", "FID": 76, "Field_1": "10,5-CH3", "NOMBRE": "10,5-CH3", "Nº": 76, "PROGRESIVA": "1+286,95", "TRAMO": "Tramo IX" }, "geometry": { "type": "Point", "coordinates": [ -78.8555791, -8.3737805, 0.0 ] } },
{ "type": "Feature", "properties": { "Name": "Caja Hidráulica 10,5-CH4", "COD_EST": "Sub lateral 10.5", "ESTRUCTURA": "Caja Hidráulica", "FID": 77, "Field_1": "10,5-CH4", "NOMBRE": "10,5-CH4", "Nº": 77, "PROGRESIVA": "1+291,22", "TRAMO": "Tramo IX" }, "geometry": { "type": "Point", "coordinates": [ -78.855453, -8.3739164, 0.0 ] } },
{ "type": "Feature", "properties": { "Name": "Caja Hidráulica 10.5-C5", "COD_EST": "Sub lateral 10.5", "ESTRUCTURA": "Caja Hidráulica", "FID": 78, "Field_1": "10.5-C5", "NOMBRE": "10.5-C5", "Nº": 78, "PROGRESIVA": "1+438,74", "TRAMO": "Tramo IX" }, "geometry": { "type": "Point", "coordinates": [ -78.8562302, -8.3750052, 0.0 ] } },
{ "type": "Feature", "properties": { "Name": "Caja Hidráulica 10.5-C6", "COD_EST": "Sub lateral 10.5", "ESTRUCTURA": "Caja Hidráulica", "FID": 79, "Field_1": "10.5-C6", "NOMBRE": "10.5-C6", "Nº": 79, "PROGRESIVA": "1+986,57", "TRAMO": "Tramo IX" }, "geometry": { "type": "Point", "coordinates": [ -78.8591104, -8.3790396, 0.0 ] } },
{ "type": "Feature", "properties": { "Name": "Caja Hidráulica 10.5-C7", "COD_EST": "Sub lateral 10.5", "ESTRUCTURA": "Caja Hidráulica", "FID": 80, "Field_1": "10.5-C7", "NOMBRE": "10.5-C7", "Nº": 80, "PROGRESIVA": "2+018,71", "TRAMO": "Tramo IX" }, "geometry": { "type": "Point", "coordinates": [ -78.8592784, -8.3792771, 0.0 ] } },
{ "type": "Feature", "properties": { "Name": "Caja Hidráulica 10.5-CRI-1", "COD_EST": "Sub lateral 10.5", "ESTRUCTURA": "Caja Hidráulica", "FID": 81, "Field_1": "10.5-CRI-1", "NOMBRE": "10.5-CRI-1", "Nº": 81, "PROGRESIVA": "0+013,67", "TRAMO": "Tramo IX" }, "geometry": { "type": "Point", "coordinates": [ -78.8594702, -8.3793234, 0.0 ] } },
{ "type": "Feature", "properties": { "Name": "Caja Hidráulica 10.5-CRI-2", "COD_EST": "Sub lateral 10.5", "ESTRUCTURA": "Caja Hidráulica", "FID": 82, "Field_1": "10.5-CRI-2", "NOMBRE": "10.5-CRI-2", "Nº": 82, "PROGRESIVA": "0+602,32", "TRAMO": "Tramo IX" }, "geometry": { "type": "Point", "coordinates": [ -78.862971, -8.3753037, 0.0 ] } },
{ "type": "Feature", "properties": { "Name": "Caja Hidráulica 10.5-CRI-3", "COD_EST": "Sub lateral 10.5", "ESTRUCTURA": "Caja Hidráulica", "FID": 83, "Field_1": "10.5-CRI-3", "NOMBRE": "10.5-CRI-3", "Nº": 83, "PROGRESIVA": "0+160,62", "TRAMO": "Tramo IX" }, "geometry": { "type": "Point", "coordinates": [ -78.8662783, -8.3714801, 0.0 ] } },
{ "type": "Feature", "properties": { "Name": "Caja Hidráulica 10,5-CH5", "COD_EST": "Sub lateral 10.5", "ESTRUCTURA": "Caja Hidráulica", "FID": 84, "Field_1": "10,5-CH5", "NOMBRE": "10,5-CH5", "Nº": 84, "PROGRESIVA": "1+310,28", "TRAMO": "Tramo IX" }, "geometry": { "type": "Point", "coordinates": [ -78.8671872, -8.3705394, 0.0 ] } },
{ "type": "Feature", "properties": { "Name": "Caja Hidráulica 10,5-CH6", "COD_EST": "Sub lateral 10.5", "ESTRUCTURA": "Caja Hidráulica", "FID": 85, "Field_1": "10,5-CH6", "NOMBRE": "10,5-CH6", "Nº": 85, "PROGRESIVA": "2+065,87", "TRAMO": "Tramo IX" }, "geometry": { "type": "Point", "coordinates": [ -78.8594852, -8.379653, 0.0 ] } },
{ "type": "Feature", "properties": { "Name": "Caja Hidráulica 10,5-CH7", "COD_EST": "Sub lateral 10.5", "ESTRUCTURA": "Caja Hidráulica", "FID": 86, "Field_1": "10,5-CH7", "NOMBRE": "10,5-CH7", "Nº": 86, "PROGRESIVA": "2+220,52", "TRAMO": "Tramo IX" }, "geometry": { "type": "Point", "coordinates": [ -78.8604251, -8.3807045, 0.0 ] } },
{ "type": "Feature", "properties": { "Name": "Caja Hidráulica 10,5-CH8", "COD_EST": "Sub lateral 10.5", "ESTRUCTURA": "Caja Hidráulica", "FID": 87, "Field_1": "10,5-CH8", "NOMBRE": "10,5-CH8", "Nº": 87, "PROGRESIVA": "2+569,48", "TRAMO": "Tramo IX" }, "geometry": { "type": "Point", "coordinates": [ -78.8622639, -8.383273, 0.0 ] } },
{ "type": "Feature", "properties": { "Name": "Caja Hidráulica 10.5-C8", "COD_EST": "Sub lateral 10.5", "ESTRUCTURA": "Caja Hidráulica", "FID": 88, "Field_1": "10.5-C8", "NOMBRE": "10.5-C8", "Nº": 88, "PROGRESIVA": "2+757,83", "TRAMO": "Tramo IX" }, "geometry": { "type": "Point", "coordinates": [ -78.8631237, -8.3847516, 0.0 ] } },
{ "type": "Feature", "properties": { "Name": "Caja Hidráulica 10,5-CH9", "COD_EST": "Sub lateral 10.5", "ESTRUCTURA": "Caja Hidráulica", "FID": 89, "Field_1": "10,5-CH9", "NOMBRE": "10,5-CH9", "Nº": 89, "PROGRESIVA": "2+770,85", "TRAMO": "Tramo IX" }, "geometry": { "type": "Point", "coordinates": [ -78.8631502, -8.384877, 0.0 ] } },
{ "type": "Feature", "properties": { "Name": "Caja Hidráulica 10,5-CH10", "COD_EST": "Sub lateral 10.5", "ESTRUCTURA": "Caja Hidráulica", "FID": 90, "Field_1": "10,5-CH10", "NOMBRE": "10,5-CH10", "Nº": 90, "PROGRESIVA": "3+342,66", "TRAMO": "Tramo IX" }, "geometry": { "type": "Point", "coordinates": [ -78.8661268, -8.389111, 0.0 ] } },
{ "type": "Feature", "properties": { "Name": "Caja Hidráulica 10,5-CH11", "COD_EST": "Sub lateral 10.5", "ESTRUCTURA": "Caja Hidráulica", "FID": 91, "Field_1": "10,5-CH11", "NOMBRE": "10,5-CH11", "Nº": 91, "PROGRESIVA": "3+687,34", "TRAMO": "Tramo IX" }, "geometry": { "type": "Point", "coordinates": [ -78.8680799, -8.3915528, 0.0 ] } },
{ "type": "Feature", "properties": { "Name": "Caja Hidráulica 10.5-C9", "COD_EST": "Sub lateral 10.5", "ESTRUCTURA": "Caja Hidráulica", "FID": 92, "Field_1": "10.5-C9", "NOMBRE": "10.5-C9", "Nº": 92, "PROGRESIVA": "4+038,38", "TRAMO": "Tramo IX" }, "geometry": { "type": "Point", "coordinates": [ -78.8697914, -8.394233, 0.0 ] } },
{ "type": "Feature", "properties": { "Name": "Caja Hidráulica 10.5-C10", "COD_EST": "Sub lateral 10.5", "ESTRUCTURA": "Caja Hidráulica", "FID": 93, "Field_1": "10.5-C10", "NOMBRE": "10.5-C10", "Nº": 93, "PROGRESIVA": "4+239,06", "TRAMO": "Tramo IX" }, "geometry": { "type": "Point", "coordinates": [ -78.8708366, -8.3957186, 0.0 ] } },
{ "type": "Feature", "properties": { "Name": "Caja Hidráulica 10.5-C11", "COD_EST": "Sub lateral 10.5", "ESTRUCTURA": "Caja Hidráulica", "FID": 94, "Field_1": "10.5-C11", "NOMBRE": "10.5-C11", "Nº": 94, "PROGRESIVA": "4+253,73", "TRAMO": "Tramo IX" }, "geometry": { "type": "Point", "coordinates": [ -78.8709034, -8.3958333, 0.0 ] } },
{ "type": "Feature", "properties": { "Name": "Caja Hidráulica 10.5-CRII-1", "COD_EST": "Sub lateral 10.5", "ESTRUCTURA": "Caja Hidráulica", "FID": 95, "Field_1": "10.5-CRII-1", "NOMBRE": "10.5-CRII-1", "Nº": 95, "PROGRESIVA": "0+500,30", "TRAMO": "Tramo IX" }, "geometry": { "type": "Point", "coordinates": [ -78.8753777, -8.3957641, 0.0 ] } },
{ "type": "Feature", "properties": { "Name": "Caja Hidráulica 10.5-CRII-2", "COD_EST": "Sub lateral 10.5", "ESTRUCTURA": "Caja Hidráulica", "FID": 96, "Field_1": "10.5-CRII-2", "NOMBRE": "10.5-CRII-2", "Nº": 96, "PROGRESIVA": "1+081,43", "TRAMO": "Tramo IX" }, "geometry": { "type": "Point", "coordinates": [ -78.8805855, -8.3949347, 0.0 ] } },
{ "type": "Feature", "properties": { "Name": "Caja Hidráulica 10.5-CH12", "COD_EST": "Sub lateral 10.5", "ESTRUCTURA": "Caja Hidráulica", "FID": 97, "Field_1": "10.5-CH12", "NOMBRE": "10.5-CH12", "Nº": 97, "PROGRESIVA": "1+600,36", "TRAMO": "Tramo IX" }, "geometry": { "type": "Point", "coordinates": [ -78.8852325, -8.3941673, 0.0 ] } },
{ "type": "Feature", "properties": { "Name": "Caja Hidráulica 10.5-CRIII-1", "COD_EST": "Sub lateral 10.5", "ESTRUCTURA": "Caja Hidráulica", "FID": 98, "Field_1": "10.5-CRIII-1", "NOMBRE": "10.5-CRIII-1", "Nº": 98, "PROGRESIVA": "0+480,71", "TRAMO": "Tramo IX" }, "geometry": { "type": "Point", "coordinates": [ -78.8752693, -8.3958549, 0.0 ] } },
{ "type": "Feature", "properties": { "Name": "Caja Hidráulica 10.5-CRIII-2", "COD_EST": "Sub lateral 10.5", "ESTRUCTURA": "Caja Hidráulica", "FID": 99, "Field_1": "10.5-CRIII-2", "NOMBRE": "10.5-CRIII-2", "Nº": 99, "PROGRESIVA": "1+106,05", "TRAMO": "Tramo IX" }, "geometry": { "type": "Point", "coordinates": [ -78.8808726, -8.3949622, 0.0 ] } },
{ "type": "Feature", "properties": { "Name": "Caja Hidráulica 10.5-CRIII-3", "COD_EST": "Sub lateral 10.5", "ESTRUCTURA": "Caja Hidráulica", "FID": 100, "Field_1": "10.5-CRIII-3", "NOMBRE": "10.5-CRIII-3", "Nº": 100, "PROGRESIVA": "1+563,51", "TRAMO": "Tramo IX" }, "geometry": { "type": "Point", "coordinates": [ -78.8849723, -8.3943044, 0.0 ] } },
{ "type": "Feature", "properties": { "Name": "Caja Hidráulica 10.5-CH13", "COD_EST": "Sub lateral 10.5", "ESTRUCTURA": "Caja Hidráulica", "FID": 101, "Field_1": "10.5-CH13", "NOMBRE": "10.5-CH13", "Nº": 101, "PROGRESIVA": "2+750,40", "TRAMO": "Tramo IX" }, "geometry": { "type": "Point", "coordinates": [ -78.8908817, -8.4032752, 0.0 ] } },
{ "type": "Feature", "properties": { "Name": "Caja Hidráulica 10.5-CH14", "COD_EST": "Sub lateral 10.5", "ESTRUCTURA": "Caja Hidráulica", "FID": 102, "Field_1": "10.5-CH14", "NOMBRE": "10.5-CH14", "Nº": 102, "PROGRESIVA": "0+478,09", "TRAMO": "Tramo IX" }, "geometry": { "type": "Point", "coordinates": [ -78.8752451, -8.3958883, 0.0 ] } },
{ "type": "Feature", "properties": { "Name": "Caja Hidráulica 10.5-CRIV-1", "COD_EST": "Sub lateral 10.5", "ESTRUCTURA": "Caja Hidráulica", "FID": 103, "Field_1": "10.5-CRIV-1", "NOMBRE": "10.5-CRIV-1", "Nº": 103, "PROGRESIVA": "0+008,89", "TRAMO": "Tramo IX" }, "geometry": { "type": "Point", "coordinates": [ -78.8708449, -8.3958929, 0.0 ] } },
{ "type": "Feature", "properties": { "Name": "Caja Hidráulica 10.5-CRIV-2", "COD_EST": "Sub lateral 10.5", "ESTRUCTURA": "Caja Hidráulica", "FID": 104, "Field_1": "10.5-CRIV-2", "NOMBRE": "10.5-CRIV-2", "Nº": 104, "PROGRESIVA": "0+010,62", "TRAMO": "Tramo IX" }, "geometry": { "type": "Point", "coordinates": [ -78.8708316, -8.3959012, 0.0 ] } },
{ "type": "Feature", "properties": { "Name": "Caja Hidráulica 10.5-CRIV-3", "COD_EST": "Sub lateral 10.5", "ESTRUCTURA": "Caja Hidráulica", "FID": 105, "Field_1": "10.5-CRIV-3", "NOMBRE": "10.5-CRIV-3", "Nº": 105, "PROGRESIVA": "0+408,60", "TRAMO": "Tramo IX" }, "geometry": { "type": "Point", "coordinates": [ -78.867752, -8.3977836, 0.0 ] } },
{ "type": "Feature", "properties": { "Name": "Caja Hidráulica 10.5-CRIV-4", "COD_EST": "Sub lateral 10.5", "ESTRUCTURA": "Caja Hidráulica", "FID": 106, "Field_1": "10.5-CRIV-4", "NOMBRE": "10.5-CRIV-4", "Nº": 106, "PROGRESIVA": "0+910,98", "TRAMO": "Tramo IX" }, "geometry": { "type": "Point", "coordinates": [ -78.8637919, -8.4000359, 0.0 ] } },
{ "type": "Feature", "properties": { "Name": "Caja Hidráulica 10.5-CH15", "COD_EST": "Sub lateral 10.5", "ESTRUCTURA": "Caja Hidráulica", "FID": 107, "Field_1": "10.5-CH15", "NOMBRE": "10.5-CH15", "Nº": 107, "PROGRESIVA": "0+911,94", "TRAMO": "Tramo IX" }, "geometry": { "type": "Point", "coordinates": [ -78.8637662, -8.4000092, 0.0 ] } },
{ "type": "Feature", "properties": { "Name": "Caja Hidráulica 10.5-CH16", "COD_EST": "Sub lateral 10.5", "ESTRUCTURA": "Caja Hidráulica", "FID": 108, "Field_1": "10.5-CH16", "NOMBRE": "10.5-CH16", "Nº": 108, "PROGRESIVA": "4+277,76", "TRAMO": "Tramo IX" }, "geometry": { "type": "Point", "coordinates": [ -78.870971, -8.3960442, 0.0 ] } },
{ "type": "Feature", "properties": { "Name": "Caja Hidráulica 10.5-CH17", "COD_EST": "Sub lateral 10.5", "ESTRUCTURA": "Caja Hidráulica", "FID": 109, "Field_1": "10.5-CH17", "NOMBRE": "10.5-CH17", "Nº": 109, "PROGRESIVA": "4+281,52", "TRAMO": "Tramo IX" }, "geometry": { "type": "Point", "coordinates": [ -78.8711409, -8.3959896, 0.0 ] } },
{ "type": "Feature", "properties": { "Name": "Caja Hidráulica 10.5-CH18", "COD_EST": "Sub lateral 10.5", "ESTRUCTURA": "Caja Hidráulica", "FID": 110, "Field_1": "10.5-CH18", "NOMBRE": "10.5-CH18", "Nº": 110, "PROGRESIVA": "4+698,13", "TRAMO": "Tramo IX" }, "geometry": { "type": "Point", "coordinates": [ -78.8728112, -8.3993728, 0.0 ] } },
{ "type": "Feature", "properties": { "Name": "Caja Hidráulica 10.5-C12", "COD_EST": "Sub lateral 10.5", "ESTRUCTURA": "Caja Hidráulica", "FID": 111, "Field_1": "10.5-C12", "NOMBRE": "10.5-C12", "Nº": 111, "PROGRESIVA": "5+137,56", "TRAMO": "Tramo IX" }, "geometry": { "type": "Point", "coordinates": [ -78.8747676, -8.4028347, 0.0 ] } },
{ "type": "Feature", "properties": { "Name": "Caja Hidráulica 10.5-CH19", "COD_EST": "Sub lateral 10.5", "ESTRUCTURA": "Caja Hidráulica", "FID": 112, "Field_1": "10.5-CH19", "NOMBRE": "10.5-CH19", "Nº": 112, "PROGRESIVA": "5+147,84", "TRAMO": "Tramo IX" }, "geometry": { "type": "Point", "coordinates": [ -78.8747777, -8.4029341, 0.0 ] } },
{ "type": "Feature", "properties": { "Name": "Caja Hidráulica 10.5-CH20", "COD_EST": "Sub lateral 10.5", "ESTRUCTURA": "Caja Hidráulica", "FID": 113, "Field_1": "10.5-CH20", "NOMBRE": "10.5-CH20", "Nº": 113, "PROGRESIVA": "5+276,91", "TRAMO": "Tramo IX" }, "geometry": { "type": "Point", "coordinates": [ -78.8753248, -8.4039657, 0.0 ] } },
{ "type": "Feature", "properties": { "Name": "Caja Hidráulica 10.5-CH21", "COD_EST": "Sub lateral 10.5", "ESTRUCTURA": "Caja Hidráulica", "FID": 114, "Field_1": "10.5-CH21", "NOMBRE": "10.5-CH21", "Nº": 114, "PROGRESIVA": "5+566,52", "TRAMO": "Tramo IX" }, "geometry": { "type": "Point", "coordinates": [ -78.87601, -8.4064844, 0.0 ] } },
{ "type": "Feature", "properties": { "Name": "Caja Hidráulica 10.5-CH22", "COD_EST": "Sub lateral 10.5", "ESTRUCTURA": "Caja Hidráulica", "FID": 115, "Field_1": "10.5-CH22", "NOMBRE": "10.5-CH22", "Nº": 115, "PROGRESIVA": "5+570,45", "TRAMO": "Tramo IX" }, "geometry": { "type": "Point", "coordinates": [ -78.8758395, -8.4065529, 0.0 ] } },
{ "type": "Feature", "properties": { "Name": "Caja Hidráulica 10.5-C13", "COD_EST": "Sub lateral 10.5", "ESTRUCTURA": "Caja Hidráulica", "FID": 116, "Field_1": "10.5-C13", "NOMBRE": "10.5-C13", "Nº": 116, "PROGRESIVA": "5+578,86", "TRAMO": "Tramo IX" }, "geometry": { "type": "Point", "coordinates": [ -78.8759001, -8.4066187, 0.0 ] } },
{ "type": "Feature", "properties": { "Name": "Caja Hidráulica 10,5A-C1", "COD_EST": "Sub lateral 10.5A", "ESTRUCTURA": "Caja Hidráulica", "FID": 117, "Field_1": "10,5A-C1", "NOMBRE": "10,5A-C1", "Nº": 117, "PROGRESIVA": "0+000,00", "TRAMO": "Tramo IX" }, "geometry": { "type": "Point", "coordinates": [ -78.851403, -8.3582939, 0.0 ] } },
{ "type": "Feature", "properties": { "Name": "Caja Hidráulica 10,5A-C2", "COD_EST": "Sub lateral 10.5A", "ESTRUCTURA": "Caja Hidráulica", "FID": 118, "Field_1": "10,5A-C2", "NOMBRE": "10,5A-C2", "Nº": 118, "PROGRESIVA": "0+034,19", "TRAMO": "Tramo IX" }, "geometry": { "type": "Point", "coordinates": [ -78.8515967, -8.3585354, 0.0 ] } },
{ "type": "Feature", "properties": { "Name": "Caja Hidráulica 10,5A-C3", "COD_EST": "Sub lateral 10.5A", "ESTRUCTURA": "Caja Hidráulica", "FID": 119, "Field_1": "10,5A-C3", "NOMBRE": "10,5A-C3", "Nº": 119, "PROGRESIVA": "0+047,12", "TRAMO": "Tramo IX" }, "geometry": { "type": "Point", "coordinates": [ -78.8516626, -8.3586321, 0.0 ] } },
{ "type": "Feature", "properties": { "Name": "Caja Hidráulica 10,5A-CH1", "COD_EST": "Sub lateral 10.5A", "ESTRUCTURA": "Caja Hidráulica", "FID": 120, "Field_1": "10,5A-CH1", "NOMBRE": "10,5A-CH1", "Nº": 120, "PROGRESIVA": "0+577,29", "TRAMO": "Tramo IX" }, "geometry": { "type": "Point", "coordinates": [ -78.85459, -8.3624355, 0.0 ] } },
{ "type": "Feature", "properties": { "Name": "Caja Hidráulica 10,5A-C4", "COD_EST": "Sub lateral 10.5A", "ESTRUCTURA": "Caja Hidráulica", "FID": 121, "Field_1": "10,5A-C4", "NOMBRE": "10,5A-C4", "Nº": 121, "PROGRESIVA": "0+666,74", "TRAMO": "Tramo IX" }, "geometry": { "type": "Point", "coordinates": [ -78.8550399, -8.3631086, 0.0 ] } },
{ "type": "Feature", "properties": { "Name": "Caja Hidráulica 10,5A-CH2", "COD_EST": "Sub lateral 10.5A", "ESTRUCTURA": "Caja Hidráulica", "FID": 122, "Field_1": "10,5A-CH2", "NOMBRE": "10,5A-CH2", "Nº": 122, "PROGRESIVA": "1+091,73", "TRAMO": "Tramo IX" }, "geometry": { "type": "Point", "coordinates": [ -78.8573753, -8.3661661, 0.0 ] } },
{ "type": "Feature", "properties": { "Name": "Caja Hidráulica 10,5A-CH3", "COD_EST": "Sub lateral 10.5A", "ESTRUCTURA": "Caja Hidráulica", "FID": 123, "Field_1": "10,5A-CH3", "NOMBRE": "10,5A-CH3", "Nº": 123, "PROGRESIVA": "1+092,48", "TRAMO": "Tramo IX" }, "geometry": { "type": "Point", "coordinates": [ -78.8572427, -8.3662741, 0.0 ] } },
{ "type": "Feature", "properties": { "Name": "Caja Hidráulica 10,5A-C5", "COD_EST": "Sub lateral 10.5A", "ESTRUCTURA": "Caja Hidráulica", "FID": 124, "Field_1": "10,5A-C5", "NOMBRE": "10,5A-C5", "Nº": 124, "PROGRESIVA": "1+097,53", "TRAMO": "Tramo IX" }, "geometry": { "type": "Point", "coordinates": [ -78.8573928, -8.3662187, 0.0 ] } },
{ "type": "Feature", "properties": { "Name": "Caja Hidráulica 10.6-C1", "COD_EST": "Sub lateral 10.6", "ESTRUCTURA": "Caja Hidráulica", "FID": 125, "Field_1": "10.6-C1", "NOMBRE": "10.6-C1", "Nº": 125, "PROGRESIVA": "0+000,00", "TRAMO": "Tramo X" }, "geometry": { "type": "Point", "coordinates": [ -78.8572208, -8.3472088, 0.0 ] } },
{ "type": "Feature", "properties": { "Name": "Caja Hidráulica 10.6-C2", "COD_EST": "Sub lateral 10.6", "ESTRUCTURA": "Caja Hidráulica", "FID": 126, "Field_1": "10.6-C2", "NOMBRE": "10.6-C2", "Nº": 126, "PROGRESIVA": "0+020,01", "TRAMO": "Tramo X" }, "geometry": { "type": "Point", "coordinates": [ -78.8574017, -8.3471939, 0.0 ] } },
{ "type": "Feature", "properties": { "Name": "Caja Hidráulica 10.6-CH1A", "COD_EST": "Sub lateral 10.6", "ESTRUCTURA": "Caja Hidráulica", "FID": 127, "Field_1": "10.6-CH1A", "NOMBRE": "10.6-CH1A", "Nº": 127, "PROGRESIVA": "0+020,68", "TRAMO": "Tramo X" }, "geometry": { "type": "Point", "coordinates": [ -78.8574107, -8.3472235, 0.0 ] } },
{ "type": "Feature", "properties": { "Name": "Caja Hidráulica 10.6-C3", "COD_EST": "Sub lateral 10.6", "ESTRUCTURA": "Caja Hidráulica", "FID": 128, "Field_1": "10.6-C3", "NOMBRE": "10.6-C3", "Nº": 128, "PROGRESIVA": "0+027,86", "TRAMO": "Tramo X" }, "geometry": { "type": "Point", "coordinates": [ -78.8574727, -8.3471872, 0.0 ] } },
{ "type": "Feature", "properties": { "Name": "Caja Hidráulica 10.6-C4", "COD_EST": "Sub lateral 10.6", "ESTRUCTURA": "Caja Hidráulica", "FID": 129, "Field_1": "10.6-C4", "NOMBRE": "10.6-C4", "Nº": 129, "PROGRESIVA": "0+057,10", "TRAMO": "Tramo X" }, "geometry": { "type": "Point", "coordinates": [ -78.8577372, -8.3471654, 0.0 ] } },
{ "type": "Feature", "properties": { "Name": "Caja Hidráulica 10.6-C5", "COD_EST": "Sub lateral 10.6", "ESTRUCTURA": "Caja Hidráulica", "FID": 130, "Field_1": "10.6-C5", "NOMBRE": "10.6-C5", "Nº": 130, "PROGRESIVA": "0+073,21", "TRAMO": "Tramo X" }, "geometry": { "type": "Point", "coordinates": [ -78.8578829, -8.3471524, 0.0 ] } },
{ "type": "Feature", "properties": { "Name": "Caja Hidráulica 10.6-C6", "COD_EST": "Sub lateral 10.6", "ESTRUCTURA": "Caja Hidráulica", "FID": 131, "Field_1": "10.6-C6", "NOMBRE": "10.6-C6", "Nº": 131, "PROGRESIVA": "0+641,48", "TRAMO": "Tramo X" }, "geometry": { "type": "Point", "coordinates": [ -78.8627937, -8.3473401, 0.0 ] } },
{ "type": "Feature", "properties": { "Name": "Caja Hidráulica 10.6-CH1", "COD_EST": "Sub lateral 10.6", "ESTRUCTURA": "Caja Hidráulica", "FID": 132, "Field_1": "10.6-CH1", "NOMBRE": "10.6-CH1", "Nº": 132, "PROGRESIVA": "0+895,77", "TRAMO": "Tramo X" }, "geometry": { "type": "Point", "coordinates": [ -78.8644005, -8.348991, 0.0 ] } },
{ "type": "Feature", "properties": { "Name": "Caja Hidráulica 10.6-C7", "COD_EST": "Sub lateral 10.6", "ESTRUCTURA": "Caja Hidráulica", "FID": 133, "Field_1": "10.6-C7", "NOMBRE": "10.6-C7", "Nº": 133, "PROGRESIVA": "0+964,62", "TRAMO": "Tramo X" }, "geometry": { "type": "Point", "coordinates": [ -78.8648794, -8.3493936, 0.0 ] } },
{ "type": "Feature", "properties": { "Name": "Caja Hidráulica 10.6-CH2", "COD_EST": "Sub lateral 10.6", "ESTRUCTURA": "Caja Hidráulica", "FID": 134, "Field_1": "10.6-CH2", "NOMBRE": "10.6-CH2", "Nº": 134, "PROGRESIVA": "1+539,65", "TRAMO": "Tramo X" }, "geometry": { "type": "Point", "coordinates": [ -78.8685868, -8.3530522, 0.0 ] } },
{ "type": "Feature", "properties": { "Name": "Caja Hidráulica 10.6-CH3", "COD_EST": "Sub lateral 10.6", "ESTRUCTURA": "Caja Hidráulica", "FID": 135, "Field_1": "10.6-CH3", "NOMBRE": "10.6-CH3", "Nº": 135, "PROGRESIVA": "1+544,88", "TRAMO": "Tramo X" }, "geometry": { "type": "Point", "coordinates": [ -78.8687148, -8.3529905, 0.0 ] } },
{ "type": "Feature", "properties": { "Name": "Caja Hidráulica 10.6-C8", "COD_EST": "Sub lateral 10.6", "ESTRUCTURA": "Caja Hidráulica", "FID": 136, "Field_1": "10.6-C8", "NOMBRE": "10.6-C8", "Nº": 136, "PROGRESIVA": "1+622,56", "TRAMO": "Tramo X" }, "geometry": { "type": "Point", "coordinates": [ -78.869125, -8.353576, 0.0 ] } },
{ "type": "Feature", "properties": { "Name": "Caja Hidráulica 10.6-CH4", "COD_EST": "Sub lateral 10.6", "ESTRUCTURA": "Caja Hidráulica", "FID": 137, "Field_1": "10.6-CH4", "NOMBRE": "10.6-CH4", "Nº": 137, "PROGRESIVA": "1+845,76", "TRAMO": "Tramo X" }, "geometry": { "type": "Point", "coordinates": [ -78.8706552, -8.3549043, 0.0 ] } },
{ "type": "Feature", "properties": { "Name": "Caja Hidráulica 10.6-CH5", "COD_EST": "Sub lateral 10.6", "ESTRUCTURA": "Caja Hidráulica", "FID": 138, "Field_1": "10.6-CH5", "NOMBRE": "10.6-CH5", "Nº": 138, "PROGRESIVA": "1+851,54", "TRAMO": "Tramo X" }, "geometry": { "type": "Point", "coordinates": [ -78.8705668, -8.3550674, 0.0 ] } },
{ "type": "Feature", "properties": { "Name": "Caja Hidráulica 10.6-CH6", "COD_EST": "Sub lateral 10.6", "ESTRUCTURA": "Caja Hidráulica", "FID": 139, "Field_1": "10.6-CH6", "NOMBRE": "10.6-CH6", "Nº": 139, "PROGRESIVA": "1+995,76", "TRAMO": "Tramo X" }, "geometry": { "type": "Point", "coordinates": [ -78.8716236, -8.3558573, 0.0 ] } },
{ "type": "Feature", "properties": { "Name": "Caja Hidráulica 10.6-CH7", "COD_EST": "Sub lateral 10.6", "ESTRUCTURA": "Caja Hidráulica", "FID": 140, "Field_1": "10.6-CH7", "NOMBRE": "10.6-CH7", "Nº": 140, "PROGRESIVA": "1+999,84", "TRAMO": "Tramo X" }, "geometry": { "type": "Point", "coordinates": [ -78.8715225, -8.3560116, 0.0 ] } },
{ "type": "Feature", "properties": { "Name": "Caja Hidráulica 10.6-C9", "COD_EST": "Sub lateral 10.6", "ESTRUCTURA": "Caja Hidráulica", "FID": 141, "Field_1": "10.6-C9", "NOMBRE": "10.6-C9", "Nº": 141, "PROGRESIVA": "2+422,69", "TRAMO": "Tramo X" }, "geometry": { "type": "Point", "coordinates": [ -78.874286, -8.3586643, 0.0 ] } },
{ "type": "Feature", "properties": { "Name": "Caja Hidráulica 10.6-C10", "COD_EST": "Sub lateral 10.6", "ESTRUCTURA": "Caja Hidráulica", "FID": 142, "Field_1": "10.6-C10", "NOMBRE": "10.6-C10", "Nº": 142, "PROGRESIVA": "2+442,37", "TRAMO": "Tramo X" }, "geometry": { "type": "Point", "coordinates": [ -78.8744116, -8.3587908, 0.0 ] } },
{ "type": "Feature", "properties": { "Name": "Caja Hidráulica 10.6-C11", "COD_EST": "Sub lateral 10.6", "ESTRUCTURA": "Caja Hidráulica", "FID": 143, "Field_1": "10.6-C11", "NOMBRE": "10.6-C11", "Nº": 143, "PROGRESIVA": "2+474,24", "TRAMO": "Tramo X" }, "geometry": { "type": "Point", "coordinates": [ -78.8746177, -8.3589929, 0.0 ] } },
{ "type": "Feature", "properties": { "Name": "Caja Hidráulica 10.6-CRI-1", "COD_EST": "Sub lateral 10.6", "ESTRUCTURA": "Caja Hidráulica", "FID": 144, "Field_1": "10.6-CRI-1", "NOMBRE": "10.6-CRI-1", "Nº": 144, "PROGRESIVA": "0+012,45", "TRAMO": "Tramo X" }, "geometry": { "type": "Point", "coordinates": [ -78.8748137, -8.3590282, 0.0 ] } },
{ "type": "Feature", "properties": { "Name": "Caja Hidráulica 10.6-CRI-2", "COD_EST": "Sub lateral 10.6", "ESTRUCTURA": "Caja Hidráulica", "FID": 145, "Field_1": "10.6-CRI-2", "NOMBRE": "10.6-CRI-2", "Nº": 145, "PROGRESIVA": "0+700,81", "TRAMO": "Tramo X" }, "geometry": { "type": "Point", "coordinates": [ -78.8783667, -8.3539101, 0.0 ] } },
{ "type": "Feature", "properties": { "Name": "Caja Hidráulica 10.6-CH8", "COD_EST": "Sub lateral 10.6", "ESTRUCTURA": "Caja Hidráulica", "FID": 146, "Field_1": "10.6-CH8", "NOMBRE": "10.6-CH8", "Nº": 146, "PROGRESIVA": "0+725,05", "TRAMO": "Tramo X" }, "geometry": { "type": "Point", "coordinates": [ -78.8785549, -8.3537228, 0.0 ] } },
{ "type": "Feature", "properties": { "Name": "Caja Hidráulica 10.6-CH9", "COD_EST": "Sub lateral 10.6", "ESTRUCTURA": "Caja Hidráulica", "FID": 147, "Field_1": "10.6-CH9", "NOMBRE": "10.6-CH9", "Nº": 147, "PROGRESIVA": "1+244,11", "TRAMO": "Tramo X" }, "geometry": { "type": "Point", "coordinates": [ -78.8816865, -8.3571903, 0.0 ] } },
{ "type": "Feature", "properties": { "Name": "Caja Hidráulica 10.6-CRII-1", "COD_EST": "Sub lateral 10.6", "ESTRUCTURA": "Caja Hidráulica", "FID": 148, "Field_1": "10.6-CRII-1", "NOMBRE": "10.6-CRII-1", "Nº": 148, "PROGRESIVA": "0+002,63", "TRAMO": "Tramo X" }, "geometry": { "type": "Point", "coordinates": [ -78.8747299, -8.3591363, 0.0 ] } },
{ "type": "Feature", "properties": { "Name": "Caja Hidráulica 10.6-CRII-2", "COD_EST": "Sub lateral 10.6", "ESTRUCTURA": "Caja Hidráulica", "FID": 149, "Field_1": "10.6-CRII-2", "NOMBRE": "10.6-CRII-2", "Nº": 149, "PROGRESIVA": "1+052,07", "TRAMO": "Tramo X" }, "geometry": { "type": "Point", "coordinates": [ -78.8693165, -8.3669359, 0.0 ] } },
{ "type": "Feature", "properties": { "Name": "Caja Hidráulica 10.6-CH10", "COD_EST": "Sub lateral 10.6", "ESTRUCTURA": "Caja Hidráulica", "FID": 150, "Field_1": "10.6-CH10", "NOMBRE": "10.6-CH10", "Nº": 150, "PROGRESIVA": "1+067,91", "TRAMO": "Tramo X" }, "geometry": { "type": "Point", "coordinates": [ -78.869248, -8.3670819, 0.0 ] } },
{ "type": "Feature", "properties": { "Name": "Caja Hidráulica 10.6-CRII-3", "COD_EST": "Sub lateral 10.6", "ESTRUCTURA": "Caja Hidráulica", "FID": 151, "Field_1": "10.6-CRII-3", "NOMBRE": "10.6-CRII-3", "Nº": 151, "PROGRESIVA": "1+301,94", "TRAMO": "Tramo X" }, "geometry": { "type": "Point", "coordinates": [ -78.870904, -8.3684077, 0.0 ] } },
{ "type": "Feature", "properties": { "Name": "Caja Hidráulica 10.6-CRII-4", "COD_EST": "Sub lateral 10.6", "ESTRUCTURA": "Caja Hidráulica", "FID": 152, "Field_1": "10.6-CRII-4", "NOMBRE": "10.6-CRII-4", "Nº": 152, "PROGRESIVA": "1+799,78", "TRAMO": "Tramo X" }, "geometry": { "type": "Point", "coordinates": [ -78.8743599, -8.371307, 0.0 ] } },
{ "type": "Feature", "properties": { "Name": "Caja Hidráulica 10.6-CH11", "COD_EST": "Sub lateral 10.6", "ESTRUCTURA": "Caja Hidráulica", "FID": 153, "Field_1": "10.6-CH11", "NOMBRE": "10.6-CH11", "Nº": 153, "PROGRESIVA": "2+190,64", "TRAMO": "Tramo X" }, "geometry": { "type": "Point", "coordinates": [ -78.8770426, -8.3736197, 0.0 ] } },
{ "type": "Feature", "properties": { "Name": "Caja Hidráulica 10.6-CRII-5", "COD_EST": "Sub lateral 10.6", "ESTRUCTURA": "Caja Hidráulica", "FID": 154, "Field_1": "10.6-CRII-5", "NOMBRE": "10.6-CRII-5", "Nº": 154, "PROGRESIVA": "2+502,62", "TRAMO": "Tramo X" }, "geometry": { "type": "Point", "coordinates": [ -78.8792399, -8.375399, 0.0 ] } },
{ "type": "Feature", "properties": { "Name": "Caja Hidráulica 10.6-CRII-6", "COD_EST": "Sub lateral 10.6", "ESTRUCTURA": "Caja Hidráulica", "FID": 155, "Field_1": "10.6-CRII-6", "NOMBRE": "10.6-CRII-6", "Nº": 155, "PROGRESIVA": "3+361,73", "TRAMO": "Tramo X" }, "geometry": { "type": "Point", "coordinates": [ -78.8852049, -8.380401, 0.0 ] } },
{ "type": "Feature", "properties": { "Name": "Caja Hidráulica 10.6-CH12", "COD_EST": "Sub lateral 10.6", "ESTRUCTURA": "Caja Hidráulica", "FID": 156, "Field_1": "10.6-CH12", "NOMBRE": "10.6-CH12", "Nº": 156, "PROGRESIVA": "3+380,27", "TRAMO": "Tramo X" }, "geometry": { "type": "Point", "coordinates": [ -78.869248, -8.3670819, 0.0 ] } },
{ "type": "Feature", "properties": { "Name": "Caja Hidráulica 10.6-CRII-7", "COD_EST": "Sub lateral 10.6", "ESTRUCTURA": "Caja Hidráulica", "FID": 157, "Field_1": "10.6-CRII-7", "NOMBRE": "10.6-CRII-7", "Nº": 157, "PROGRESIVA": "3+893,09", "TRAMO": "Tramo X" }, "geometry": { "type": "Point", "coordinates": [ -78.8888947, -8.3834941, 0.0 ] } },
{ "type": "Feature", "properties": { "Name": "Caja Hidráulica 10.6-CH13", "COD_EST": "Sub lateral 10.6", "ESTRUCTURA": "Caja Hidráulica", "FID": 158, "Field_1": "10.6-CH13", "NOMBRE": "10.6-CH13", "Nº": 158, "PROGRESIVA": "4+171,81", "TRAMO": "Tramo X" }, "geometry": { "type": "Point", "coordinates": [ -78.8907973, -8.3851556, 0.0 ] } },
{ "type": "Feature", "properties": { "Name": "Caja Hidráulica 10.6-CRII-8", "COD_EST": "Sub lateral 10.6", "ESTRUCTURA": "Caja Hidráulica", "FID": 159, "Field_1": "10.6-CRII-8", "NOMBRE": "10.6-CRII-8", "Nº": 159, "PROGRESIVA": "4+175,44", "TRAMO": "Tramo X" }, "geometry": { "type": "Point", "coordinates": [ -78.8908537, -8.3851399, 0.0 ] } },
{ "type": "Feature", "properties": { "Name": "Caja Hidráulica 10.6-CRII-9", "COD_EST": "Sub lateral 10.6", "ESTRUCTURA": "Caja Hidráulica", "FID": 160, "Field_1": "10.6-CRII-9", "NOMBRE": "10.6-CRII-9", "Nº": 160, "PROGRESIVA": "4+193,50", "TRAMO": "Tramo X" }, "geometry": { "type": "Point", "coordinates": [ -78.8909708, -8.3852541, 0.0 ] } },
{ "type": "Feature", "properties": { "Name": "Caja Hidráulica 10.6-C12", "COD_EST": "Sub lateral 10.6", "ESTRUCTURA": "Caja Hidráulica", "FID": 161, "Field_1": "10.6-C12", "NOMBRE": "10.6-C12", "Nº": 161, "PROGRESIVA": "2+499,46", "TRAMO": "Tramo X" }, "geometry": { "type": "Point", "coordinates": [ -78.8747785, -8.3591553, 0.0 ] } },
{ "type": "Feature", "properties": { "Name": "Caja Hidráulica 10.6-CH14", "COD_EST": "Sub lateral 10.6", "ESTRUCTURA": "Caja Hidráulica", "FID": 162, "Field_1": "10.6-CH14", "NOMBRE": "10.6-CH14", "Nº": 162, "PROGRESIVA": "2+507,25", "TRAMO": "Tramo X" }, "geometry": { "type": "Point", "coordinates": [ -78.8747964, -8.3592324, 0.0 ] } },
{ "type": "Feature", "properties": { "Name": "Caja Hidráulica 10.6-CH15", "COD_EST": "Sub lateral 10.6", "ESTRUCTURA": "Caja Hidráulica", "FID": 163, "Field_1": "10.6-CH15", "NOMBRE": "10.6-CH15", "Nº": 163, "PROGRESIVA": "2+511,23", "TRAMO": "Tramo X" }, "geometry": { "type": "Point", "coordinates": [ -78.8749477, -8.3591363, 0.0 ] } },
{ "type": "Feature", "properties": { "Name": "Caja Hidráulica 10.6-C13", "COD_EST": "Sub lateral 10.6", "ESTRUCTURA": "Caja Hidráulica", "FID": 164, "Field_1": "10.6-C13", "NOMBRE": "10.6-C13", "Nº": 164, "PROGRESIVA": "2+902,85", "TRAMO": "Tramo X" }, "geometry": { "type": "Point", "coordinates": [ -78.8773833, -8.3617177, 0.0 ] } },
{ "type": "Feature", "properties": { "Name": "Caja Hidráulica 10.6-CH16", "COD_EST": "Sub lateral 10.6", "ESTRUCTURA": "Caja Hidráulica", "FID": 165, "Field_1": "10.6-CH16", "NOMBRE": "10.6-CH16", "Nº": 165, "PROGRESIVA": "3+011,52", "TRAMO": "Tramo X" }, "geometry": { "type": "Point", "coordinates": [ -78.8780503, -8.362443, 0.0 ] } },
{ "type": "Feature", "properties": { "Name": "Caja Hidráulica 10.6-C14", "COD_EST": "Sub lateral 10.6", "ESTRUCTURA": "Caja Hidráulica", "FID": 166, "Field_1": "10.6-C14", "NOMBRE": "10.6-C14", "Nº": 166, "PROGRESIVA": "3+122,04", "TRAMO": "Tramo X" }, "geometry": { "type": "Point", "coordinates": [ -78.8787979, -8.3631109, 0.0 ] } },
{ "type": "Feature", "properties": { "Name": "Caja Hidráulica 10.6-C14A", "COD_EST": "Sub lateral 10.6", "ESTRUCTURA": "Caja Hidráulica", "FID": 167, "Field_1": "10.6-C14A", "NOMBRE": "10.6-C14A", "Nº": 167, "PROGRESIVA": "3+125,62", "TRAMO": "Tramo X" }, "geometry": { "type": "Point", "coordinates": [ -78.8788216, -8.3631331, 0.0 ] } },
{ "type": "Feature", "properties": { "Name": "Caja Hidráulica 10.6-CH17", "COD_EST": "Sub lateral 10.6", "ESTRUCTURA": "Caja Hidráulica", "FID": 168, "Field_1": "10.6-CH17", "NOMBRE": "10.6-CH17", "Nº": 168, "PROGRESIVA": "3+556,36", "TRAMO": "Tramo X" }, "geometry": { "type": "Point", "coordinates": [ -78.8816914, -8.3657808, 0.0 ] } },
{ "type": "Feature", "properties": { "Name": "Caja Hidráulica 10.6-CH18", "COD_EST": "Sub lateral 10.6", "ESTRUCTURA": "Caja Hidráulica", "FID": 169, "Field_1": "10.6-CH18", "NOMBRE": "10.6-CH18", "Nº": 169, "PROGRESIVA": "3+560,38", "TRAMO": "Tramo X" }, "geometry": { "type": "Point", "coordinates": [ -78.8815905, -8.3659335, 0.0 ] } },
{ "type": "Feature", "properties": { "Name": "Caja Hidráulica 10.6-C15", "COD_EST": "Sub lateral 10.6", "ESTRUCTURA": "Caja Hidráulica", "FID": 170, "Field_1": "10.6-C15", "NOMBRE": "10.6-C15", "Nº": 170, "PROGRESIVA": "3+558,65", "TRAMO": "Tramo X" }, "geometry": { "type": "Point", "coordinates": [ -78.8816137, -8.365888, 0.0 ] } },
{ "type": "Feature", "properties": { "Name": "Caja Hidráulica 10.6-C16", "COD_EST": "Sub lateral 10.6", "ESTRUCTURA": "Caja Hidráulica", "FID": 171, "Field_1": "10.6-C16", "NOMBRE": "10.6-C16", "Nº": 171, "PROGRESIVA": "4+111,75", "TRAMO": "Tramo X" }, "geometry": { "type": "Point", "coordinates": [ -78.8888483, -8.3725601, 0.0 ] } },
{ "type": "Feature", "properties": { "Name": "Caja Hidráulica 10.6-CH19", "COD_EST": "Sub lateral 10.6", "ESTRUCTURA": "Caja Hidráulica", "FID": 172, "Field_1": "10.6-CH19", "NOMBRE": "10.6-CH19", "Nº": 172, "PROGRESIVA": "4+121,16", "TRAMO": "Tramo X" }, "geometry": { "type": "Point", "coordinates": [ -78.8853353, -8.3693711, 0.0 ] } },
{ "type": "Feature", "properties": { "Name": "Caja Hidráulica 10.6-CH20", "COD_EST": "Sub lateral 10.6", "ESTRUCTURA": "Caja Hidráulica", "FID": 173, "Field_1": "10.6-CH20", "NOMBRE": "10.6-CH20", "Nº": 173, "PROGRESIVA": "4+125,12", "TRAMO": "Tramo X" }, "geometry": { "type": "Point", "coordinates": [ -78.8852353, -8.3695232, 0.0 ] } },
{ "type": "Feature", "properties": { "Name": "Caja Hidráulica 10.6-CH21", "COD_EST": "Sub lateral 10.6", "ESTRUCTURA": "Caja Hidráulica", "FID": 174, "Field_1": "10.6-CH21", "NOMBRE": "10.6-CH21", "Nº": 174, "PROGRESIVA": "4+711,77", "TRAMO": "Tramo X" }, "geometry": { "type": "Point", "coordinates": [ -78.889146, -8.3731267, 0.0 ] } },
{ "type": "Feature", "properties": { "Name": "Caja Hidráulica 10.6-CH22", "COD_EST": "Sub lateral 10.6", "ESTRUCTURA": "Caja Hidráulica", "FID": 175, "Field_1": "10.6-CH22", "NOMBRE": "10.6-CH22", "Nº": 175, "PROGRESIVA": "4+715,68", "TRAMO": "Tramo X" }, "geometry": { "type": "Point", "coordinates": [ -78.8890448, -8.3732785, 0.0 ] } },
{ "type": "Feature", "properties": { "Name": "Caja Hidráulica 10.6-C17", "COD_EST": "Sub lateral 10.6", "ESTRUCTURA": "Caja Hidráulica", "FID": 176, "Field_1": "10.6-C17", "NOMBRE": "10.6-C17", "Nº": 176, "PROGRESIVA": "4+720,41", "TRAMO": "Tramo X" }, "geometry": { "type": "Point", "coordinates": [ -78.8891151, -8.373283, 0.0 ] } },
{ "type": "Feature", "properties": { "Name": "Caja Hidráulica 10,7-C1", "COD_EST": "Sub Lateral 10,7", "ESTRUCTURA": "Caja Hidráulica", "FID": 177, "Field_1": "10,7-C1", "NOMBRE": "10,7-C1", "Nº": 177, "PROGRESIVA": "0+000,00", "TRAMO": "Tramo X" }, "geometry": { "type": "Point", "coordinates": [ -78.8574358, -8.3468207, 0.0 ] } },
{ "type": "Feature", "properties": { "Name": "Caja Hidráulica 10,7-C1-1", "COD_EST": "Sub Lateral 10,7", "ESTRUCTURA": "Caja Hidráulica", "FID": 178, "Field_1": "10,7-C1-1", "NOMBRE": "10,7-C1-1", "Nº": 178, "PROGRESIVA": "0+057,13", "TRAMO": "Tramo X" }, "geometry": { "type": "Point", "coordinates": [ -78.8574339, -8.3471757, 0.0 ] } },
{ "type": "Feature", "properties": { "Name": "Caja Hidráulica 10,7-C2", "COD_EST": "Sub Lateral 10,7", "ESTRUCTURA": "Caja Hidráulica", "FID": 179, "Field_1": "10,7-C2", "NOMBRE": "10,7-C2", "Nº": 179, "PROGRESIVA": "0+034,72", "TRAMO": "Tramo X" }, "geometry": { "type": "Point", "coordinates": [ -78.8575131, -8.346791, 0.0 ] } },
{ "type": "Feature", "properties": { "Name": "Caja Hidráulica 10,7-C3", "COD_EST": "Sub Lateral 10,7", "ESTRUCTURA": "Caja Hidráulica", "FID": 180, "Field_1": "10,7-C3", "NOMBRE": "10,7-C3", "Nº": 180, "PROGRESIVA": "0+039,21", "TRAMO": "Tramo X" }, "geometry": { "type": "Point", "coordinates": [ -78.8575569, -8.3467954, 0.0 ] } },
{ "type": "Feature", "properties": { "Name": "Caja Hidráulica 10,7-C4", "COD_EST": "Sub Lateral 10,7", "ESTRUCTURA": "Caja Hidráulica", "FID": 181, "Field_1": "10,7-C4", "NOMBRE": "10,7-C4", "Nº": 181, "PROGRESIVA": "0+056,08", "TRAMO": "Tramo X" }, "geometry": { "type": "Point", "coordinates": [ -78.8576695, -8.3468916, 0.0 ] } },
{ "type": "Feature", "properties": { "Name": "Caja Hidráulica 10,7-C5", "COD_EST": "Sub Lateral 10,7", "ESTRUCTURA": "Caja Hidráulica", "FID": 182, "Field_1": "10,7-C5", "NOMBRE": "10,7-C5", "Nº": 182, "PROGRESIVA": "0+272,84", "TRAMO": "Tramo X" }, "geometry": { "type": "Point", "coordinates": [ -78.8595718, -8.3469009, 0.0 ] } },
{ "type": "Feature", "properties": { "Name": "Caja Hidráulica 10,7-CH1", "COD_EST": "Sub Lateral 10,7", "ESTRUCTURA": "Caja Hidráulica", "FID": 183, "Field_1": "10,7-CH1", "NOMBRE": "10,7-CH1", "Nº": 183, "PROGRESIVA": "0+858,57", "TRAMO": "Tramo X" }, "geometry": { "type": "Point", "coordinates": [ -78.8648643, -8.346399, 0.0 ] } },
{ "type": "Feature", "properties": { "Name": "Caja Hidráulica 10,7-C6", "COD_EST": "Sub Lateral 10,7", "ESTRUCTURA": "Caja Hidráulica", "FID": 184, "Field_1": "10,7-C6", "NOMBRE": "10,7-C6", "Nº": 184, "PROGRESIVA": "1+029,30", "TRAMO": "Tramo X" }, "geometry": { "type": "Point", "coordinates": [ -78.8664125, -8.3463186, 0.0 ] } },
{ "type": "Feature", "properties": { "Name": "Caja Hidráulica 10,7-CH2", "COD_EST": "Sub Lateral 10,7", "ESTRUCTURA": "Caja Hidráulica", "FID": 185, "Field_1": "10,7-CH2", "NOMBRE": "10,7-CH2", "Nº": 185, "PROGRESIVA": "1+779,04", "TRAMO": "Tramo X" }, "geometry": { "type": "Point", "coordinates": [ -78.8731892, -8.345703, 0.0 ] } },
{ "type": "Feature", "properties": { "Name": "Caja Hidráulica 10,7-C7", "COD_EST": "Sub Lateral 10,7", "ESTRUCTURA": "Caja Hidráulica", "FID": 186, "Field_1": "10,7-C7", "NOMBRE": "10,7-C7", "Nº": 186, "PROGRESIVA": "1+809,60", "TRAMO": "Tramo X" }, "geometry": { "type": "Point", "coordinates": [ -78.8734687, -8.3457153, 0.0 ] } },
{ "type": "Feature", "properties": { "Name": "Caja Hidráulica 10,7-CH3", "COD_EST": "Sub Lateral 10,7", "ESTRUCTURA": "Caja Hidráulica", "FID": 187, "Field_1": "10,7-CH3", "NOMBRE": "10,7-CH3", "Nº": 187, "PROGRESIVA": "1+898,26", "TRAMO": "Tramo X" }, "geometry": { "type": "Point", "coordinates": [ -78.8742663, -8.3455983, 0.0 ] } },
{ "type": "Feature", "properties": { "Name": "Caja Hidráulica 10,7-C8", "COD_EST": "Sub Lateral 10,7", "ESTRUCTURA": "Caja Hidráulica", "FID": 188, "Field_1": "10,7-C8", "NOMBRE": "10,7-C8", "Nº": 188, "PROGRESIVA": "2+169,85", "TRAMO": "Tramo X" }, "geometry": { "type": "Point", "coordinates": [ -78.8767264, -8.3454373, 0.0 ] } },
{ "type": "Feature", "properties": { "Name": "Caja Hidráulica 10,7-CH4", "COD_EST": "Sub Lateral 10,7", "ESTRUCTURA": "Caja Hidráulica", "FID": 189, "Field_1": "10,7-CH4", "NOMBRE": "10,7-CH4", "Nº": 189, "PROGRESIVA": "2+393,32", "TRAMO": "Tramo X" }, "geometry": { "type": "Point", "coordinates": [ -78.8787439, -8.3452252, 0.0 ] } },
{ "type": "Feature", "properties": { "Name": "Caja Hidráulica 10,7-C9", "COD_EST": "Sub Lateral 10,7", "ESTRUCTURA": "Caja Hidráulica", "FID": 190, "Field_1": "10,7-C9", "NOMBRE": "10,7-C9", "Nº": 190, "PROGRESIVA": "2+828,28", "TRAMO": "Tramo X" }, "geometry": { "type": "Point", "coordinates": [ -78.882681, -8.3449339, 0.0 ] } },
{ "type": "Feature", "properties": { "Name": "Caja Hidráulica 10,7-C10", "COD_EST": "Sub Lateral 10,7", "ESTRUCTURA": "Caja Hidráulica", "FID": 191, "Field_1": "10,7-C10", "NOMBRE": "10,7-C10", "Nº": 191, "PROGRESIVA": "3+670,49", "TRAMO": "Tramo X" }, "geometry": { "type": "Point", "coordinates": [ -78.8873904, -8.3392398, 0.0 ] } },
{ "type": "Feature", "properties": { "Name": "Caja Hidráulica 10,7-C11", "COD_EST": "Sub Lateral 10,7", "ESTRUCTURA": "Caja Hidráulica", "FID": 192, "Field_1": "10,7-C11", "NOMBRE": "10,7-C11", "Nº": 192, "PROGRESIVA": "3+914,96", "TRAMO": "Tramo X" }, "geometry": { "type": "Point", "coordinates": [ -78.8887019, -8.3377607, 0.0 ] } },
{ "type": "Feature", "properties": { "Name": "Caja Hidráulica 10,7-C12", "COD_EST": "Sub Lateral 10,7", "ESTRUCTURA": "Caja Hidráulica", "FID": 193, "Field_1": "10,7-C12", "NOMBRE": "10,7-C12", "Nº": 193, "PROGRESIVA": "3+955,11", "TRAMO": "Tramo X" }, "geometry": { "type": "Point", "coordinates": [ -78.88897, -8.3380066, 0.0 ] } },
{ "type": "Feature", "properties": { "Name": "Caja Hidráulica 10,7-CH5", "COD_EST": "Sub Lateral 10,7", "ESTRUCTURA": "Caja Hidráulica", "FID": 194, "Field_1": "10,7-CH5", "NOMBRE": "10,7-CH5", "Nº": 194, "PROGRESIVA": "3+995,20", "TRAMO": "Tramo X" }, "geometry": { "type": "Point", "coordinates": [ -78.8892736, -8.3382126, 0.0 ] } },
{ "type": "Feature", "properties": { "Name": "Caja Hidráulica 10,7-CH6", "COD_EST": "Sub Lateral 10,7", "ESTRUCTURA": "Caja Hidráulica", "FID": 195, "Field_1": "10,7-CH6", "NOMBRE": "10,7-CH6", "Nº": 195, "PROGRESIVA": "3+999,13", "TRAMO": "Tramo X" }, "geometry": { "type": "Point", "coordinates": [ -78.8891994, -8.3383469, 0.0 ] } },
{ "type": "Feature", "properties": { "Name": "Caja Hidráulica 10,7-C13", "COD_EST": "Sub Lateral 10,7", "ESTRUCTURA": "Caja Hidráulica", "FID": 196, "Field_1": "10,7-C13", "NOMBRE": "10,7-C13", "Nº": 196, "PROGRESIVA": "4+288,29", "TRAMO": "Tramo X" }, "geometry": { "type": "Point", "coordinates": [ -78.8912095, -8.3400303, 0.0 ] } },
{ "type": "Feature", "properties": { "Name": "Caja Hidráulica 10,7-CH7", "COD_EST": "Sub Lateral 10,7", "ESTRUCTURA": "Caja Hidráulica", "FID": 197, "Field_1": "10,7-CH7", "NOMBRE": "10,7-CH7", "Nº": 197, "PROGRESIVA": "4+579,85", "TRAMO": "Tramo X" }, "geometry": { "type": "Point", "coordinates": [ -78.893203, -8.3417642, 0.0 ] } },
{ "type": "Feature", "properties": { "Name": "Caja Hidráulica 10,7-CH8", "COD_EST": "Sub Lateral 10,7", "ESTRUCTURA": "Caja Hidráulica", "FID": 198, "Field_1": "10,7-CH8", "NOMBRE": "10,7-CH8", "Nº": 198, "PROGRESIVA": "4+583,85", "TRAMO": "Tramo X" }, "geometry": { "type": "Point", "coordinates": [ -78.8931099, -8.3419202, 0.0 ] } },
{ "type": "Feature", "properties": { "Name": "Caja Hidráulica 10,7-C14", "COD_EST": "Sub Lateral 10,7", "ESTRUCTURA": "Caja Hidráulica", "FID": 199, "Field_1": "10,7-C14", "NOMBRE": "10,7-C14", "Nº": 199, "PROGRESIVA": "4+912,22", "TRAMO": "Tramo X" }, "geometry": { "type": "Point", "coordinates": [ -78.8954063, -8.343817, 0.0 ] } },
{ "type": "Feature", "properties": { "Name": "Caja Hidráulica 10,7-CRI-1", "COD_EST": "Sub Lateral 10,7", "ESTRUCTURA": "Caja Hidráulica", "FID": 200, "Field_1": "10,7-CRI-1", "NOMBRE": "10,7-CRI-1", "Nº": 200, "PROGRESIVA": "0+034,12", "TRAMO": "Tramo X" }, "geometry": { "type": "Point", "coordinates": [ -78.8961509, -8.344905, 0.0 ] } },
{ "type": "Feature", "properties": { "Name": "Caja Hidráulica 10,7-CRI-2", "COD_EST": "Sub Lateral 10,7", "ESTRUCTURA": "Caja Hidráulica", "FID": 201, "Field_1": "10,7-CRI-2", "NOMBRE": "10,7-CRI-2", "Nº": 201, "PROGRESIVA": "0+578,39", "TRAMO": "Tramo X" }, "geometry": { "type": "Point", "coordinates": [ -78.8935184, -8.3490681, 0.0 ] } },
{ "type": "Feature", "properties": { "Name": "Caja Hidráulica 10,7-CH9", "COD_EST": "Sub Lateral 10,7", "ESTRUCTURA": "Caja Hidráulica", "FID": 202, "Field_1": "10,7-CH9", "NOMBRE": "10,7-CH9", "Nº": 202, "PROGRESIVA": "0+713,83", "TRAMO": "Tramo X" }, "geometry": { "type": "Point", "coordinates": [ -78.8929246, -8.3501018, 0.0 ] } },
{ "type": "Feature", "properties": { "Name": "Caja Hidráulica 10,7-CH10", "COD_EST": "Sub Lateral 10,7", "ESTRUCTURA": "Caja Hidráulica", "FID": 203, "Field_1": "10,7-CH10", "NOMBRE": "10,7-CH10", "Nº": 203, "PROGRESIVA": "5+080,48", "TRAMO": "Tramo X" }, "geometry": { "type": "Point", "coordinates": [ -78.896568, -8.3448052, 0.0 ] } },
{ "type": "Feature", "properties": { "Name": "Caja Hidráulica 10,7-CH11", "COD_EST": "Sub Lateral 10,7", "ESTRUCTURA": "Caja Hidráulica", "FID": 204, "Field_1": "10,7-CH11", "NOMBRE": "10,7-CH11", "Nº": 204, "PROGRESIVA": "5+083,78", "TRAMO": "Tramo X" }, "geometry": { "type": "Point", "coordinates": [ -78.8964716, -8.3449555, 0.0 ] } },
{ "type": "Feature", "properties": { "Name": "Caja Hidráulica 10,7-CH12", "COD_EST": "Sub Lateral 10,7", "ESTRUCTURA": "Caja Hidráulica", "FID": 205, "Field_1": "10,7-CH12", "NOMBRE": "10,7-CH12", "Nº": 205, "PROGRESIVA": "0+642,09", "TRAMO": "Tramo X" }, "geometry": { "type": "Point", "coordinates": [ -78.9029962, -8.3429538, 0.0 ] } },
{ "type": "Feature", "properties": { "Name": "Caja Hidráulica 10,7-CH13", "COD_EST": "Sub Lateral 10,7", "ESTRUCTURA": "Caja Hidráulica", "FID": 206, "Field_1": "10,7-CH13", "NOMBRE": "10,7-CH13", "Nº": 206, "PROGRESIVA": "5+589,98", "TRAMO": "Tramo X" }, "geometry": { "type": "Point", "coordinates": [ -78.899992, -8.3479009, 0.0 ] } },
{ "type": "Feature", "properties": { "Name": "Caja Hidráulica 10,7-CRII-1", "COD_EST": "Sub Lateral 10,7", "ESTRUCTURA": "Caja Hidráulica", "FID": 207, "Field_1": "10,7-CRII-1", "NOMBRE": "10,7-CRII-1", "Nº": 207, "PROGRESIVA": "0+100,78", "TRAMO": "Tramo X" }, "geometry": { "type": "Point", "coordinates": [ -78.9013301, -8.3503986, 0.0 ] } },
{ "type": "Feature", "properties": { "Name": "Caja Hidráulica 10,7-CH14", "COD_EST": "Sub Lateral 10,7", "ESTRUCTURA": "Caja Hidráulica", "FID": 208, "Field_1": "10,7-CH14", "NOMBRE": "10,7-CH14", "Nº": 208, "PROGRESIVA": "0+903,67", "TRAMO": "Tramo X" }, "geometry": { "type": "Point", "coordinates": [ -78.8970879, -8.3562646, 0.0 ] } },
{ "type": "Feature", "properties": { "Name": "Caja Hidráulica 10,7-C15", "COD_EST": "Sub Lateral 10,7", "ESTRUCTURA": "Caja Hidráulica", "FID": 209, "Field_1": "10,7-C15", "NOMBRE": "10,7-C15", "Nº": 209, "PROGRESIVA": "5+946,56", "TRAMO": "Tramo X" }, "geometry": { "type": "Point", "coordinates": [ -78.9023694, -8.3500876, 0.0 ] } },
{ "type": "Feature", "properties": { "Name": "Caja Hidráulica 10,7-CH15", "COD_EST": "Sub Lateral 10,7", "ESTRUCTURA": "Caja Hidráulica", "FID": 210, "Field_1": "10,7-CH15", "NOMBRE": "10,7-CH15", "Nº": 210, "PROGRESIVA": "5+900,12", "TRAMO": "Tramo X" }, "geometry": { "type": "Point", "coordinates": [ -78.9019603, -8.3499184, 0.0 ] } }
]
}
