{
"type": "FeatureCollection",
"name": "Canoa",
"features": [
{ "type": "Feature", "properties": { "Name": "Canoa C1", "COD_EST": "CANAL MADRE", "ESTADO": "Bueno", "ESTE": 780798.4529, "ESTRUCTURA": "Canoa", "Field_1": "C1", "Label": "Canoa C1", "NOMBRE": "C1", "NORTE": 9036177.889, "N_": 1, "PROGRESIVA": "18+630.50", "TRAMO": "Tramo 0" }, "geometry": { "type": "Point", "coordinates": [ -78.4480954, -8.7107577, 0.0 ] } },
{ "type": "Feature", "properties": { "Name": "Canoa C2", "COD_EST": "CANAL MADRE", "ESTADO": "Bueno", "ESTE": 779803.35, "ESTRUCTURA": "Canoa", "Field_1": "C2", "Label": "Canoa C2", "NOMBRE": "C2", "NORTE": 9035943.435000001, "N_": 2, "PROGRESIVA": "19+768.79", "TRAMO": "Tramo 0" }, "geometry": { "type": "Point", "coordinates": [ -78.4571184, -8.7129369, 0.0 ] } },
{ "type": "Feature", "properties": { "Name": "Canoa C2A", "COD_EST": "CANAL MADRE", "ESTADO": "Bueno", "ESTE": 765458.0004, "ESTRUCTURA": "Canoa", "Field_1": "C2A", "Label": "Canoa C2A", "NOMBRE": "C2A", "NORTE": 9041441.394, "N_": 3, "PROGRESIVA": "35+935.00", "TRAMO": "Tramo I" }, "geometry": { "type": "Point", "coordinates": [ -78.5877268, -8.6641007, 0.0 ] } },
{ "type": "Feature", "properties": { "Name": "Canoa C2B", "COD_EST": "CANAL MADRE", "ESTADO": "Bueno", "ESTE": 765453.959, "ESTRUCTURA": "Canoa", "Field_1": "C2B", "Label": "Canoa C2B", "NOMBRE": "C2B", "NORTE": 9041452.941, "N_": 4, "PROGRESIVA": "35+951.00", "TRAMO": "Tramo I" }, "geometry": { "type": "Point", "coordinates": [ -78.5877642, -8.6639966, 0.0 ] } },
{ "type": "Feature", "properties": { "Name": "Canoa C2C", "COD_EST": "CANAL MADRE", "ESTADO": "Bueno", "ESTE": 765205.69, "ESTRUCTURA": "Canoa", "Field_1": "C2C", "Label": "Canoa C2C", "NOMBRE": "C2C", "NORTE": 9041790.13, "N_": 5, "PROGRESIVA": "36+370.00", "TRAMO": "Tramo I" }, "geometry": { "type": "Point", "coordinates": [ -78.5900383, -8.6609636, 0.0 ] } },
{ "type": "Feature", "properties": { "Name": "Canoa C2D", "COD_EST": "CANAL MADRE", "ESTADO": "Bueno", "ESTE": 764516.11, "ESTRUCTURA": "Canoa", "Field_1": "C2D", "Label": "Canoa C2D", "NOMBRE": "C2D", "NORTE": 9043308.224, "N_": 6, "PROGRESIVA": "38+291.00", "TRAMO": "Tramo II" }, "geometry": { "type": "Point", "coordinates": [ -78.5963879, -8.6472836, 0.0 ] } },
{ "type": "Feature", "properties": { "Name": "Canoa C3", "COD_EST": "CANAL MADRE", "ESTADO": "Bueno", "ESTE": 764768.0251, "ESTRUCTURA": "Canoa", "Field_1": "C3", "Label": "Canoa C3", "NOMBRE": "C3", "NORTE": 9044376.3258999996, "N_": 7, "PROGRESIVA": "39+415.22", "TRAMO": "Tramo II" }, "geometry": { "type": "Point", "coordinates": [ -78.5941614, -8.6376166, 0.0 ] } },
{ "type": "Feature", "properties": { "Name": "Canoa C4A", "COD_EST": "CANAL MADRE", "ESTADO": "Bueno", "ESTE": 764831.7791, "ESTRUCTURA": "Canoa", "Field_1": "C4A", "Label": "Canoa C4A", "NOMBRE": "C4A", "NORTE": 9045572.7409000006, "N_": 8, "PROGRESIVA": "40+612.879", "TRAMO": "Tramo II" }, "geometry": { "type": "Point", "coordinates": [ -78.593651, -8.6268006, 0.0 ] } },
{ "type": "Feature", "properties": { "Name": "Canoa C4B", "COD_EST": "CANAL MADRE", "ESTADO": "Bueno", "ESTE": 764831.779, "ESTRUCTURA": "Canoa", "Field_1": "C4B", "Label": "Canoa C4B", "NOMBRE": "C4B", "NORTE": 9045586.99, "N_": 9, "PROGRESIVA": "40+626.800", "TRAMO": "Tramo II" }, "geometry": { "type": "Point", "coordinates": [ -78.5936518, -8.6266719, 0.0 ] } },
{ "type": "Feature", "properties": { "Name": "Canoa C5", "COD_EST": "CANAL MADRE", "ESTADO": "Bueno", "ESTE": 764691.8314, "ESTRUCTURA": "Canoa", "Field_1": "C5", "Label": "Canoa C5", "NOMBRE": "C5", "NORTE": 9046031.9794999994, "N_": 10, "PROGRESIVA": "41+118.24", "TRAMO": "Tramo II" }, "geometry": { "type": "Point", "coordinates": [ -78.5949481, -8.6226584, 0.0 ] } },
{ "type": "Feature", "properties": { "Name": "Canoa C6", "COD_EST": "CANAL MADRE", "ESTADO": "Bueno", "ESTE": 764807.2803, "ESTRUCTURA": "Canoa", "Field_1": "C6", "Label": "Canoa C6", "NOMBRE": "C6", "NORTE": 9046347.5913999993, "N_": 11, "PROGRESIVA": "41+458.24", "TRAMO": "Tramo II" }, "geometry": { "type": "Point", "coordinates": [ -78.5939178, -8.6197995, 0.0 ] } },
{ "type": "Feature", "properties": { "Name": "Canoa C7", "COD_EST": "CANAL MADRE", "ESTADO": "Bueno", "ESTE": 764788.105, "ESTRUCTURA": "Canoa", "Field_1": "C7", "Label": "Canoa C7", "NOMBRE": "C7", "NORTE": 9046595.0703999996, "N_": 12, "PROGRESIVA": "41+710.24", "TRAMO": "Tramo II" }, "geometry": { "type": "Point", "coordinates": [ -78.5941061, -8.6175641, 0.0 ] } },
{ "type": "Feature", "properties": { "Name": "Canoa C7A", "COD_EST": "CANAL MADRE", "ESTADO": "Bueno", "ESTE": 764796.38, "ESTRUCTURA": "Canoa", "Field_1": "C7A", "Label": "Canoa C7A", "NOMBRE": "C7A", "NORTE": 9046606.0, "N_": 13, "PROGRESIVA": "41+720.00", "TRAMO": "Tramo II" }, "geometry": { "type": "Point", "coordinates": [ -78.5940315, -8.6174648, 0.0 ] } },
{ "type": "Feature", "properties": { "Name": "Canoa C8", "COD_EST": "CANAL MADRE", "ESTADO": "Bueno", "ESTE": 764504.55, "ESTRUCTURA": "Canoa", "Field_1": "C8", "Label": "Canoa C8", "NOMBRE": "C8", "NORTE": 9047049.0306000002, "N_": 14, "PROGRESIVA": "42+295.51", "TRAMO": "Tramo II" }, "geometry": { "type": "Point", "coordinates": [ -78.5967068, -8.6134777, 0.0 ] } },
{ "type": "Feature", "properties": { "Name": "Canoa C9", "COD_EST": "CANAL MADRE", "ESTADO": "Bueno", "ESTE": 763983.4637, "ESTRUCTURA": "Canoa", "Field_1": "C9", "Label": "Canoa C9", "NOMBRE": "C9", "NORTE": 9051038.3869000003, "N_": 15, "PROGRESIVA": "46+791.11", "TRAMO": "Tramo III" }, "geometry": { "type": "Point", "coordinates": [ -78.6020003, -8.5763231, 0.0 ] } },
{ "type": "Feature", "properties": { "Name": "Canoa C10", "COD_EST": "CANAL MADRE", "ESTADO": "Bueno", "ESTE": 763731.7067, "ESTRUCTURA": "Canoa", "Field_1": "C10", "Label": "Canoa C10", "NOMBRE": "C10", "NORTE": 9052412.734, "N_": 16, "PROGRESIVA": "48+296.489", "TRAMO": "Tramo III" }, "geometry": { "type": "Point", "coordinates": [ -78.604029, -8.5650479, 0.0 ] } },
{ "type": "Feature", "properties": { "Name": "Canoa C11", "COD_EST": "CANAL MADRE", "ESTADO": "Bueno", "ESTE": 764605.7376, "ESTRUCTURA": "Canoa", "Field_1": "C11", "Label": "Canoa C11", "NOMBRE": "C11", "NORTE": 9063533.4185000006, "N_": 17, "PROGRESIVA": "65+540.802", "TRAMO": "Tramo V" }, "geometry": { "type": "Point", "coordinates": [ -78.5967208, -8.4644975, 0.0 ] } },
{ "type": "Feature", "properties": { "Name": "Canoa C12", "COD_EST": "CANAL MADRE", "ESTADO": "Bueno", "ESTE": 764542.3155, "ESTRUCTURA": "Canoa", "Field_1": "C12", "Label": "Canoa C12", "NOMBRE": "C12", "NORTE": 9063710.4806999993, "N_": 18, "PROGRESIVA": "65+730.802", "TRAMO": "Tramo V" }, "geometry": { "type": "Point", "coordinates": [ -78.5973064, -8.4629009, 0.0 ] } },
{ "type": "Feature", "properties": { "Name": "Canoa C13", "COD_EST": "CANAL MADRE", "ESTADO": "Bueno", "ESTE": 764245.6023, "ESTRUCTURA": "Canoa", "Field_1": "C13", "Label": "Canoa C13", "NOMBRE": "C13", "NORTE": 9063975.6027000006, "N_": 19, "PROGRESIVA": "66+144.802", "TRAMO": "Tramo V" }, "geometry": { "type": "Point", "coordinates": [ -78.6000145, -8.4605215, 0.0 ] } },
{ "type": "Feature", "properties": { "Name": "Canoa C14", "COD_EST": "CANAL MADRE", "ESTADO": "Bueno", "ESTE": 764023.714, "ESTRUCTURA": "Canoa", "Field_1": "C14", "Label": "Canoa C14", "NOMBRE": "C14", "NORTE": 9064118.8419000003, "N_": 20, "PROGRESIVA": "66+408.802", "TRAMO": "Tramo VI" }, "geometry": { "type": "Point", "coordinates": [ -78.6020366, -8.4592393, 0.0 ] } },
{ "type": "Feature", "properties": { "Name": "Canoa C14A", "COD_EST": "CANAL MADRE", "ESTADO": "Bueno", "ESTE": 763990.1616, "ESTRUCTURA": "Canoa", "Field_1": "C14A", "Label": "Canoa C14A", "NOMBRE": "C14A", "NORTE": 9064158.911, "N_": 21, "PROGRESIVA": "66+459.00", "TRAMO": "Tramo VI" }, "geometry": { "type": "Point", "coordinates": [ -78.6024053, -8.458949, 0.0 ] } },
{ "type": "Feature", "properties": { "Name": "Canoa C15", "COD_EST": "CANAL MADRE", "ESTADO": "Bueno", "ESTE": 763746.6688, "ESTRUCTURA": "Canoa", "Field_1": "C15", "Label": "Canoa C15", "NOMBRE": "C15", "NORTE": 9064244.8884999994, "N_": 22, "PROGRESIVA": "66+720.802", "TRAMO": "Tramo VI" }, "geometry": { "type": "Point", "coordinates": [ -78.6045584, -8.4581156, 0.0 ] } },
{ "type": "Feature", "properties": { "Name": "Canoa C16", "COD_EST": "CANAL MADRE", "ESTADO": "Bueno", "ESTE": 763372.1776000001, "ESTRUCTURA": "Canoa", "Field_1": "C16", "Label": "Canoa C16", "NOMBRE": "C16", "NORTE": 9064337.7453000005, "N_": 23, "PROGRESIVA": "67+108.802", "TRAMO": "Tramo VI" }, "geometry": { "type": "Point", "coordinates": [ -78.6079628, -8.4572972, 0.0 ] } },
{ "type": "Feature", "properties": { "Name": "Canoa C16A", "COD_EST": "CANAL MADRE", "ESTADO": "Bueno", "ESTE": 763990.1616, "ESTRUCTURA": "Canoa", "Field_1": "C16A", "Label": "Canoa C16A", "NOMBRE": "C16A", "NORTE": 9064158.911, "N_": 24, "PROGRESIVA": "67+179.00", "TRAMO": "Tramo VI" }, "geometry": { "type": "Point", "coordinates": [ -78.608462, -8.4568525, 0.0 ] } },
{ "type": "Feature", "properties": { "Name": "Canoa C17", "COD_EST": "CANAL MADRE", "ESTADO": "Bueno", "ESTE": 763151.4159, "ESTRUCTURA": "Canoa", "Field_1": "C17", "Label": "Canoa C17", "NOMBRE": "C17", "NORTE": 9064496.9892999995, "N_": 25, "PROGRESIVA": "67+380.802", "TRAMO": "Tramo VI" }, "geometry": { "type": "Point", "coordinates": [ -78.6099755, -8.4558703, 0.0 ] } },
{ "type": "Feature", "properties": { "Name": "Canoa C18", "COD_EST": "CANAL MADRE", "ESTADO": "Bueno", "ESTE": 762748.31, "ESTRUCTURA": "Canoa", "Field_1": "C18", "Label": "Canoa C18", "NOMBRE": "C18", "NORTE": 9064545.02, "N_": 26, "PROGRESIVA": "67+800.802", "TRAMO": "Tramo VI" }, "geometry": { "type": "Point", "coordinates": [ -78.6136371, -8.4554586, 0.0 ] } },
{ "type": "Feature", "properties": { "Name": "Canoa C18A", "COD_EST": "CANAL MADRE", "ESTADO": "Bueno", "ESTE": 762701.7174, "ESTRUCTURA": "Canoa", "Field_1": "C18A", "Label": "Canoa C18A", "NOMBRE": "C18A", "NORTE": 9064547.0672999993, "N_": 27, "PROGRESIVA": "67+850.69", "TRAMO": "Tramo VI" }, "geometry": { "type": "Point", "coordinates": [ -78.6140602, -8.4554427, 0.0 ] } },
{ "type": "Feature", "properties": { "Name": "Canoa C19", "COD_EST": "CANAL MADRE", "ESTADO": "Bueno", "ESTE": 762400.0242, "ESTRUCTURA": "Canoa", "Field_1": "C19", "Label": "Canoa C19", "NOMBRE": "C19", "NORTE": 9064583.2764, "N_": 28, "PROGRESIVA": "68+160.802", "TRAMO": "Tramo VI" }, "geometry": { "type": "Point", "coordinates": [ -78.6168006, -8.4551321, 0.0 ] } },
{ "type": "Feature", "properties": { "Name": "Canoa C20", "COD_EST": "CANAL MADRE", "ESTADO": "Bueno", "ESTE": 762275.839, "ESTRUCTURA": "Canoa", "Field_1": "C20", "Label": "Canoa C20", "NOMBRE": "C20", "NORTE": 9064736.5566000007, "N_": 29, "PROGRESIVA": "68+356.802", "TRAMO": "Tramo VI" }, "geometry": { "type": "Point", "coordinates": [ -78.6179363, -8.4537537, 0.0 ] } },
{ "type": "Feature", "properties": { "Name": "Canoa C20A", "COD_EST": "CANAL MADRE", "ESTADO": "Bueno", "ESTE": 762272.0, "ESTRUCTURA": "Canoa", "Field_1": "C20A", "Label": "Canoa C20A", "NOMBRE": "C20A", "NORTE": 9064737.0, "N_": 30, "PROGRESIVA": "68+372.80", "TRAMO": "Tramo VI" }, "geometry": { "type": "Point", "coordinates": [ -78.6179712, -8.4537499, 0.0 ] } },
{ "type": "Feature", "properties": { "Name": "Canoa C21", "COD_EST": "CANAL MADRE", "ESTADO": "Bueno", "ESTE": 762113.9054, "ESTRUCTURA": "Canoa", "Field_1": "C21", "Label": "Canoa C21", "NOMBRE": "C21", "NORTE": 9064907.8274000008, "N_": 31, "PROGRESIVA": "68+592.802", "TRAMO": "Tramo VI" }, "geometry": { "type": "Point", "coordinates": [ -78.6194157, -8.4522148, 0.0 ] } },
{ "type": "Feature", "properties": { "Name": "Canoa C22", "COD_EST": "CANAL MADRE", "ESTADO": "Bueno", "ESTE": 761808.6466, "ESTRUCTURA": "Canoa", "Field_1": "C22", "Label": "Canoa C22", "NOMBRE": "C22", "NORTE": 9064979.1786000002, "N_": 32, "PROGRESIVA": "68+976.802", "TRAMO": "Tramo VI" }, "geometry": { "type": "Point", "coordinates": [ -78.6221904, -8.4515868, 0.0 ] } },
{ "type": "Feature", "properties": { "Name": "Canoa C23", "COD_EST": "CANAL MADRE", "ESTADO": "Bueno", "ESTE": 760978.6855, "ESTRUCTURA": "Canoa", "Field_1": "C23", "Label": "Canoa C23", "NOMBRE": "C23", "NORTE": 9064575.6153999995, "N_": 33, "PROGRESIVA": "69+960.802", "TRAMO": "Tramo VI" }, "geometry": { "type": "Point", "coordinates": [ -78.6297016, -8.4552797, 0.0 ] } },
{ "type": "Feature", "properties": { "Name": "Canoa C24", "COD_EST": "CANAL MADRE", "ESTADO": "Bueno", "ESTE": 760751.4235, "ESTRUCTURA": "Canoa", "Field_1": "C24", "Label": "Canoa C24", "NOMBRE": "C24", "NORTE": 9064685.4774999991, "N_": 34, "PROGRESIVA": "70+240.00", "TRAMO": "Tramo VI" }, "geometry": { "type": "Point", "coordinates": [ -78.6317706, -8.4542994, 0.0 ] } },
{ "type": "Feature", "properties": { "Name": "Canoa C25", "COD_EST": "CANAL MADRE", "ESTADO": "Bueno", "ESTE": 760566.0211, "ESTRUCTURA": "Canoa", "Field_1": "C25", "Label": "Canoa C25", "NOMBRE": "C25", "NORTE": 9064614.2457999997, "N_": 35, "PROGRESIVA": "70+448.802", "TRAMO": "Tramo VI" }, "geometry": { "type": "Point", "coordinates": [ -78.6334495, -8.4549533, 0.0 ] } },
{ "type": "Feature", "properties": { "Name": "Canoa C26", "COD_EST": "CANAL MADRE", "ESTADO": "Bueno", "ESTE": 759925.8042, "ESTRUCTURA": "Canoa", "Field_1": "C26", "Label": "Canoa C26", "NOMBRE": "C26", "NORTE": 9064415.5058999993, "N_": 36, "PROGRESIVA": "71+160.802", "TRAMO": "Tramo VI" }, "geometry": { "type": "Point", "coordinates": [ -78.6392499, -8.4567846, 0.0 ] } },
{ "type": "Feature", "properties": { "Name": "Canoa C27", "COD_EST": "CANAL MADRE", "ESTADO": "Bueno", "ESTE": 759809.1802, "ESTRUCTURA": "Canoa", "Field_1": "C27", "Label": "Canoa C27", "NOMBRE": "C27", "NORTE": 9064409.6656, "N_": 37, "PROGRESIVA": "71+268.802", "TRAMO": "Tramo VI" }, "geometry": { "type": "Point", "coordinates": [ -78.6403082, -8.4568437, 0.0 ] } },
{ "type": "Feature", "properties": { "Name": "Canoa C28", "COD_EST": "CANAL MADRE", "ESTADO": "Bueno", "ESTE": 759681.2448, "ESTRUCTURA": "Canoa", "Field_1": "C28", "Label": "Canoa C28", "NOMBRE": "C28", "NORTE": 9064517.5271000005, "N_": 38, "PROGRESIVA": "71+436.802", "TRAMO": "Tramo VI" }, "geometry": { "type": "Point", "coordinates": [ -78.6414754, -8.4558759, 0.0 ] } },
{ "type": "Feature", "properties": { "Name": "Canoa C29", "COD_EST": "CANAL MADRE", "ESTADO": "Bueno", "ESTE": 759557.7232, "ESTRUCTURA": "Canoa", "Field_1": "C29", "Label": "Canoa C29", "NOMBRE": "C29", "NORTE": 9064580.6839000005, "N_": 39, "PROGRESIVA": "71+576.802", "TRAMO": "Tramo VI" }, "geometry": { "type": "Point", "coordinates": [ -78.6426001, -8.4553119, 0.0 ] } },
{ "type": "Feature", "properties": { "Name": "Canoa C30", "COD_EST": "CANAL MADRE", "ESTADO": "Bueno", "ESTE": 759278.4988, "ESTRUCTURA": "Canoa", "Field_1": "C30", "Label": "Canoa C30", "NOMBRE": "C30", "NORTE": 9064875.2294999994, "N_": 40, "PROGRESIVA": "72+011.802", "TRAMO": "Tramo VI" }, "geometry": { "type": "Point", "coordinates": [ -78.6451508, -8.4526652, 0.0 ] } },
{ "type": "Feature", "properties": { "Name": "Canoa C31", "COD_EST": "CANAL MADRE", "ESTADO": "Bueno", "ESTE": 759108.3199, "ESTRUCTURA": "Canoa", "Field_1": "C31", "Label": "Canoa C31", "NOMBRE": "C31", "NORTE": 9064944.8959, "N_": 41, "PROGRESIVA": "72+209.343", "TRAMO": "Tramo VI" }, "geometry": { "type": "Point", "coordinates": [ -78.6466993, -8.4520448, 0.0 ] } },
{ "type": "Feature", "properties": { "Name": "Canoa C32", "COD_EST": "CANAL MADRE", "ESTADO": "Bueno", "ESTE": 746197.2773, "ESTRUCTURA": "Canoa", "Field_1": "C32", "Label": "Canoa C32", "NOMBRE": "C32", "NORTE": 9072766.5952000003, "N_": 42, "PROGRESIVA": "90+292.173", "TRAMO": "Tramo VII" }, "geometry": { "type": "Point", "coordinates": [ -78.7643043, -8.3820362, 0.0 ] } },
{ "type": "Feature", "properties": { "Name": "Canoa C33", "COD_EST": "CANAL MADRE", "ESTADO": "Bueno", "ESTE": 746153.0059, "ESTRUCTURA": "Canoa", "Field_1": "C33", "Label": "Canoa C33", "NOMBRE": "C33", "NORTE": 9072772.4703000002, "N_": 43, "PROGRESIVA": "90+338.173", "TRAMO": "Tramo VII" }, "geometry": { "type": "Point", "coordinates": [ -78.7647064, -8.3819854, 0.0 ] } },
{ "type": "Feature", "properties": { "Name": "Canoa C34", "COD_EST": "CANAL MADRE", "ESTADO": "Bueno", "ESTE": 744851.5116, "ESTRUCTURA": "Canoa", "Field_1": "C34", "Label": "Canoa C34", "NOMBRE": "C34", "NORTE": 9073233.9957, "N_": 44, "PROGRESIVA": "91+753.373", "TRAMO": "Tramo VIII" }, "geometry": { "type": "Point", "coordinates": [ -78.7765428, -8.3778806, 0.0 ] } },
{ "type": "Feature", "properties": { "Name": "Canoa C35", "COD_EST": "CANAL MADRE", "ESTADO": "Bueno", "ESTE": 744652.1162, "ESTRUCTURA": "Canoa", "Field_1": "C35", "Label": "Canoa C35", "NOMBRE": "C35", "NORTE": 9073279.2838000003, "N_": 45, "PROGRESIVA": "91+963.373", "TRAMO": "Tramo VIII" }, "geometry": { "type": "Point", "coordinates": [ -78.7783549, -8.3774815, 0.0 ] } },
{ "type": "Feature", "properties": { "Name": "Canoa C36", "COD_EST": "CANAL MADRE", "ESTADO": "Bueno", "ESTE": 743768.0321, "ESTRUCTURA": "Canoa", "Field_1": "C36", "Label": "Canoa C36", "NOMBRE": "C36", "NORTE": 9073982.9553999994, "N_": 46, "PROGRESIVA": "93+431.703", "TRAMO": "Tramo IX" }, "geometry": { "type": "Point", "coordinates": [ -78.7864149, -8.3711664, 0.0 ] } },
{ "type": "Feature", "properties": { "Name": "Canoa C37", "COD_EST": "CANAL MADRE", "ESTADO": "Bueno", "ESTE": 743387.729, "ESTRUCTURA": "Canoa", "Field_1": "C37", "Label": "Canoa C37", "NOMBRE": "C37", "NORTE": 9074959.1421000008, "N_": 47, "PROGRESIVA": "94+486.763", "TRAMO": "Tramo IX" }, "geometry": { "type": "Point", "coordinates": [ -78.7899163, -8.3623623, 0.0 ] } },
{ "type": "Feature", "properties": { "Name": "Canoa C38", "COD_EST": "CANAL MADRE", "ESTADO": "Bueno", "ESTE": 743309.1361, "ESTRUCTURA": "Canoa", "Field_1": "C38", "Label": "Canoa C38", "NOMBRE": "C38", "NORTE": 9075113.6492999997, "N_": 48, "PROGRESIVA": "94+684.763", "TRAMO": "Tramo IX" }, "geometry": { "type": "Point", "coordinates": [ -78.7906375, -8.3609698, 0.0 ] } },
{ "type": "Feature", "properties": { "Name": "Canoa C39", "COD_EST": "CANAL MADRE", "ESTADO": "Bueno", "ESTE": 743095.6127000001, "ESTRUCTURA": "Canoa", "Field_1": "C39", "Label": "Canoa C39", "NOMBRE": "C39", "NORTE": 9075172.028000001, "N_": 49, "PROGRESIVA": "94+929.763", "TRAMO": "Tramo IX" }, "geometry": { "type": "Point", "coordinates": [ -78.7925784, -8.3604529, 0.0 ] } },
{ "type": "Feature", "properties": { "Name": "Canoa C40", "COD_EST": "CANAL MADRE", "ESTADO": "Bueno", "ESTE": 742969.4602, "ESTRUCTURA": "Canoa", "Field_1": "C40", "Label": "Canoa C40", "NOMBRE": "C40", "NORTE": 9075258.1506999992, "N_": 50, "PROGRESIVA": "95+078.853", "TRAMO": "Tramo IX" }, "geometry": { "type": "Point", "coordinates": [ -78.7937277, -8.3596809, 0.0 ] } },
{ "type": "Feature", "properties": { "Name": "Canoa C41", "COD_EST": "CANAL MADRE", "ESTADO": "Bueno", "ESTE": 742615.6236, "ESTRUCTURA": "Canoa", "Field_1": "C41", "Label": "Canoa C41", "NOMBRE": "C41", "NORTE": 9075350.915, "N_": 51, "PROGRESIVA": "95+465.763", "TRAMO": "Tramo IX" }, "geometry": { "type": "Point", "coordinates": [ -78.7969438, -8.3588603, 0.0 ] } },
{ "type": "Feature", "properties": { "Name": "Canoa C41A", "COD_EST": "CANAL MADRE", "ESTADO": "Bueno", "ESTE": 739024.0, "ESTRUCTURA": "Canoa", "Field_1": "C41A", "Label": "Canoa C41A", "NOMBRE": "C41A", "NORTE": 9076772.0, "N_": 52, "PROGRESIVA": "99+749.79", "TRAMO": "Tramo IX" }, "geometry": { "type": "Point", "coordinates": [ -78.8296121, -8.3461955, 0.0 ] } },
{ "type": "Feature", "properties": { "Name": "Canoa C42", "COD_EST": "CANAL MADRE", "ESTADO": "Bueno", "ESTE": 738950.0, "ESTRUCTURA": "Canoa", "Field_1": "C42", "Label": "Canoa C42", "NOMBRE": "C42", "NORTE": 9077047.0, "N_": 53, "PROGRESIVA": "100+044.383", "TRAMO": "Tramo IX" }, "geometry": { "type": "Point", "coordinates": [ -78.8302975, -8.3437135, 0.0 ] } },
{ "type": "Feature", "properties": { "Name": "Canoa C44", "COD_EST": "CANAL MADRE", "ESTADO": "Bueno", "ESTE": 737286.1574, "ESTRUCTURA": "Canoa", "Field_1": "C44", "Label": "Canoa C44", "NOMBRE": "C44", "NORTE": 9080526.9112999998, "N_": 54, "PROGRESIVA": "104+550.12", "TRAMO": "Tramo X" }, "geometry": { "type": "Point", "coordinates": [ -78.8455702, -8.3123411, 0.0 ] } },
{ "type": "Feature", "properties": { "Name": "Canoa C45", "COD_EST": "CANAL MADRE", "ESTADO": "Bueno", "ESTE": 737623.9196, "ESTRUCTURA": "Canoa", "Field_1": "C45", "Label": "Canoa C45", "NOMBRE": "C45", "NORTE": 9082167.3233000003, "N_": 55, "PROGRESIVA": "106+630.09", "TRAMO": "Tramo XI" }, "geometry": { "type": "Point", "coordinates": [ -78.842586, -8.2974969, 0.0 ] } },
{ "type": "Feature", "properties": { "Name": "Canoa C46", "COD_EST": "CANAL MADRE", "ESTADO": "Bueno", "ESTE": 737579.6877, "ESTRUCTURA": "Canoa", "Field_1": "C46", "Label": "Canoa C46", "NOMBRE": "C46", "NORTE": 9082450.2305999994, "N_": 56, "PROGRESIVA": "106+916.09", "TRAMO": "Tramo XI" }, "geometry": { "type": "Point", "coordinates": [ -78.8430013, -8.2949418, 0.0 ] } },
{ "type": "Feature", "properties": { "Name": "Canoa C47", "COD_EST": "CANAL MADRE", "ESTADO": "Bueno", "ESTE": 737564.6529, "ESTRUCTURA": "Canoa", "Field_1": "C47", "Label": "Canoa C47", "NOMBRE": "C47", "NORTE": 9082617.6337000001, "N_": 57, "PROGRESIVA": "107+084.09", "TRAMO": "Tramo XI" }, "geometry": { "type": "Point", "coordinates": [ -78.843146, -8.2934294, 0.0 ] } },
{ "type": "Feature", "properties": { "Name": "Canoa C48", "COD_EST": "CANAL MADRE", "ESTADO": "Bueno", "ESTE": 737664.12, "ESTRUCTURA": "Canoa", "Field_1": "C48", "Label": "Canoa C48", "NOMBRE": "C48", "NORTE": 9082818.5727999993, "N_": 58, "PROGRESIVA": "107.304.09", "TRAMO": "Tramo XI" }, "geometry": { "type": "Point", "coordinates": [ -78.8422533, -8.2916083, 0.0 ] } },
{ "type": "Feature", "properties": { "Name": "Canoa C49", "COD_EST": "CANAL MADRE", "ESTADO": "Bueno", "ESTE": 737764.7609, "ESTRUCTURA": "Canoa", "Field_1": "C49", "Label": "Canoa C49", "NOMBRE": "C49", "NORTE": 9083031.5823999997, "N_": 59, "PROGRESIVA": "107+574.09", "TRAMO": "Tramo XI" }, "geometry": { "type": "Point", "coordinates": [ -78.8413505, -8.2896779, 0.0 ] } },
{ "type": "Feature", "properties": { "Name": "Canoa C49A", "COD_EST": "CANAL MADRE", "ESTADO": "Bueno", "ESTE": 737559.0497, "ESTRUCTURA": "Canoa", "Field_1": "C49A", "Label": "Canoa C49A", "NOMBRE": "C49A", "NORTE": 9083313.9500999991, "N_": 60, "PROGRESIVA": "107+952.00", "TRAMO": "Tramo XI" }, "geometry": { "type": "Point", "coordinates": [ -78.8432312, -8.2871357, 0.0 ] } },
{ "type": "Feature", "properties": { "Name": "Canoa C50", "COD_EST": "CANAL MADRE", "ESTADO": "Bueno", "ESTE": 737532.3934, "ESTRUCTURA": "Canoa", "Field_1": "C50", "Label": "Canoa C50", "NOMBRE": "C50", "NORTE": 9083911.6712999996, "N_": 61, "PROGRESIVA": "108+594.09", "TRAMO": "Tramo XI" }, "geometry": { "type": "Point", "coordinates": [ -78.8435025, -8.2817342, 0.0 ] } },
{ "type": "Feature", "properties": { "Name": "Canoa C50A", "COD_EST": "CANAL MADRE", "ESTADO": "Bueno", "ESTE": 737099.8245, "ESTRUCTURA": "Canoa", "Field_1": "C50A", "Label": "Canoa C50A", "NOMBRE": "C50A", "NORTE": 9084345.98, "N_": 62, "PROGRESIVA": "109+265.00", "TRAMO": "Tramo XI" }, "geometry": { "type": "Point", "coordinates": [ -78.8474491, -8.2778297, 0.0 ] } },
{ "type": "Feature", "properties": { "Name": "Canoa C51", "COD_EST": "CANAL MADRE", "ESTADO": "Bueno", "ESTE": 736653.9661, "ESTRUCTURA": "Canoa", "Field_1": "C51", "Label": "Canoa C51", "NOMBRE": "C51", "NORTE": 9084938.2687, "N_": 63, "PROGRESIVA": "110+064.09", "TRAMO": "Tramo XI" }, "geometry": { "type": "Point", "coordinates": [ -78.851524, -8.2724978, 0.0 ] } },
{ "type": "Feature", "properties": { "Name": "Canoa C52", "COD_EST": "CANAL MADRE", "ESTADO": "Bueno", "ESTE": 734070.0192, "ESTRUCTURA": "Canoa", "Field_1": "C52", "Label": "Canoa C52", "NOMBRE": "C52", "NORTE": 9086508.163000001, "N_": 64, "PROGRESIVA": "113+230.53", "TRAMO": "Tramo XII" }, "geometry": { "type": "Point", "coordinates": [ -78.8750474, -8.2584326, 0.0 ] } },
{ "type": "Feature", "properties": { "Name": "Canoa C53", "COD_EST": "CANAL MADRE", "ESTADO": "Malo", "ESTE": 734037.13, "ESTRUCTURA": "Canoa", "Field_1": "C53", "Label": "Canoa C53", "NOMBRE": "C53", "NORTE": 9087448.17, "N_": 65, "PROGRESIVA": "114+302.00", "TRAMO": "Tramo XII" }, "geometry": { "type": "Point", "coordinates": [ -78.8753912, -8.2499373, 0.0 ] } },
{ "type": "Feature", "properties": { "Name": "Canoa C54", "COD_EST": "CANAL MADRE", "ESTADO": "Bueno", "ESTE": 725113.6746, "ESTRUCTURA": "Canoa", "Field_1": "C54", "Label": "Canoa C54", "NOMBRE": "C54", "NORTE": 9098030.8188000005, "N_": 66, "PROGRESIVA": "138+591.43", "TRAMO": "Tramo XII" }, "geometry": { "type": "Point", "coordinates": [ -78.9568455, -8.1548093, 0.0 ] } },
{ "type": "Feature", "properties": { "Name": "Canoa C55", "COD_EST": "CANAL MADRE", "ESTADO": "Bueno", "ESTE": 728678.0486, "ESTRUCTURA": "Canoa", "Field_1": "C55", "Label": "Canoa C55", "NOMBRE": "C55", "NORTE": 9099486.7910999991, "N_": 67, "PROGRESIVA": "143+630.91", "TRAMO": "Tramo XIII" }, "geometry": { "type": "Point", "coordinates": [ -78.9245697, -8.1414196, 0.0 ] } },
{ "type": "Feature", "properties": { "Name": "Canoa C56", "COD_EST": "CANAL MADRE", "ESTADO": "Bueno", "ESTE": 728749.7828, "ESTRUCTURA": "Canoa", "Field_1": "C56", "Label": "Canoa C56", "NOMBRE": "C56", "NORTE": 9099509.3534999993, "N_": 68, "PROGRESIVA": "143+707.41", "TRAMO": "Tramo XIII" }, "geometry": { "type": "Point", "coordinates": [ -78.92392, -8.1412123, 0.0 ] } },
{ "type": "Feature", "properties": { "Name": "Canoa C58", "COD_EST": "CANAL MADRE", "ESTADO": "Bueno", "ESTE": 730137.4829, "ESTRUCTURA": "Canoa", "Field_1": "C58", "Label": "Canoa C58", "NOMBRE": "C58", "NORTE": 9100805.9825999998, "N_": 70, "PROGRESIVA": "146+196.23", "TRAMO": "Tramo XIII" }, "geometry": { "type": "Point", "coordinates": [ -78.911406, -8.1293765, 0.0 ] } },
{ "type": "Feature", "properties": { "Name": "Canoa C59", "COD_EST": "CANAL MADRE", "ESTADO": "Bueno", "ESTE": 730098.87, "ESTRUCTURA": "Canoa", "Field_1": "C59", "Label": "Canoa C59", "NOMBRE": "C59", "NORTE": 9100822.2365000006, "N_": 71, "PROGRESIVA": "146+246.23", "TRAMO": "Tramo XIII" }, "geometry": { "type": "Point", "coordinates": [ -78.911757, -8.1292314, 0.0 ] } },
{ "type": "Feature", "properties": { "Name": "Canoa C60", "COD_EST": "CANAL MADRE", "ESTADO": "Bueno", "ESTE": 731345.6722, "ESTRUCTURA": "Canoa", "Field_1": "C60", "Label": "Canoa C60", "NOMBRE": "C60", "NORTE": 9103140.4229000006, "N_": 72, "PROGRESIVA": "149+966.75", "TRAMO": "Tramo XIII" }, "geometry": { "type": "Point", "coordinates": [ -78.9005069, -8.1082724, 0.0 ] } },
{ "type": "Feature", "properties": { "Name": "Canoa C61", "COD_EST": "CANAL MADRE", "ESTADO": "Bueno", "ESTE": 731427.9767, "ESTRUCTURA": "Canoa", "Field_1": "C61", "Label": "Canoa C61", "NOMBRE": "C61", "NORTE": 9103237.3637000006, "N_": 73, "PROGRESIVA": "150+093.75", "TRAMO": "Tramo XIII" }, "geometry": { "type": "Point", "coordinates": [ -78.8997648, -8.1073923, 0.0 ] } },
{ "type": "Feature", "properties": { "Name": "Canoa C53A", "COD_EST": "CANAL MADRE", "ESTADO": "Bueno", "ESTE": 734041.78, "ESTRUCTURA": "Canoa", "Field_1": "C53A", "Label": "Canoa C53A", "NOMBRE": "C53A", "NORTE": 9087401.65, "N_": 74, "PROGRESIVA": "114+252.00", "TRAMO": "Tramo XII" }, "geometry": { "type": "Point", "coordinates": [ -78.8753856, -8.2504589, 0.0 ] } }
]
}
