{
"type": "FeatureCollection",
"name": "Entrega no2",
"features": [
{ "type": "Feature", "properties": { "Name": "Entrega E-01", "COD_EST": "CANAL LATERAL 10", "ESTRUCTURA": "Entrega", "Field_1": "E-01", "NOMBRE": "E-01", "Nº": 1, "PROGRESIVA": "0+275.82", "TRAMO": "Tramo VII" }, "geometry": { "type": "Point", "coordinates": [ -78.7493258, -8.3872041, 0.0 ] } },
{ "type": "Feature", "properties": { "Name": "Entrega E-02", "COD_EST": "CANAL LATERAL 10", "ESTRUCTURA": "Entrega", "Field_1": "E-02", "NOMBRE": "E-02", "Nº": 2, "PROGRESIVA": "0+480.71", "TRAMO": "Tramo VII" }, "geometry": { "type": "Point", "coordinates": [ -78.7503807, -8.3863471, 0.0 ] } },
{ "type": "Feature", "properties": { "Name": "Entrega E-03", "COD_EST": "CANAL LATERAL 10", "ESTRUCTURA": "Entrega", "Field_1": "E-03", "NOMBRE": "E-03", "Nº": 3, "PROGRESIVA": "0+805.98", "TRAMO": "Tramo VII" }, "geometry": { "type": "Point", "coordinates": [ -78.7518729, -8.3847093, 0.0 ] } },
{ "type": "Feature", "properties": { "Name": "Entrega E-04", "COD_EST": "CANAL LATERAL 10", "ESTRUCTURA": "Entrega", "Field_1": "E-04", "NOMBRE": "E-04", "Nº": 4, "PROGRESIVA": "2+374.77", "TRAMO": "Tramo VII" }, "geometry": { "type": "Point", "coordinates": [ -78.7627733, -8.3858521, 0.0 ] } },
{ "type": "Feature", "properties": { "Name": "Entrega E-05", "COD_EST": "CANAL LATERAL 10", "ESTRUCTURA": "Entrega", "Field_1": "E-05", "NOMBRE": "E-05", "Nº": 5, "PROGRESIVA": "3+136.39", "TRAMO": "Tramo VIII" }, "geometry": { "type": "Point", "coordinates": [ -78.7692935, -8.3853204, 0.0 ] } },
{ "type": "Feature", "properties": { "Name": "Entrega E-06", "COD_EST": "CANAL LATERAL 10", "ESTRUCTURA": "Entrega", "Field_1": "E-06", "NOMBRE": "E-06", "Nº": 6, "PROGRESIVA": "8+050.41", "TRAMO": "Tramo IX" }, "geometry": { "type": "Point", "coordinates": [ -78.7940245, -8.3702666, 0.0 ] } }
]
}
