{
"type": "FeatureCollection",
"name": "Entrega",
"features": [
{ "type": "Feature", "properties": { "Name": "Entrega  E1", "COD_EST": "CANAL MADRE", "ESTADO": "Bueno", "ESTE": 780692.32, "ESTRUCTURA": "Entrega", "Field_1": "E1", "NOMBRE": "E1", "NORTE": 9036044.296, "N_": 1, "PROGRESIVA": "18+802.23", "TRAMO": "Tramo 0" }, "geometry": { "type": "Point", "coordinates": [ -78.4490511, -8.7119714, 0.0 ] } },
{ "type": "Feature", "properties": { "Name": "Entrega  E2", "COD_EST": "CANAL MADRE", "ESTADO": "Bueno", "ESTE": 776051.9077, "ESTRUCTURA": "Entrega", "Field_1": "E2", "NOMBRE": "E2", "NORTE": 9036095.351, "N_": 2, "PROGRESIVA": "23+682.599", "TRAMO": "Tramo 0" }, "geometry": { "type": "Point", "coordinates": [ -78.4911985, -8.7117907, 0.0 ] } },
{ "type": "Feature", "properties": { "Name": "Entrega  E3", "COD_EST": "CANAL MADRE", "ESTADO": "Bueno", "ESTE": 775844.1454, "ESTRUCTURA": "Entrega", "Field_1": "E3", "NOMBRE": "E3", "NORTE": 9036084.186000001, "N_": 3, "PROGRESIVA": "23+890.529", "TRAMO": "Tramo 0" }, "geometry": { "type": "Point", "coordinates": [ -78.4930848, -8.711904, 0.0 ] } },
{ "type": "Feature", "properties": { "Name": "Entrega  E3A", "COD_EST": "CANAL MADRE", "ESTADO": "Bueno", "ESTE": 765276.89, "ESTRUCTURA": "Entrega", "Field_1": "E3A", "NOMBRE": "E3A", "NORTE": 9041691.144, "N_": 4, "PROGRESIVA": "36+251.00", "TRAMO": "Tramo I" }, "geometry": { "type": "Point", "coordinates": [ -78.589386, -8.6618541, 0.0 ] } },
{ "type": "Feature", "properties": { "Name": "Entrega  E3B", "COD_EST": "CANAL MADRE", "ESTADO": "Bueno", "ESTE": 765220.68, "ESTRUCTURA": "Entrega", "Field_1": "E3B", "NOMBRE": "E3B", "NORTE": 9041763.568, "N_": 5, "PROGRESIVA": "36+343.00", "TRAMO": "Tramo I" }, "geometry": { "type": "Point", "coordinates": [ -78.5899006, -8.6612028, 0.0 ] } },
{ "type": "Feature", "properties": { "Name": "Entrega  E3C", "COD_EST": "CANAL MADRE", "ESTADO": "Bueno", "ESTE": 765071.91, "ESTRUCTURA": "Entrega", "Field_1": "E3C", "NOMBRE": "E3C", "NORTE": 9041944.073000001, "N_": 6, "PROGRESIVA": "36+580.00", "TRAMO": "Tramo I" }, "geometry": { "type": "Point", "coordinates": [ -78.5912621, -8.65958, 0.0 ] } },
{ "type": "Feature", "properties": { "Name": "Entrega  E3D", "COD_EST": "CANAL MADRE", "ESTADO": "Bueno", "ESTE": 764831.77, "ESTRUCTURA": "Entrega", "Field_1": "E3D", "NOMBRE": "E3D", "NORTE": 9042057.33, "N_": 7, "PROGRESIVA": "36+840.00", "TRAMO": "Tramo I" }, "geometry": { "type": "Point", "coordinates": [ -78.5934495, -8.6585702, 0.0 ] } },
{ "type": "Feature", "properties": { "Name": "Entrega  E3E", "COD_EST": "CANAL MADRE", "ESTADO": "Bueno", "ESTE": 764422.77, "ESTRUCTURA": "Entrega", "Field_1": "E3E", "NOMBRE": "E3E", "NORTE": 9042813.14, "N_": 8, "PROGRESIVA": "37+780.00", "TRAMO": "Tramo I" }, "geometry": { "type": "Point", "coordinates": [ -78.5972072, -8.6517632, 0.0 ] } },
{ "type": "Feature", "properties": { "Name": "Entrega  E3EA", "COD_EST": "CANAL MADRE", "ESTADO": "Bueno", "ESTE": 764426.48, "ESTRUCTURA": "Entrega", "Field_1": "E3EA", "NOMBRE": "E3EA", "NORTE": 9043007.17, "N_": 9, "PROGRESIVA": "37+974.00", "TRAMO": "Tramo I" }, "geometry": { "type": "Point", "coordinates": [ -78.5971846, -8.6500095, 0.0 ] } },
{ "type": "Feature", "properties": { "Name": "Entrega  E3F", "COD_EST": "CANAL MADRE", "ESTADO": "Bueno", "ESTE": 764530.32, "ESTRUCTURA": "Entrega", "Field_1": "E3F", "NOMBRE": "E3F", "NORTE": 9043458.56, "N_": 10, "PROGRESIVA": "38+445.00", "TRAMO": "Tramo II" }, "geometry": { "type": "Point", "coordinates": [ -78.5962675, -8.6459242, 0.0 ] } },
{ "type": "Feature", "properties": { "Name": "Entrega  E3G", "COD_EST": "CANAL MADRE", "ESTADO": "Bueno", "ESTE": 764526.503, "ESTRUCTURA": "Entrega", "Field_1": "E3G", "NOMBRE": "E3G", "NORTE": 9043520.271, "N_": 11, "PROGRESIVA": "38+506.00", "TRAMO": "Tramo II" }, "geometry": { "type": "Point", "coordinates": [ -78.5963057, -8.6453667, 0.0 ] } },
{ "type": "Feature", "properties": { "Name": "Entrega  E3H", "COD_EST": "CANAL MADRE", "ESTADO": "Bueno", "ESTE": 764521.78, "ESTRUCTURA": "Entrega", "Field_1": "E3H", "NOMBRE": "E3H", "NORTE": 9043618.8663999997, "N_": 12, "PROGRESIVA": "38+608.00", "TRAMO": "Tramo II" }, "geometry": { "type": "Point", "coordinates": [ -78.5963542, -8.644476, 0.0 ] } },
{ "type": "Feature", "properties": { "Name": "Entrega  E3HA", "COD_EST": "CANAL MADRE", "ESTADO": "Bueno", "ESTE": 764611.631, "ESTRUCTURA": "Entrega", "Field_1": "E3HA", "NOMBRE": "E3HA", "NORTE": 9044026.5, "N_": 13, "PROGRESIVA": "39+023.28", "TRAMO": "Tramo II" }, "geometry": { "type": "Point", "coordinates": [ -78.5955616, -8.640787, 0.0 ] } },
{ "type": "Feature", "properties": { "Name": "Entrega  E3I", "COD_EST": "CANAL MADRE", "ESTADO": "Bueno", "ESTE": 764735.7475000001, "ESTRUCTURA": "Entrega", "Field_1": "E3I", "NOMBRE": "E3I", "NORTE": 9044296.0111999996, "N_": 14, "PROGRESIVA": "39+323.22", "TRAMO": "Tramo II" }, "geometry": { "type": "Point", "coordinates": [ -78.5944499, -8.6383442, 0.0 ] } },
{ "type": "Feature", "properties": { "Name": "Entrega  E5", "COD_EST": "CANAL MADRE", "ESTADO": "Bueno", "ESTE": 764832.51, "ESTRUCTURA": "Entrega", "Field_1": "E5", "NOMBRE": "E5", "NORTE": 9045676.4, "N_": 15, "PROGRESIVA": "40+717.879", "TRAMO": "Tramo II" }, "geometry": { "type": "Point", "coordinates": [ -78.5936503, -8.6258638, 0.0 ] } },
{ "type": "Feature", "properties": { "Name": "Entrega  E6", "COD_EST": "CANAL MADRE", "ESTADO": "Bueno", "ESTE": 764555.1511, "ESTRUCTURA": "Entrega", "Field_1": "E6", "NOMBRE": "E6", "NORTE": 9046884.179, "N_": 16, "PROGRESIVA": "42+119.549", "TRAMO": "Tramo II" }, "geometry": { "type": "Point", "coordinates": [ -78.5962379, -8.6149646, 0.0 ] } },
{ "type": "Feature", "properties": { "Name": "Entrega  E7", "COD_EST": "CANAL MADRE", "ESTADO": "Bueno", "ESTE": 746320.3905, "ESTRUCTURA": "Entrega", "Field_1": "E7", "NOMBRE": "E7", "NORTE": 9072656.8637000006, "N_": 17, "PROGRESIVA": "90+116.673", "TRAMO": "Tramo VII" }, "geometry": { "type": "Point", "coordinates": [ -78.7631813, -8.3830217, 0.0 ] } },
{ "type": "Feature", "properties": { "Name": "Entrega  E8", "COD_EST": "CANAL MADRE", "ESTADO": "Bueno", "ESTE": 746261.902, "ESTRUCTURA": "Entrega", "Field_1": "E8", "NOMBRE": "E8", "NORTE": 9072726.3378999997, "N_": 18, "PROGRESIVA": "90+206.673", "TRAMO": "Tramo VII" }, "geometry": { "type": "Point", "coordinates": [ -78.7637157, -8.3823968, 0.0 ] } },
{ "type": "Feature", "properties": { "Name": "Entrega  E9", "COD_EST": "CANAL MADRE", "ESTADO": "Bueno", "ESTE": 746114.9565, "ESTRUCTURA": "Entrega", "Field_1": "E9", "NOMBRE": "E9", "NORTE": 9072783.429, "N_": 19, "PROGRESIVA": "90+376.673", "TRAMO": "Tramo VII" }, "geometry": { "type": "Point", "coordinates": [ -78.7650524, -8.3818883, 0.0 ] } },
{ "type": "Feature", "properties": { "Name": "Entrega  E10", "COD_EST": "CANAL MADRE", "ESTADO": "Bueno", "ESTE": 745978.0331, "ESTRUCTURA": "Entrega", "Field_1": "E10", "NOMBRE": "E10", "NORTE": 9072800.8943000007, "N_": 20, "PROGRESIVA": "90+514.673", "TRAMO": "Tramo VII" }, "geometry": { "type": "Point", "coordinates": [ -78.766296, -8.3817375, 0.0 ] } },
{ "type": "Feature", "properties": { "Name": "Entrega  E11", "COD_EST": "CANAL MADRE", "ESTADO": "Bueno", "ESTE": 744729.9082, "ESTRUCTURA": "Entrega", "Field_1": "E11", "NOMBRE": "E11", "NORTE": 9073249.2215999998, "N_": 21, "PROGRESIVA": "91+883.373", "TRAMO": "Tramo VIII" }, "geometry": { "type": "Point", "coordinates": [ -78.7776473, -8.3777492, 0.0 ] } },
{ "type": "Feature", "properties": { "Name": "Entrega  E12", "COD_EST": "CANAL MADRE", "ESTADO": "Bueno", "ESTE": 744624.3135, "ESTRUCTURA": "Entrega", "Field_1": "E12", "NOMBRE": "E12", "NORTE": 9073298.7693000007, "N_": 22, "PROGRESIVA": "92+003.373", "TRAMO": "Tramo VIII" }, "geometry": { "type": "Point", "coordinates": [ -78.7786082, -8.3773068, 0.0 ] } },
{ "type": "Feature", "properties": { "Name": "Entrega  E13", "COD_EST": "CANAL MADRE", "ESTADO": "Bueno", "ESTE": 743941.4426, "ESTRUCTURA": "Entrega", "Field_1": "E13", "NOMBRE": "E13", "NORTE": 9073768.0896000005, "N_": 23, "PROGRESIVA": "93+116.703", "TRAMO": "Tramo IX" }, "geometry": { "type": "Point", "coordinates": [ -78.7848301, -8.3730996, 0.0 ] } },
{ "type": "Feature", "properties": { "Name": "Entrega  E14", "COD_EST": "CANAL MADRE", "ESTADO": "Bueno", "ESTE": 743862.8804, "ESTRUCTURA": "Entrega", "Field_1": "E14", "NOMBRE": "E14", "NORTE": 9073902.9897000007, "N_": 24, "PROGRESIVA": "93+306.703", "TRAMO": "Tramo IX" }, "geometry": { "type": "Point", "coordinates": [ -78.78555, -8.3718843, 0.0 ] } },
{ "type": "Feature", "properties": { "Name": "Entrega  E15", "COD_EST": "CANAL MADRE", "ESTADO": "Bueno", "ESTE": 743715.8093, "ESTRUCTURA": "Entrega", "Field_1": "E15", "NOMBRE": "E15", "NORTE": 9074033.2259, "N_": 25, "PROGRESIVA": "93+503.703", "TRAMO": "Tramo IX" }, "geometry": { "type": "Point", "coordinates": [ -78.7868915, -8.3707146, 0.0 ] } },
{ "type": "Feature", "properties": { "Name": "Entrega  E16", "COD_EST": "CANAL MADRE", "ESTADO": "Bueno", "ESTE": 743374.5597, "ESTRUCTURA": "Entrega", "Field_1": "E16", "NOMBRE": "E16", "NORTE": 9075067.2227999996, "N_": 26, "PROGRESIVA": "94+604.763", "TRAMO": "Tramo IX" }, "geometry": { "type": "Point", "coordinates": [ -78.7900414, -8.3613861, 0.0 ] } },
{ "type": "Feature", "properties": { "Name": "Entrega  E17", "COD_EST": "CANAL MADRE", "ESTADO": "Bueno", "ESTE": 743177.7503, "ESTRUCTURA": "Entrega", "Field_1": "E17", "NOMBRE": "E17", "NORTE": 9075196.7338999994, "N_": 27, "PROGRESIVA": "94+844.763", "TRAMO": "Tramo IX" }, "geometry": { "type": "Point", "coordinates": [ -78.7918342, -8.3602255, 0.0 ] } },
{ "type": "Feature", "properties": { "Name": "Entrega  E18", "COD_EST": "CANAL MADRE", "ESTADO": "Bueno", "ESTE": 743015.2117, "ESTRUCTURA": "Entrega", "Field_1": "E18", "NOMBRE": "E18", "NORTE": 9075232.2868000008, "N_": 28, "PROGRESIVA": "95+026.823", "TRAMO": "Tramo IX" }, "geometry": { "type": "Point", "coordinates": [ -78.7933111, -8.3599123, 0.0 ] } },
{ "type": "Feature", "properties": { "Name": "Entrega  E19", "COD_EST": "CANAL MADRE", "ESTADO": "Bueno", "ESTE": 742441.2984, "ESTRUCTURA": "Entrega", "Field_1": "E19", "NOMBRE": "E19", "NORTE": 9075354.219000001, "N_": 29, "PROGRESIVA": "95+638.763", "TRAMO": "Tramo IX" }, "geometry": { "type": "Point", "coordinates": [ -78.7985261, -8.3588393, 0.0 ] } },
{ "type": "Feature", "properties": { "Name": "Entrega  E20", "COD_EST": "CANAL MADRE", "ESTADO": "Bueno", "ESTE": 738896.4088, "ESTRUCTURA": "Entrega", "Field_1": "E20", "NOMBRE": "E20", "NORTE": 9077300.4752999991, "N_": 30, "PROGRESIVA": "100+676.613", "TRAMO": "Tramo IX" }, "geometry": { "type": "Point", "coordinates": [ -78.8307965, -8.3414251, 0.0 ] } },
{ "type": "Feature", "properties": { "Name": "Entrega  E21", "COD_EST": "CANAL MADRE", "ESTADO": "Bueno", "ESTE": 738501.3394000001, "ESTRUCTURA": "Entrega", "Field_1": "E21", "NOMBRE": "E21", "NORTE": 9078052.253, "N_": 31, "PROGRESIVA": "101+171.613", "TRAMO": "Tramo X" }, "geometry": { "type": "Point", "coordinates": [ -78.8344194, -8.3346494, 0.0 ] } },
{ "type": "Feature", "properties": { "Name": "Entrega  E22", "COD_EST": "CANAL MADRE", "ESTADO": "Bueno", "ESTE": 738381.5574, "ESTRUCTURA": "Entrega", "Field_1": "E22", "NOMBRE": "E22", "NORTE": 9078122.9551999997, "N_": 32, "PROGRESIVA": "101+339.613", "TRAMO": "Tramo X" }, "geometry": { "type": "Point", "coordinates": [ -78.83551, -8.3340163, 0.0 ] } },
{ "type": "Feature", "properties": { "Name": "Entrega  E23", "COD_EST": "CANAL MADRE", "ESTADO": "Bueno", "ESTE": 737271.4098, "ESTRUCTURA": "Entrega", "Field_1": "E23", "NOMBRE": "E23", "NORTE": 9080703.8647000007, "N_": 33, "PROGRESIVA": "104+735.123", "TRAMO": "Tramo X" }, "geometry": { "type": "Point", "coordinates": [ -78.8457127, -8.3107423, 0.0 ] } },
{ "type": "Feature", "properties": { "Name": "Entrega  E24", "COD_EST": "CANAL MADRE", "ESTADO": "Bueno", "ESTE": 737113.4631000001, "ESTRUCTURA": "Entrega", "Field_1": "E24", "NOMBRE": "E24", "NORTE": 9080860.7202000003, "N_": 34, "PROGRESIVA": "104+973.123", "TRAMO": "Tramo X" }, "geometry": { "type": "Point", "coordinates": [ -78.8471538, -8.3093323, 0.0 ] } },
{ "type": "Feature", "properties": { "Name": "Entrega  E25", "COD_EST": "CANAL MADRE", "ESTADO": "Bueno", "ESTE": 737597.0944, "ESTRUCTURA": "Entrega", "Field_1": "E25", "NOMBRE": "E25", "NORTE": 9082309.0571, "N_": 35, "PROGRESIVA": "106+776.093", "TRAMO": "Tramo XI" }, "geometry": { "type": "Point", "coordinates": [ -78.8428364, -8.296217, 0.0 ] } },
{ "type": "Feature", "properties": { "Name": "Entrega  E25A", "COD_EST": "CANAL MADRE", "ESTADO": "Bueno", "ESTE": 737797.51, "ESTRUCTURA": "Entrega", "Field_1": "E25A", "NOMBRE": "E25A", "NORTE": 9083004.703, "N_": 36, "PROGRESIVA": "107+540.00", "TRAMO": "Tramo XI" }, "geometry": { "type": "Point", "coordinates": [ -78.8411197, -8.2899395, 0.0 ] } },
{ "type": "Feature", "properties": { "Name": "Entrega  E25B", "COD_EST": "CANAL MADRE", "ESTADO": "Bueno", "ESTE": 737614.665, "ESTRUCTURA": "Entrega", "Field_1": "E25B", "NOMBRE": "E25B", "NORTE": 9083785.1, "N_": 37, "PROGRESIVA": "108+435.16", "TRAMO": "Tramo XI" }, "geometry": { "type": "Point", "coordinates": [ -78.8427497, -8.2828743, 0.0 ] } },
{ "type": "Feature", "properties": { "Name": "Entrega  E25C", "COD_EST": "CANAL MADRE", "ESTADO": "Bueno", "ESTE": 736811.953, "ESTRUCTURA": "Entrega", "Field_1": "E25C", "NOMBRE": "E25C", "NORTE": 9084526.164000001, "N_": 38, "PROGRESIVA": "109+614.92", "TRAMO": "Tramo XI" }, "geometry": { "type": "Point", "coordinates": [ -78.8500702, -8.2762151, 0.0 ] } },
{ "type": "Feature", "properties": { "Name": "Entrega  E25D", "COD_EST": "CANAL MADRE", "ESTADO": "Bueno", "ESTE": 734000.62, "ESTRUCTURA": "Entrega", "Field_1": "E25D", "NOMBRE": "E25D", "NORTE": 9086596.8, "N_": 39, "PROGRESIVA": "113+342.00", "TRAMO": "Tramo XII" }, "geometry": { "type": "Point", "coordinates": [ -78.8756814, -8.2576347, 0.0 ] } },
{ "type": "Feature", "properties": { "Name": "Entrega  E25E", "COD_EST": "CANAL MADRE", "ESTADO": "Bueno", "ESTE": 733928.821, "ESTRUCTURA": "Entrega", "Field_1": "E25E", "NOMBRE": "E25E", "NORTE": 9087087.04, "N_": 40, "PROGRESIVA": "113+906.00", "TRAMO": "Tramo XII" }, "geometry": { "type": "Point", "coordinates": [ -78.8763566, -8.2532068, 0.0 ] } },
{ "type": "Feature", "properties": { "Name": "Entrega  E25F", "COD_EST": "CANAL MADRE", "ESTADO": "Bueno", "ESTE": 733961.158, "ESTRUCTURA": "Entrega", "Field_1": "E25F", "NOMBRE": "E25F", "NORTE": 9087173.654, "N_": 41, "PROGRESIVA": "113+999.00", "TRAMO": "Tramo XII" }, "geometry": { "type": "Point", "coordinates": [ -78.8760673, -8.2524224, 0.0 ] } },
{ "type": "Feature", "properties": { "Name": "Entrega  E26", "COD_EST": "CANAL MADRE", "ESTADO": "Bueno", "ESTE": 732286.021, "ESTRUCTURA": "Entrega", "Field_1": "E26", "NOMBRE": "E26", "NORTE": 9088590.873, "N_": 42, "PROGRESIVA": "116+700.00", "TRAMO": "Tramo XII" }, "geometry": { "type": "Point", "coordinates": [ -78.8913353, -8.239692, 0.0 ] } },
{ "type": "Feature", "properties": { "Name": "Entrega  E26A", "COD_EST": "CANAL MADRE", "ESTADO": "Bueno", "ESTE": 731687.471, "ESTRUCTURA": "Entrega", "Field_1": "E26A", "NOMBRE": "E26A", "NORTE": 9088604.66, "N_": 43, "PROGRESIVA": "117+388.93", "TRAMO": "Tramo XII" }, "geometry": { "type": "Point", "coordinates": [ -78.896767, -8.2395959, 0.0 ] } },
{ "type": "Feature", "properties": { "Name": "Entrega  E26B", "COD_EST": "CANAL MADRE", "ESTADO": "Bueno", "ESTE": 731078.0, "ESTRUCTURA": "Entrega", "Field_1": "E26B", "NOMBRE": "E26B", "NORTE": 9088646.0, "N_": 44, "PROGRESIVA": "118+583.23", "TRAMO": "Tramo XII" }, "geometry": { "type": "Point", "coordinates": [ -78.9022991, -8.2392512, 0.0 ] } },
{ "type": "Feature", "properties": { "Name": "Entrega  E27", "COD_EST": "CANAL MADRE", "ESTADO": "Bueno", "ESTE": 724825.1578, "ESTRUCTURA": "Entrega", "Field_1": "E27", "NOMBRE": "E27", "NORTE": 9097799.8016999997, "N_": 45, "PROGRESIVA": "138+086.433", "TRAMO": "Tramo XII" }, "geometry": { "type": "Point", "coordinates": [ -78.9594588, -8.1567963, 0.0 ] } },
{ "type": "Feature", "properties": { "Name": "Entrega  E28", "COD_EST": "CANAL MADRE", "ESTADO": "Bueno", "ESTE": 725223.7464, "ESTRUCTURA": "Entrega", "Field_1": "E28", "NOMBRE": "E28", "NORTE": 9098081.2415999994, "N_": 46, "PROGRESIVA": "138+719.433", "TRAMO": "Tramo XII" }, "geometry": { "type": "Point", "coordinates": [ -78.9558556, -8.154234, 0.0 ] } },
{ "type": "Feature", "properties": { "Name": "Entrega  E29", "COD_EST": "CANAL MADRE", "ESTADO": "Bueno", "ESTE": 725393.0269000001, "ESTRUCTURA": "Entrega", "Field_1": "E29", "NOMBRE": "E29", "NORTE": 9098340.9434999991, "N_": 47, "PROGRESIVA": "139+069.433", "TRAMO": "Tramo XII" }, "geometry": { "type": "Point", "coordinates": [ -78.9543318, -8.1518786, 0.0 ] } },
{ "type": "Feature", "properties": { "Name": "Entrega  E30", "COD_EST": "CANAL MADRE", "ESTADO": "Bueno", "ESTE": 725469.9047, "ESTRUCTURA": "Entrega", "Field_1": "E30", "NOMBRE": "E30", "NORTE": 9098453.2208999991, "N_": 48, "PROGRESIVA": "139+211.433", "TRAMO": "Tramo XII" }, "geometry": { "type": "Point", "coordinates": [ -78.9536396, -8.1508601, 0.0 ] } },
{ "type": "Feature", "properties": { "Name": "Entrega  E31", "COD_EST": "CANAL MADRE", "ESTADO": "Bueno", "ESTE": 726160.6946, "ESTRUCTURA": "Entrega", "Field_1": "E31", "NOMBRE": "E31", "NORTE": 9099190.3292999994, "N_": 49, "PROGRESIVA": "140+464.353", "TRAMO": "Tramo XII" }, "geometry": { "type": "Point", "coordinates": [ -78.9474067, -8.1441652, 0.0 ] } },
{ "type": "Feature", "properties": { "Name": "Entrega  E32", "COD_EST": "CANAL MADRE", "ESTADO": "Bueno", "ESTE": 728780.835, "ESTRUCTURA": "Entrega", "Field_1": "E32", "NOMBRE": "E32", "NORTE": 9099517.8480999991, "N_": 50, "PROGRESIVA": "143+740.413", "TRAMO": "Tramo XIII" }, "geometry": { "type": "Point", "coordinates": [ -78.9236526, -8.1410837, 0.0 ] } },
{ "type": "Feature", "properties": { "Name": "Entrega  E33", "COD_EST": "CANAL MADRE", "ESTADO": "Bueno", "ESTE": 729099.5972, "ESTRUCTURA": "Entrega", "Field_1": "E33", "NOMBRE": "E33", "NORTE": 9099740.8088000007, "N_": 51, "PROGRESIVA": "144+185.413", "TRAMO": "Tramo XIII" }, "geometry": { "type": "Point", "coordinates": [ -78.9207713, -8.1390534, 0.0 ] } },
{ "type": "Feature", "properties": { "Name": "Entrega  E34", "COD_EST": "CANAL MADRE", "ESTADO": "Bueno", "ESTE": 729207.2264, "ESTRUCTURA": "Entrega", "Field_1": "E34", "NOMBRE": "E34", "NORTE": 9099747.6108, "N_": 52, "PROGRESIVA": "144+293..413", "TRAMO": "Tramo XIII" }, "geometry": { "type": "Point", "coordinates": [ -78.9197953, -8.1389869, 0.0 ] } },
{ "type": "Feature", "properties": { "Name": "Entrega  E34A", "COD_EST": "CANAL MADRE", "ESTADO": "Bueno", "ESTE": 729254.776, "ESTRUCTURA": "Entrega", "Field_1": "E34A", "NOMBRE": "E34A", "NORTE": 9099749.385, "N_": 53, "PROGRESIVA": "144+355.00", "TRAMO": "Tramo XIII" }, "geometry": { "type": "Point", "coordinates": [ -78.919364, -8.1389687, 0.0 ] } },
{ "type": "Feature", "properties": { "Name": "Entrega  A34B", "COD_EST": "CANAL MADRE", "ESTADO": "Bueno", "ESTE": 729855.556, "ESTRUCTURA": "Entrega", "Field_1": "A34B", "NOMBRE": "A34B", "NORTE": 9100346.605, "N_": 54, "PROGRESIVA": "145+610.00", "TRAMO": "Tramo XIII" }, "geometry": { "type": "Point", "coordinates": [ -78.913942, -8.1335422, 0.0 ] } },
{ "type": "Feature", "properties": { "Name": "Entrega  E34C", "COD_EST": "CANAL MADRE", "ESTADO": "Bueno", "ESTE": 731081.327, "ESTRUCTURA": "Entrega", "Field_1": "E34C", "NOMBRE": "E34C", "NORTE": 9102987.9801000003, "N_": 55, "PROGRESIVA": "149+623.000", "TRAMO": "Tramo XIII" }, "geometry": { "type": "Point", "coordinates": [ -78.9029465, -8.1096085, 0.0 ] } },
{ "type": "Feature", "properties": { "Name": "Entrega  E34D", "COD_EST": "CANAL MADRE", "ESTADO": "Bueno", "ESTE": 731507.86, "ESTRUCTURA": "Entrega", "Field_1": "E34D", "NOMBRE": "E34D", "NORTE": 9103390.02, "N_": 56, "PROGRESIVA": "150+220.00", "TRAMO": "Tramo XIII" }, "geometry": { "type": "Point", "coordinates": [ -78.8990964, -8.1059543, 0.0 ] } },
{ "type": "Feature", "properties": { "Name": "Entrega  A34E", "COD_EST": "CANAL MADRE", "ESTADO": "Bueno", "ESTE": 731538.763, "ESTRUCTURA": "Entrega", "Field_1": "A34E", "NOMBRE": "A34E", "NORTE": 9103483.371, "N_": 57, "PROGRESIVA": "150+371.00", "TRAMO": "Tramo XIII" }, "geometry": { "type": "Point", "coordinates": [ -78.8988204, -8.105109, 0.0 ] } },
{ "type": "Feature", "properties": { "Name": "Entrega  A34F", "COD_EST": "CANAL MADRE", "ESTADO": "Bueno", "ESTE": 731334.831, "ESTRUCTURA": "Entrega", "Field_1": "A34F", "NOMBRE": "A34F", "NORTE": 9103994.983, "N_": 58, "PROGRESIVA": "151+082.00", "TRAMO": "Tramo XIII" }, "geometry": { "type": "Point", "coordinates": [ -78.9006942, -8.1004939, 0.0 ] } },
{ "type": "Feature", "properties": { "Name": "Entrega  A34G", "COD_EST": "CANAL MADRE", "ESTADO": "Bueno", "ESTE": 731432.0, "ESTRUCTURA": "Entrega", "Field_1": "A34G", "NOMBRE": "A34G", "NORTE": 9104150.0, "N_": 59, "PROGRESIVA": "151+273.00", "TRAMO": "Tramo XIII" }, "geometry": { "type": "Point", "coordinates": [ -78.8998201, -8.0990881, 0.0 ] } },
{ "type": "Feature", "properties": { "Name": "Entrega  E35", "COD_EST": "CANAL MADRE", "ESTADO": "Bueno", "ESTE": 733062.5949, "ESTRUCTURA": "Entrega", "Field_1": "E35", "NOMBRE": "E35", "NORTE": 9104937.0897000004, "N_": 60, "PROGRESIVA": "153+403.103", "TRAMO": "Tramo XIII" }, "geometry": { "type": "Point", "coordinates": [ -78.8850669, -8.0918969, 0.0 ] } },
{ "type": "Feature", "properties": { "Name": "Entrega  E36", "COD_EST": "CANAL MADRE", "ESTADO": "Bueno", "ESTE": 733160.52, "ESTRUCTURA": "Entrega", "Field_1": "E36", "NOMBRE": "E36", "NORTE": 9104901.68, "N_": 61, "PROGRESIVA": "153+513.103", "TRAMO": "Tramo XIII" }, "geometry": { "type": "Point", "coordinates": [ -78.884177, -8.0922124, 0.0 ] } },
{ "type": "Feature", "properties": { "Name": "Entrega  E36A", "COD_EST": "CANAL MADRE", "ESTADO": "Bueno", "ESTE": 733513.7882, "ESTRUCTURA": "Entrega", "Field_1": "E36A", "NOMBRE": "E36A", "NORTE": 9105114.9123999998, "N_": 62, "PROGRESIVA": "153+948.000", "TRAMO": "Tramo XIII" }, "geometry": { "type": "Point", "coordinates": [ -78.8809829, -8.0902683, 0.0 ] } },
{ "type": "Feature", "properties": { "Name": "Entrega  E37", "COD_EST": "CANAL MADRE", "ESTADO": "Bueno", "ESTE": 733572.1273000001, "ESTRUCTURA": "Entrega", "Field_1": "E37", "NOMBRE": "E37", "NORTE": 9105178.894, "N_": 63, "PROGRESIVA": "154+028.103", "TRAMO": "Tramo XIII" }, "geometry": { "type": "Point", "coordinates": [ -78.8804567, -8.0896872, 0.0 ] } },
{ "type": "Feature", "properties": { "Name": "Entrega  E38", "COD_EST": "CANAL MADRE", "ESTADO": "Bueno", "ESTE": 733811.4085, "ESTRUCTURA": "Entrega", "Field_1": "E38", "NOMBRE": "E38", "NORTE": 9105271.3329000007, "N_": 64, "PROGRESIVA": "154+287.203", "TRAMO": "Tramo XIII" }, "geometry": { "type": "Point", "coordinates": [ -78.8782908, -8.0888404, 0.0 ] } }
]
}
