{
"type": "FeatureCollection",
"name": "Estacion Control",
"features": [
{ "type": "Feature", "properties": { "Name": "Estacion Agonia", "COD_EST": "CANAL MADRE", "ESTADO": "Bueno", "ESTE": 763697, "ESTRUCTURA": "Estación Control", "Field_1": "Estacion Agonia", "NOMBRE": "Estacion Agonia", "NORTE": 9052543, "N_": 1, "PROGRESIVA": "48+411.00", "TRAMO": "Tramo III" }, "geometry": { "type": "Point", "coordinates": [ -78.6043515, -8.5638726, 0.0 ] } },
{ "type": "Feature", "properties": { "Name": "Estacion Chorobal", "COD_EST": "CANAL MADRE", "ESTADO": "Bueno", "ESTE": 764869, "ESTRUCTURA": "Estación Control", "Field_1": "Estacion Chorobal", "NOMBRE": "Estacion Chorobal", "NORTE": 9062894, "N_": 2, "PROGRESIVA": "64+863.29", "TRAMO": "Tramo V" }, "geometry": { "type": "Point", "coordinates": [ -78.5942953, -8.4702615, 0.0 ] } },
{ "type": "Feature", "properties": { "Name": "Estación Cámara de Carga", "COD_EST": "CANAL MADRE", "ESTADO": "Bueno", "ESTE": 751263, "ESTRUCTURA": "Estación Control", "Field_1": "Estación Cámara de Carga", "NOMBRE": "Estación Cámara de Carga", "NORTE": 9069212, "N_": 3, "PROGRESIVA": "83+552.05", "TRAMO": "Tramo VI" }, "geometry": { "type": "Point", "coordinates": [ -78.7181399, -8.4139, 0.0 ] } },
{ "type": "Feature", "properties": { "Name": "Estacion Rinconada", "COD_EST": "CANAL MADRE", "ESTADO": "Bueno", "ESTE": 731471, "ESTRUCTURA": "Estación Control", "Field_1": "Estacion Rinconada", "NOMBRE": "Estacion Rinconada", "NORTE": 9089021, "N_": 4, "PROGRESIVA": "118+037.28", "TRAMO": "Tramo XII" }, "geometry": { "type": "Point", "coordinates": [ -78.898751, -8.2358428, 0.0 ] } },
{ "type": "Feature", "properties": { "Name": "Estacion Salaverry", "COD_EST": "CANAL MADRE", "ESTADO": "Bueno", "ESTE": 725020, "ESTRUCTURA": "Estación Control", "Field_1": "Estacion Salaverry", "NOMBRE": "Estacion Salaverry", "NORTE": 9089934, "N_": 5, "PROGRESIVA": "127+146.73", "TRAMO": "Tramo XII" }, "geometry": { "type": "Point", "coordinates": [ -78.9573284, -8.2278918, 0.0 ] } },
{ "type": "Feature", "properties": { "Name": "Estacion Moche", "COD_EST": "CANAL MADRE", "ESTADO": "Bueno", "ESTE": 734233, "ESTRUCTURA": "Estación Control", "Field_1": "Estacion Moche", "NOMBRE": "Estacion Moche", "NORTE": 9105809, "N_": 6, "PROGRESIVA": "155+086.63", "TRAMO": "Tramo XIII" }, "geometry": { "type": "Point", "coordinates": [ -78.8744923, -8.0839604, 0.0 ] } }
]
}
