{
"type": "FeatureCollection",
"name": "Evacuador",
"features": [
{ "type": "Feature", "properties": { "Name": "EVACUADOR TRAMO X 0 - 0+200", "COD_EST": "CANAL LATERAL 10", "EMPRESA": "JURP", "ESTRUCTURA": "CANAL", "FID": 0, "Field_1": "EVACUADOR TRAMO X", "NOMBRE": "EVACUADOR TRAMO X", "PROGRESIVA": "0 - 0+200", "TRAMO": "TRAMO X" }, "geometry": { "type": "Polygon", "coordinates": [ [ [ -78.8551123, -8.3508533, 0.0 ], [ -78.8550833, -8.3508369, 0.0 ], [ -78.8550477, -8.3508218, 0.0 ], [ -78.8540379, -8.3504639, 0.0 ], [ -78.8540302, -8.3504609, 0.0 ], [ -78.8540253, -8.3504589, 0.0 ], [ -78.8540083, -8.3504508, 0.0 ], [ -78.8540036, -8.3504483, 0.0 ], [ -78.8539971, -8.3504445, 0.0 ], [ -78.8538987, -8.3503845, 0.0 ], [ -78.8538891, -8.3503782, 0.0 ], [ -78.8538838, -8.3503745, 0.0 ], [ -78.8538709, -8.3503645, 0.0 ], [ -78.8538658, -8.35036, 0.0 ], [ -78.853861, -8.3503557, 0.0 ], [ -78.8538527, -8.3503476, 0.0 ], [ -78.8538196, -8.3503133, 0.0 ], [ -78.853504, -8.3500532, 0.0 ], [ -78.8537355, -8.3497746, 0.0 ], [ -78.8540599, -8.350042, 0.0 ], [ -78.8540741, -8.3500553, 0.0 ], [ -78.8541028, -8.350085, 0.0 ], [ -78.8541736, -8.3501282, 0.0 ], [ -78.8551755, -8.3504834, 0.0 ], [ -78.8551844, -8.3504868, 0.0 ], [ -78.8552347, -8.350508, 0.0 ], [ -78.8552538, -8.3505174, 0.0 ], [ -78.8553021, -8.3505449, 0.0 ], [ -78.8553191, -8.3505559, 0.0 ], [ -78.855331, -8.3505647, 0.0 ], [ -78.8551157, -8.3508558, 0.0 ], [ -78.8551123, -8.3508533, 0.0 ] ] ] } },
{ "type": "Feature", "properties": { "Name": "EVACUADOR TRAMO X 7+200 - 7+334", "COD_EST": "CANAL LATERAL 10", "EMPRESA": "JURP", "ESTRUCTURA": "CANAL", "FID": 1, "Field_1": "EVACUADOR TRAMO X", "NOMBRE": "EVACUADOR TRAMO X", "PROGRESIVA": "7+200 - 7+334", "TRAMO": "TRAMO X" }, "geometry": { "type": "Polygon", "coordinates": [ [ [ -78.8950065, -8.395825, 0.0 ], [ -78.8962225, -8.3957305, 0.0 ], [ -78.8962508, -8.396091, 0.0 ], [ -78.8950347, -8.3961855, 0.0 ], [ -78.8950065, -8.395825, 0.0 ] ] ] } },
{ "type": "Feature", "properties": { "Name": "EVACUADOR TRAMO X 7+000 - 7+200", "COD_EST": "CANAL LATERAL 10", "EMPRESA": "JURP", "ESTRUCTURA": "CANAL", "FID": 2, "Field_1": "EVACUADOR TRAMO X", "NOMBRE": "EVACUADOR TRAMO X", "PROGRESIVA": "7+000 - 7+200", "TRAMO": "TRAMO X" }, "geometry": { "type": "Polygon", "coordinates": [ [ [ -78.8937288, -8.3958562, 0.0 ], [ -78.8936738, -8.395824, 0.0 ], [ -78.8933071, -8.3956293, 0.0 ], [ -78.893478, -8.3953103, 0.0 ], [ -78.8938479, -8.3955067, 0.0 ], [ -78.8938543, -8.3955103, 0.0 ], [ -78.8939192, -8.3955483, 0.0 ], [ -78.8939318, -8.3955564, 0.0 ], [ -78.8939932, -8.3955994, 0.0 ], [ -78.8940051, -8.3956086, 0.0 ], [ -78.8940631, -8.3956569, 0.0 ], [ -78.8940738, -8.3956666, 0.0 ], [ -78.8941272, -8.3957191, 0.0 ], [ -78.8941324, -8.3957245, 0.0 ], [ -78.8942156, -8.3958134, 0.0 ], [ -78.8942368, -8.3958333, 0.0 ], [ -78.8942556, -8.3958469, 0.0 ], [ -78.894276, -8.395858, 0.0 ], [ -78.8942976, -8.3958664, 0.0 ], [ -78.8943202, -8.395872, 0.0 ], [ -78.8943433, -8.3958746, 0.0 ], [ -78.8943723, -8.3958743, 0.0 ], [ -78.8950065, -8.395825, 0.0 ], [ -78.8950347, -8.3961855, 0.0 ], [ -78.8943948, -8.3962352, 0.0 ], [ -78.8943831, -8.3962357, 0.0 ], [ -78.8943348, -8.3962364, 0.0 ], [ -78.8943133, -8.3962352, 0.0 ], [ -78.894267, -8.3962299, 0.0 ], [ -78.8942553, -8.3962281, 0.0 ], [ -78.8942441, -8.3962257, 0.0 ], [ -78.8941989, -8.3962146, 0.0 ], [ -78.8941781, -8.3962081, 0.0 ], [ -78.8941333, -8.3961907, 0.0 ], [ -78.8941122, -8.3961809, 0.0 ], [ -78.8940713, -8.3961587, 0.0 ], [ -78.8940667, -8.3961561, 0.0 ], [ -78.8940516, -8.3961463, 0.0 ], [ -78.8940139, -8.396119, 0.0 ], [ -78.8940032, -8.3961106, 0.0 ], [ -78.893996, -8.3961042, 0.0 ], [ -78.8939621, -8.3960724, 0.0 ], [ -78.8939539, -8.3960641, 0.0 ], [ -78.8938693, -8.3959737, 0.0 ], [ -78.8938239, -8.395929, 0.0 ], [ -78.8937778, -8.3958907, 0.0 ], [ -78.8937288, -8.3958562, 0.0 ] ] ] } },
{ "type": "Feature", "properties": { "Name": "EVACUADOR TRAMO X 6+800 - 7+000", "COD_EST": "CANAL LATERAL 10", "EMPRESA": "JURP", "ESTRUCTURA": "CANAL", "FID": 3, "Field_1": "EVACUADOR TRAMO X", "NOMBRE": "EVACUADOR TRAMO X", "PROGRESIVA": "6+800 - 7+000", "TRAMO": "TRAMO X" }, "geometry": { "type": "Polygon", "coordinates": [ [ [ -78.8925363, -8.39522, 0.0 ], [ -78.8925298, -8.3952163, 0.0 ], [ -78.8924618, -8.3951763, 0.0 ], [ -78.8924486, -8.3951678, 0.0 ], [ -78.8923846, -8.3951223, 0.0 ], [ -78.8923724, -8.3951129, 0.0 ], [ -78.8923124, -8.3950619, 0.0 ], [ -78.8923009, -8.3950512, 0.0 ], [ -78.8922457, -8.3949954, 0.0 ], [ -78.8922353, -8.3949839, 0.0 ], [ -78.8921851, -8.3949234, 0.0 ], [ -78.8921756, -8.3949109, 0.0 ], [ -78.8921309, -8.3948465, 0.0 ], [ -78.8921226, -8.3948333, 0.0 ], [ -78.8920837, -8.3947652, 0.0 ], [ -78.8920765, -8.3947513, 0.0 ], [ -78.8920436, -8.3946802, 0.0 ], [ -78.8920405, -8.394673, 0.0 ], [ -78.8919221, -8.3943845, 0.0 ], [ -78.8922583, -8.3942477, 0.0 ], [ -78.8923751, -8.3945327, 0.0 ], [ -78.8924031, -8.3945931, 0.0 ], [ -78.8924342, -8.3946475, 0.0 ], [ -78.8924699, -8.394699, 0.0 ], [ -78.89251, -8.3947473, 0.0 ], [ -78.8925541, -8.3947919, 0.0 ], [ -78.8926019, -8.3948326, 0.0 ], [ -78.8926531, -8.3948689, 0.0 ], [ -78.8927107, -8.3949028, 0.0 ], [ -78.893478, -8.3953103, 0.0 ], [ -78.8933071, -8.3956293, 0.0 ], [ -78.8925363, -8.39522, 0.0 ] ] ] } },
{ "type": "Feature", "properties": { "Name": "EVACUADOR TRAMO X 6+600 - 6+800", "COD_EST": "CANAL LATERAL 10", "EMPRESA": "JURP", "ESTRUCTURA": "CANAL", "FID": 4, "Field_1": "EVACUADOR TRAMO X", "NOMBRE": "EVACUADOR TRAMO X", "PROGRESIVA": "6+600 - 6+800", "TRAMO": "TRAMO X" }, "geometry": { "type": "Polygon", "coordinates": [ [ [ -78.891671, -8.3937721, 0.0 ], [ -78.8916382, -8.3936979, 0.0 ], [ -78.8916025, -8.3936278, 0.0 ], [ -78.891563, -8.3935598, 0.0 ], [ -78.8915186, -8.3934919, 0.0 ], [ -78.8910685, -8.392844, 0.0 ], [ -78.8913671, -8.3926383, 0.0 ], [ -78.8918186, -8.3932882, 0.0 ], [ -78.8918213, -8.3932923, 0.0 ], [ -78.8918699, -8.3933664, 0.0 ], [ -78.891875, -8.3933747, 0.0 ], [ -78.8919197, -8.3934517, 0.0 ], [ -78.8919241, -8.3934599, 0.0 ], [ -78.8919643, -8.3935388, 0.0 ], [ -78.8919685, -8.3935477, 0.0 ], [ -78.8920043, -8.3936286, 0.0 ], [ -78.8920062, -8.3936331, 0.0 ], [ -78.8922583, -8.3942477, 0.0 ], [ -78.8919221, -8.3943845, 0.0 ], [ -78.891671, -8.3937721, 0.0 ] ] ] } },
{ "type": "Feature", "properties": { "Name": "EVACUADOR TRAMO X 6+400 - 6+600", "COD_EST": "CANAL LATERAL 10", "EMPRESA": "JURP", "ESTRUCTURA": "CANAL", "FID": 5, "Field_1": "EVACUADOR TRAMO X", "NOMBRE": "EVACUADOR TRAMO X", "PROGRESIVA": "6+400 - 6+600", "TRAMO": "TRAMO X" }, "geometry": { "type": "Polygon", "coordinates": [ [ [ -78.8906457, -8.3922352, 0.0 ], [ -78.8906016, -8.3921747, 0.0 ], [ -78.8905548, -8.3921161, 0.0 ], [ -78.8899751, -8.3914232, 0.0 ], [ -78.8902541, -8.3911918, 0.0 ], [ -78.8908352, -8.3918864, 0.0 ], [ -78.8908376, -8.3918894, 0.0 ], [ -78.8908882, -8.3919527, 0.0 ], [ -78.8908931, -8.3919591, 0.0 ], [ -78.8909408, -8.3920246, 0.0 ], [ -78.8909431, -8.3920279, 0.0 ], [ -78.8913671, -8.3926383, 0.0 ], [ -78.8910685, -8.392844, 0.0 ], [ -78.8906457, -8.3922352, 0.0 ] ] ] } },
{ "type": "Feature", "properties": { "Name": "EVACUADOR TRAMO X 6+200 - 6+400", "COD_EST": "CANAL LATERAL 10", "EMPRESA": "JURP", "ESTRUCTURA": "CANAL", "FID": 6, "Field_1": "EVACUADOR TRAMO X", "NOMBRE": "EVACUADOR TRAMO X", "PROGRESIVA": "6+200 - 6+400", "TRAMO": "TRAMO X" }, "geometry": { "type": "Polygon", "coordinates": [ [ [ -78.8893022, -8.3906188, 0.0 ], [ -78.889278, -8.390593, 0.0 ], [ -78.889255, -8.3905733, 0.0 ], [ -78.8892299, -8.3905563, 0.0 ], [ -78.889203, -8.3905422, 0.0 ], [ -78.8891748, -8.3905312, 0.0 ], [ -78.8891455, -8.3905234, 0.0 ], [ -78.8891104, -8.3905181, 0.0 ], [ -78.8887127, -8.3904804, 0.0 ], [ -78.8887471, -8.3901204, 0.0 ], [ -78.8891499, -8.3901586, 0.0 ], [ -78.8891599, -8.3901598, 0.0 ], [ -78.88921, -8.3901674, 0.0 ], [ -78.8892152, -8.3901683, 0.0 ], [ -78.8892298, -8.3901715, 0.0 ], [ -78.8892787, -8.3901846, 0.0 ], [ -78.8892963, -8.3901903, 0.0 ], [ -78.8893451, -8.3902093, 0.0 ], [ -78.8893635, -8.3902177, 0.0 ], [ -78.8894083, -8.3902413, 0.0 ], [ -78.8894152, -8.3902451, 0.0 ], [ -78.8894256, -8.3902516, 0.0 ], [ -78.8894675, -8.39028, 0.0 ], [ -78.8894832, -8.3902919, 0.0 ], [ -78.889522, -8.3903251, 0.0 ], [ -78.8895367, -8.390339, 0.0 ], [ -78.8895712, -8.3903759, 0.0 ], [ -78.8895779, -8.3903835, 0.0 ], [ -78.8902541, -8.3911918, 0.0 ], [ -78.8899751, -8.3914232, 0.0 ], [ -78.8893022, -8.3906188, 0.0 ] ] ] } },
{ "type": "Feature", "properties": { "Name": "EVACUADOR TRAMO X 6+000 - 6+200", "COD_EST": "CANAL LATERAL 10", "EMPRESA": "JURP", "ESTRUCTURA": "CANAL", "FID": 7, "Field_1": "EVACUADOR TRAMO X", "NOMBRE": "EVACUADOR TRAMO X", "PROGRESIVA": "6+000 - 6+200", "TRAMO": "TRAMO X" }, "geometry": { "type": "Polygon", "coordinates": [ [ [ -78.8884866, -8.390459, 0.0 ], [ -78.8884764, -8.3904577, 0.0 ], [ -78.8884152, -8.3904484, 0.0 ], [ -78.8884101, -8.3904476, 0.0 ], [ -78.888395, -8.3904442, 0.0 ], [ -78.8883353, -8.390428, 0.0 ], [ -78.8883199, -8.3904231, 0.0 ], [ -78.8883158, -8.3904215, 0.0 ], [ -78.8882583, -8.3903987, 0.0 ], [ -78.8882396, -8.3903901, 0.0 ], [ -78.8881851, -8.3903609, 0.0 ], [ -78.8881794, -8.3903577, 0.0 ], [ -78.8881675, -8.3903502, 0.0 ], [ -78.8881167, -8.3903151, 0.0 ], [ -78.8881016, -8.3903035, 0.0 ], [ -78.8880539, -8.3902619, 0.0 ], [ -78.8880464, -8.3902549, 0.0 ], [ -78.8878296, -8.3900428, 0.0 ], [ -78.887793, -8.3900103, 0.0 ], [ -78.887757, -8.3899842, 0.0 ], [ -78.8877186, -8.3899617, 0.0 ], [ -78.8876781, -8.3899431, 0.0 ], [ -78.8876318, -8.3899271, 0.0 ], [ -78.8870635, -8.389761, 0.0 ], [ -78.8871657, -8.389414, 0.0 ], [ -78.8877384, -8.3895814, 0.0 ], [ -78.8877469, -8.3895841, 0.0 ], [ -78.8878075, -8.3896051, 0.0 ], [ -78.8878223, -8.3896112, 0.0 ], [ -78.887879, -8.3896372, 0.0 ], [ -78.8878946, -8.3896454, 0.0 ], [ -78.8879485, -8.3896769, 0.0 ], [ -78.8879634, -8.3896867, 0.0 ], [ -78.8880139, -8.3897232, 0.0 ], [ -78.8880245, -8.3897315, 0.0 ], [ -78.8880278, -8.3897344, 0.0 ], [ -78.8880744, -8.3897757, 0.0 ], [ -78.8880809, -8.3897817, 0.0 ], [ -78.8882972, -8.3899934, 0.0 ], [ -78.888332, -8.3900238, 0.0 ], [ -78.8883659, -8.3900472, 0.0 ], [ -78.8884022, -8.3900666, 0.0 ], [ -78.8884405, -8.3900818, 0.0 ], [ -78.8884803, -8.3900925, 0.0 ], [ -78.8885261, -8.3900995, 0.0 ], [ -78.8887471, -8.3901204, 0.0 ], [ -78.8887127, -8.3904804, 0.0 ], [ -78.8884866, -8.390459, 0.0 ] ] ] } },
{ "type": "Feature", "properties": { "Name": "EVACUADOR TRAMO X 5+800 - 6+000", "COD_EST": "CANAL LATERAL 10", "EMPRESA": "JURP", "ESTRUCTURA": "CANAL", "FID": 8, "Field_1": "EVACUADOR TRAMO X", "NOMBRE": "EVACUADOR TRAMO X", "PROGRESIVA": "5+800 - 6+000", "TRAMO": "TRAMO X" }, "geometry": { "type": "Polygon", "coordinates": [ [ [ -78.8870512, -8.3897574, 0.0 ], [ -78.8870415, -8.3897543, 0.0 ], [ -78.8869925, -8.3897369, 0.0 ], [ -78.8869749, -8.3897295, 0.0 ], [ -78.8869292, -8.3897073, 0.0 ], [ -78.8869172, -8.3897009, 0.0 ], [ -78.8869115, -8.3896975, 0.0 ], [ -78.8868686, -8.3896704, 0.0 ], [ -78.8868521, -8.3896586, 0.0 ], [ -78.8868125, -8.3896269, 0.0 ], [ -78.8868089, -8.3896239, 0.0 ], [ -78.8867974, -8.3896133, 0.0 ], [ -78.8867616, -8.3895774, 0.0 ], [ -78.8867508, -8.3895656, 0.0 ], [ -78.8867482, -8.3895623, 0.0 ], [ -78.8867166, -8.3895226, 0.0 ], [ -78.8867049, -8.3895061, 0.0 ], [ -78.8866781, -8.3894631, 0.0 ], [ -78.8866744, -8.3894571, 0.0 ], [ -78.8866683, -8.3894454, 0.0 ], [ -78.8866464, -8.3893997, 0.0 ], [ -78.8866423, -8.3893905, 0.0 ], [ -78.8861122, -8.3881042, 0.0 ], [ -78.8864481, -8.3879669, 0.0 ], [ -78.8869763, -8.3892485, 0.0 ], [ -78.8869916, -8.3892805, 0.0 ], [ -78.8870077, -8.3893062, 0.0 ], [ -78.8870266, -8.38933, 0.0 ], [ -78.887048, -8.3893515, 0.0 ], [ -78.8870718, -8.3893705, 0.0 ], [ -78.8870975, -8.3893867, 0.0 ], [ -78.8871248, -8.3894, 0.0 ], [ -78.8871583, -8.3894119, 0.0 ], [ -78.8871657, -8.389414, 0.0 ], [ -78.8870635, -8.389761, 0.0 ], [ -78.8870512, -8.3897574, 0.0 ] ] ] } },
{ "type": "Feature", "properties": { "Name": "EVACUADOR TRAMO X 5+600 - 5+800", "COD_EST": "CANAL LATERAL 10", "EMPRESA": "JURP", "ESTRUCTURA": "CANAL", "FID": 9, "Field_1": "EVACUADOR TRAMO X", "NOMBRE": "EVACUADOR TRAMO X", "PROGRESIVA": "5+600 - 5+800", "TRAMO": "TRAMO X" }, "geometry": { "type": "Polygon", "coordinates": [ [ [ -78.8858772, -8.3875341, 0.0 ], [ -78.8858515, -8.3874782, 0.0 ], [ -78.8858232, -8.3874277, 0.0 ], [ -78.8857909, -8.3873796, 0.0 ], [ -78.8857526, -8.3873314, 0.0 ], [ -78.8851669, -8.3866524, 0.0 ], [ -78.8854424, -8.3864168, 0.0 ], [ -78.8860314, -8.3870998, 0.0 ], [ -78.886035, -8.3871042, 0.0 ], [ -78.8860801, -8.3871609, 0.0 ], [ -78.8860886, -8.3871726, 0.0 ], [ -78.886129, -8.3872327, 0.0 ], [ -78.8861362, -8.3872444, 0.0 ], [ -78.886172, -8.3873082, 0.0 ], [ -78.8861786, -8.3873211, 0.0 ], [ -78.8862089, -8.3873869, 0.0 ], [ -78.8862117, -8.3873935, 0.0 ], [ -78.8864481, -8.3879669, 0.0 ], [ -78.8861122, -8.3881042, 0.0 ], [ -78.8858772, -8.3875341, 0.0 ] ] ] } },
{ "type": "Feature", "properties": { "Name": "EVACUADOR TRAMO X 5+400 - 5+600", "COD_EST": "CANAL LATERAL 10", "EMPRESA": "JURP", "ESTRUCTURA": "CANAL", "FID": 10, "Field_1": "EVACUADOR TRAMO X", "NOMBRE": "EVACUADOR TRAMO X", "PROGRESIVA": "5+400 - 5+600", "TRAMO": "TRAMO X" }, "geometry": { "type": "Polygon", "coordinates": [ [ [ -78.8839841, -8.3852809, 0.0 ], [ -78.8842596, -8.3850453, 0.0 ], [ -78.8854424, -8.3864168, 0.0 ], [ -78.8851669, -8.3866524, 0.0 ], [ -78.8839841, -8.3852809, 0.0 ] ] ] } },
{ "type": "Feature", "properties": { "Name": "EVACUADOR TRAMO X 5+200 - 5+400", "COD_EST": "CANAL LATERAL 10", "EMPRESA": "JURP", "ESTRUCTURA": "CANAL", "FID": 11, "Field_1": "EVACUADOR TRAMO X", "NOMBRE": "EVACUADOR TRAMO X", "PROGRESIVA": "5+200 - 5+400", "TRAMO": "TRAMO X" }, "geometry": { "type": "Polygon", "coordinates": [ [ [ -78.8836813, -8.3849297, 0.0 ], [ -78.8836242, -8.384868, 0.0 ], [ -78.8835653, -8.3848125, 0.0 ], [ -78.8835027, -8.3847611, 0.0 ], [ -78.8834367, -8.3847141, 0.0 ], [ -78.8833676, -8.3846718, 0.0 ], [ -78.883293, -8.3846328, 0.0 ], [ -78.8825878, -8.3842948, 0.0 ], [ -78.8827453, -8.383969, 0.0 ], [ -78.8834533, -8.3843083, 0.0 ], [ -78.8834588, -8.3843111, 0.0 ], [ -78.8835417, -8.3843544, 0.0 ], [ -78.8835491, -8.3843585, 0.0 ], [ -78.8835526, -8.3843606, 0.0 ], [ -78.8836323, -8.3844094, 0.0 ], [ -78.8836427, -8.3844163, 0.0 ], [ -78.8837189, -8.3844705, 0.0 ], [ -78.8837288, -8.3844781, 0.0 ], [ -78.883802, -8.3845382, 0.0 ], [ -78.8838104, -8.3845456, 0.0 ], [ -78.8838784, -8.3846097, 0.0 ], [ -78.8838871, -8.3846186, 0.0 ], [ -78.8839505, -8.3846871, 0.0 ], [ -78.8839547, -8.3846918, 0.0 ], [ -78.8842596, -8.3850453, 0.0 ], [ -78.8839841, -8.3852809, 0.0 ], [ -78.8836813, -8.3849297, 0.0 ] ] ] } },
{ "type": "Feature", "properties": { "Name": "EVACUADOR TRAMO X 5+000 - 5+200", "COD_EST": "CANAL LATERAL 10", "EMPRESA": "JURP", "ESTRUCTURA": "CANAL", "FID": 12, "Field_1": "EVACUADOR TRAMO X", "NOMBRE": "EVACUADOR TRAMO X", "PROGRESIVA": "5+000 - 5+200", "TRAMO": "TRAMO X" }, "geometry": { "type": "Polygon", "coordinates": [ [ [ -78.8819874, -8.384007, 0.0 ], [ -78.8819832, -8.3840049, 0.0 ], [ -78.8818995, -8.3839621, 0.0 ], [ -78.8818913, -8.3839576, 0.0 ], [ -78.8818097, -8.3839105, 0.0 ], [ -78.8818019, -8.3839057, 0.0 ], [ -78.8817231, -8.3838545, 0.0 ], [ -78.8817192, -8.3838519, 0.0 ], [ -78.8811875, -8.3834865, 0.0 ], [ -78.8811309, -8.3834492, 0.0 ], [ -78.8810077, -8.3833714, 0.0 ], [ -78.881202, -8.383066, 0.0 ], [ -78.8813282, -8.3831457, 0.0 ], [ -78.8813908, -8.3831869, 0.0 ], [ -78.8819235, -8.3835529, 0.0 ], [ -78.8819964, -8.3836003, 0.0 ], [ -78.8820696, -8.3836426, 0.0 ], [ -78.882147, -8.3836822, 0.0 ], [ -78.8827453, -8.383969, 0.0 ], [ -78.8825878, -8.3842948, 0.0 ], [ -78.8819874, -8.384007, 0.0 ] ] ] } },
{ "type": "Feature", "properties": { "Name": "EVACUADOR TRAMO X 4+800 - 5+000", "COD_EST": "CANAL LATERAL 10", "EMPRESA": "JURP", "ESTRUCTURA": "CANAL", "FID": 13, "Field_1": "EVACUADOR TRAMO X", "NOMBRE": "EVACUADOR TRAMO X", "PROGRESIVA": "4+800 - 5+000", "TRAMO": "TRAMO X" }, "geometry": { "type": "Polygon", "coordinates": [ [ [ -78.8799147, -8.3826819, 0.0 ], [ -78.879911, -8.3826795, 0.0 ], [ -78.8798193, -8.3826185, 0.0 ], [ -78.8798121, -8.3826134, 0.0 ], [ -78.8797236, -8.3825481, 0.0 ], [ -78.8797166, -8.3825427, 0.0 ], [ -78.8796301, -8.3824722, 0.0 ], [ -78.8796247, -8.3824675, 0.0 ], [ -78.8795429, -8.3823939, 0.0 ], [ -78.8795365, -8.3823879, 0.0 ], [ -78.8794793, -8.3823312, 0.0 ], [ -78.8797355, -8.382075, 0.0 ], [ -78.8797896, -8.3821286, 0.0 ], [ -78.8798648, -8.3821962, 0.0 ], [ -78.8799432, -8.3822602, 0.0 ], [ -78.8800247, -8.3823203, 0.0 ], [ -78.8801108, -8.3823776, 0.0 ], [ -78.881202, -8.383066, 0.0 ], [ -78.8810077, -8.3833714, 0.0 ], [ -78.8799147, -8.3826819, 0.0 ] ] ] } },
{ "type": "Feature", "properties": { "Name": "EVACUADOR TRAMO X 4+600 - 4+800", "COD_EST": "CANAL LATERAL 10", "EMPRESA": "JURP", "ESTRUCTURA": "CANAL", "FID": 14, "Field_1": "EVACUADOR TRAMO X", "NOMBRE": "EVACUADOR TRAMO X", "PROGRESIVA": "4+600 - 4+800", "TRAMO": "TRAMO X" }, "geometry": { "type": "Polygon", "coordinates": [ [ [ -78.8794584, -8.3823104, 0.0 ], [ -78.8794553, -8.3823073, 0.0 ], [ -78.8790044, -8.3818379, 0.0 ], [ -78.8789271, -8.3817614, 0.0 ], [ -78.8788477, -8.3816906, 0.0 ], [ -78.878763, -8.3816224, 0.0 ], [ -78.8781431, -8.3811489, 0.0 ], [ -78.8783641, -8.380862, 0.0 ], [ -78.8789858, -8.3813369, 0.0 ], [ -78.8789895, -8.3813397, 0.0 ], [ -78.8790796, -8.3814123, 0.0 ], [ -78.8790829, -8.381415, 0.0 ], [ -78.8790866, -8.3814183, 0.0 ], [ -78.8791729, -8.3814953, 0.0 ], [ -78.8791797, -8.3815016, 0.0 ], [ -78.8792619, -8.381583, 0.0 ], [ -78.8792651, -8.3815863, 0.0 ], [ -78.8797162, -8.3820558, 0.0 ], [ -78.8797355, -8.382075, 0.0 ], [ -78.8794793, -8.3823312, 0.0 ], [ -78.8794584, -8.3823104, 0.0 ] ] ] } },
{ "type": "Feature", "properties": { "Name": "EVACUADOR TRAMO X 4+400 - 4+600", "COD_EST": "CANAL LATERAL 10", "EMPRESA": "JURP", "ESTRUCTURA": "CANAL", "FID": 15, "Field_1": "EVACUADOR TRAMO X", "NOMBRE": "EVACUADOR TRAMO X", "PROGRESIVA": "4+400 - 4+600", "TRAMO": "TRAMO X" }, "geometry": { "type": "Polygon", "coordinates": [ [ [ -78.8780809, -8.3811013, 0.0 ], [ -78.8780776, -8.3810987, 0.0 ], [ -78.8779961, -8.3810334, 0.0 ], [ -78.877991, -8.3810293, 0.0 ], [ -78.8779113, -8.3809591, 0.0 ], [ -78.8779052, -8.3809535, 0.0 ], [ -78.87783, -8.380881, 0.0 ], [ -78.8778271, -8.3808781, 0.0 ], [ -78.876828, -8.3798687, 0.0 ], [ -78.8770866, -8.3796149, 0.0 ], [ -78.8780842, -8.3806228, 0.0 ], [ -78.8781548, -8.3806909, 0.0 ], [ -78.8782269, -8.3807543, 0.0 ], [ -78.8783035, -8.3808157, 0.0 ], [ -78.8783641, -8.380862, 0.0 ], [ -78.8781431, -8.3811489, 0.0 ], [ -78.8780809, -8.3811013, 0.0 ] ] ] } },
{ "type": "Feature", "properties": { "Name": "EVACUADOR TRAMO X 4+200 - 4+400", "COD_EST": "CANAL LATERAL 10", "EMPRESA": "JURP", "ESTRUCTURA": "CANAL", "FID": 16, "Field_1": "EVACUADOR TRAMO X", "NOMBRE": "EVACUADOR TRAMO X", "PROGRESIVA": "4+200 - 4+400", "TRAMO": "TRAMO X" }, "geometry": { "type": "Polygon", "coordinates": [ [ [ -78.8755536, -8.3785812, 0.0 ], [ -78.8758122, -8.3783274, 0.0 ], [ -78.8770866, -8.3796149, 0.0 ], [ -78.876828, -8.3798687, 0.0 ], [ -78.8755536, -8.3785812, 0.0 ] ] ] } },
{ "type": "Feature", "properties": { "Name": "EVACUADOR TRAMO X 4+000 - 4+200", "COD_EST": "CANAL LATERAL 10", "EMPRESA": "JURP", "ESTRUCTURA": "CANAL", "FID": 17, "Field_1": "EVACUADOR TRAMO X", "NOMBRE": "EVACUADOR TRAMO X", "PROGRESIVA": "4+000 - 4+200", "TRAMO": "TRAMO X" }, "geometry": { "type": "Polygon", "coordinates": [ [ [ -78.8748422, -8.3778625, 0.0 ], [ -78.8748368, -8.3778568, 0.0 ], [ -78.8747845, -8.3777991, 0.0 ], [ -78.8747794, -8.3777933, 0.0 ], [ -78.8747745, -8.3777871, 0.0 ], [ -78.8747273, -8.3777252, 0.0 ], [ -78.8747184, -8.3777124, 0.0 ], [ -78.8746767, -8.3776466, 0.0 ], [ -78.8746727, -8.37764, 0.0 ], [ -78.8743906, -8.3771494, 0.0 ], [ -78.8747057, -8.3769697, 0.0 ], [ -78.8749858, -8.3774569, 0.0 ], [ -78.8750213, -8.3775128, 0.0 ], [ -78.875059, -8.3775624, 0.0 ], [ -78.8751035, -8.3776114, 0.0 ], [ -78.8758122, -8.3783274, 0.0 ], [ -78.8755536, -8.3785812, 0.0 ], [ -78.8748422, -8.3778625, 0.0 ] ] ] } },
{ "type": "Feature", "properties": { "Name": "EVACUADOR TRAMO X 3+800 - 4+000", "COD_EST": "CANAL LATERAL 10", "EMPRESA": "JURP", "ESTRUCTURA": "CANAL", "FID": 18, "Field_1": "EVACUADOR TRAMO X", "NOMBRE": "EVACUADOR TRAMO X", "PROGRESIVA": "3+800 - 4+000", "TRAMO": "TRAMO X" }, "geometry": { "type": "Polygon", "coordinates": [ [ [ -78.874294, -8.3769813, 0.0 ], [ -78.8742766, -8.3769543, 0.0 ], [ -78.8742595, -8.3769329, 0.0 ], [ -78.8742403, -8.3769133, 0.0 ], [ -78.8742156, -8.3768927, 0.0 ], [ -78.8730753, -8.3760367, 0.0 ], [ -78.8732938, -8.375748, 0.0 ], [ -78.8744378, -8.3766068, 0.0 ], [ -78.874445, -8.3766124, 0.0 ], [ -78.8744807, -8.3766422, 0.0 ], [ -78.8744937, -8.3766542, 0.0 ], [ -78.8745258, -8.3766869, 0.0 ], [ -78.8745368, -8.3766992, 0.0 ], [ -78.8745665, -8.3767365, 0.0 ], [ -78.8745772, -8.3767513, 0.0 ], [ -78.874602, -8.3767898, 0.0 ], [ -78.8746068, -8.3767976, 0.0 ], [ -78.8747057, -8.3769697, 0.0 ], [ -78.8743906, -8.3771494, 0.0 ], [ -78.874294, -8.3769813, 0.0 ] ] ] } },
{ "type": "Feature", "properties": { "Name": "EVACUADOR TRAMO X 3+600 - 3+800", "COD_EST": "CANAL LATERAL 10", "EMPRESA": "JURP", "ESTRUCTURA": "CANAL", "FID": 19, "Field_1": "EVACUADOR TRAMO X", "NOMBRE": "EVACUADOR TRAMO X", "PROGRESIVA": "3+600 - 3+800", "TRAMO": "TRAMO X" }, "geometry": { "type": "Polygon", "coordinates": [ [ [ -78.8726088, -8.3756866, 0.0 ], [ -78.8726049, -8.3756836, 0.0 ], [ -78.8725281, -8.3756225, 0.0 ], [ -78.8725238, -8.375619, 0.0 ], [ -78.8725205, -8.3756162, 0.0 ], [ -78.8724471, -8.3755512, 0.0 ], [ -78.87244, -8.3755445, 0.0 ], [ -78.8723702, -8.3754755, 0.0 ], [ -78.8723634, -8.3754685, 0.0 ], [ -78.8722974, -8.3753959, 0.0 ], [ -78.8722917, -8.3753893, 0.0 ], [ -78.8722292, -8.3753124, 0.0 ], [ -78.8722261, -8.3753086, 0.0 ], [ -78.871776, -8.374724, 0.0 ], [ -78.8720641, -8.374504, 0.0 ], [ -78.8725127, -8.3750866, 0.0 ], [ -78.87257, -8.375157, 0.0 ], [ -78.8726293, -8.3752223, 0.0 ], [ -78.8726921, -8.3752843, 0.0 ], [ -78.8727582, -8.3753429, 0.0 ], [ -78.8728293, -8.3753993, 0.0 ], [ -78.8732938, -8.375748, 0.0 ], [ -78.8730753, -8.3760367, 0.0 ], [ -78.8726088, -8.3756866, 0.0 ] ] ] } },
{ "type": "Feature", "properties": { "Name": "EVACUADOR TRAMO X 3+400 - 3+600", "COD_EST": "CANAL LATERAL 10", "EMPRESA": "JURP", "ESTRUCTURA": "CANAL", "FID": 20, "Field_1": "EVACUADOR TRAMO X", "NOMBRE": "EVACUADOR TRAMO X", "PROGRESIVA": "3+400 - 3+600", "TRAMO": "TRAMO X" }, "geometry": { "type": "Polygon", "coordinates": [ [ [ -78.8706714, -8.3732893, 0.0 ], [ -78.8709595, -8.3730693, 0.0 ], [ -78.8720641, -8.374504, 0.0 ], [ -78.871776, -8.374724, 0.0 ], [ -78.8706714, -8.3732893, 0.0 ] ] ] } },
{ "type": "Feature", "properties": { "Name": "EVACUADOR TRAMO X 3+200 - 3+400", "COD_EST": "CANAL LATERAL 10", "EMPRESA": "JURP", "ESTRUCTURA": "CANAL", "FID": 21, "Field_1": "EVACUADOR TRAMO X", "NOMBRE": "EVACUADOR TRAMO X", "PROGRESIVA": "3+200 - 3+400", "TRAMO": "TRAMO X" }, "geometry": { "type": "Polygon", "coordinates": [ [ [ -78.8698913, -8.3722761, 0.0 ], [ -78.8698344, -8.3722075, 0.0 ], [ -78.8697749, -8.3721457, 0.0 ], [ -78.8697111, -8.3720882, 0.0 ], [ -78.8696406, -8.3720336, 0.0 ], [ -78.8695355, -8.3719581, 0.0 ], [ -78.8697479, -8.3716648, 0.0 ], [ -78.8698557, -8.3717423, 0.0 ], [ -78.869861, -8.3717462, 0.0 ], [ -78.8699393, -8.371807, 0.0 ], [ -78.8699453, -8.3718118, 0.0 ], [ -78.8699495, -8.3718154, 0.0 ], [ -78.8700232, -8.3718817, 0.0 ], [ -78.8700326, -8.3718909, 0.0 ], [ -78.8701013, -8.3719623, 0.0 ], [ -78.87011, -8.371972, 0.0 ], [ -78.8701733, -8.3720484, 0.0 ], [ -78.8701775, -8.3720535, 0.0 ], [ -78.8709595, -8.3730693, 0.0 ], [ -78.8706714, -8.3732893, 0.0 ], [ -78.8698913, -8.3722761, 0.0 ] ] ] } },
{ "type": "Feature", "properties": { "Name": "EVACUADOR TRAMO X 3+000 - 3+200", "COD_EST": "CANAL LATERAL 10", "EMPRESA": "JURP", "ESTRUCTURA": "CANAL", "FID": 22, "Field_1": "EVACUADOR TRAMO X", "NOMBRE": "EVACUADOR TRAMO X", "PROGRESIVA": "3+000 - 3+200", "TRAMO": "TRAMO X" }, "geometry": { "type": "Polygon", "coordinates": [ [ [ -78.8694067, -8.3718655, 0.0 ], [ -78.8694009, -8.3718612, 0.0 ], [ -78.8693441, -8.3718169, 0.0 ], [ -78.8693387, -8.3718125, 0.0 ], [ -78.8693331, -8.3718076, 0.0 ], [ -78.8692801, -8.371759, 0.0 ], [ -78.8692699, -8.3717488, 0.0 ], [ -78.8692209, -8.3716962, 0.0 ], [ -78.8692144, -8.3716888, 0.0 ], [ -78.8692115, -8.3716853, 0.0 ], [ -78.8691669, -8.3716289, 0.0 ], [ -78.8691584, -8.3716172, 0.0 ], [ -78.8691184, -8.3715575, 0.0 ], [ -78.8691113, -8.371546, 0.0 ], [ -78.8690757, -8.3714825, 0.0 ], [ -78.8690723, -8.3714762, 0.0 ], [ -78.8687489, -8.3708406, 0.0 ], [ -78.8687132, -8.3707755, 0.0 ], [ -78.8686751, -8.370715, 0.0 ], [ -78.8686334, -8.370657, 0.0 ], [ -78.8685865, -8.3705994, 0.0 ], [ -78.8684742, -8.3704698, 0.0 ], [ -78.868749, -8.3702335, 0.0 ], [ -78.8688631, -8.3703652, 0.0 ], [ -78.8688661, -8.3703687, 0.0 ], [ -78.8689188, -8.3704334, 0.0 ], [ -78.8689255, -8.3704421, 0.0 ], [ -78.8689736, -8.3705091, 0.0 ], [ -78.8689798, -8.3705183, 0.0 ], [ -78.8690237, -8.3705881, 0.0 ], [ -78.8690285, -8.3705961, 0.0 ], [ -78.8690689, -8.3706699, 0.0 ], [ -78.8690715, -8.3706747, 0.0 ], [ -78.8693946, -8.3713095, 0.0 ], [ -78.8694244, -8.3713628, 0.0 ], [ -78.8694564, -8.3714106, 0.0 ], [ -78.8694921, -8.3714557, 0.0 ], [ -78.8695313, -8.3714979, 0.0 ], [ -78.8695738, -8.3715368, 0.0 ], [ -78.869622, -8.3715744, 0.0 ], [ -78.8697479, -8.3716648, 0.0 ], [ -78.8695355, -8.3719581, 0.0 ], [ -78.8694067, -8.3718655, 0.0 ] ] ] } },
{ "type": "Feature", "properties": { "Name": "EVACUADOR TRAMO X 2+800 - 3+000", "COD_EST": "CANAL LATERAL 10", "EMPRESA": "JURP", "ESTRUCTURA": "CANAL - SIFON", "FID": 23, "Field_1": "EVACUADOR TRAMO X", "NOMBRE": "EVACUADOR TRAMO X", "PROGRESIVA": "2+800 - 3+000", "TRAMO": "TRAMO X" }, "geometry": { "type": "Polygon", "coordinates": [ [ [ -78.8674586, -8.3692982, 0.0 ], [ -78.8674487, -8.3692875, 0.0 ], [ -78.8672857, -8.3691107, 0.0 ], [ -78.8675532, -8.3688662, 0.0 ], [ -78.8677161, -8.369043, 0.0 ], [ -78.8677279, -8.3690557, 0.0 ], [ -78.8677316, -8.3690599, 0.0 ], [ -78.868749, -8.3702335, 0.0 ], [ -78.8684742, -8.3704698, 0.0 ], [ -78.8674586, -8.3692982, 0.0 ] ] ] } },
{ "type": "Feature", "properties": { "Name": "EVACUADOR TRAMO X 2+600 - 2+800", "COD_EST": "CANAL LATERAL 10", "EMPRESA": "JURP", "ESTRUCTURA": "CANAL - SIFON", "FID": 24, "Field_1": "EVACUADOR TRAMO X", "NOMBRE": "EVACUADOR TRAMO X", "PROGRESIVA": "2+600 - 2+800", "TRAMO": "TRAMO X" }, "geometry": { "type": "Polygon", "coordinates": [ [ [ -78.8671602, -8.3689745, 0.0 ], [ -78.8671465, -8.3689597, 0.0 ], [ -78.8671406, -8.3689529, 0.0 ], [ -78.8671373, -8.3689488, 0.0 ], [ -78.8665102, -8.3681502, 0.0 ], [ -78.8664846, -8.3681213, 0.0 ], [ -78.8664598, -8.3680995, 0.0 ], [ -78.8664325, -8.3680808, 0.0 ], [ -78.8664031, -8.3680655, 0.0 ], [ -78.866372, -8.3680539, 0.0 ], [ -78.8663344, -8.3680449, 0.0 ], [ -78.8660896, -8.3680017, 0.0 ], [ -78.866153, -8.3676456, 0.0 ], [ -78.8664037, -8.3676899, 0.0 ], [ -78.8664141, -8.3676921, 0.0 ], [ -78.8664679, -8.367705, 0.0 ], [ -78.8664887, -8.3677113, 0.0 ], [ -78.8665408, -8.3677308, 0.0 ], [ -78.866561, -8.3677398, 0.0 ], [ -78.8666101, -8.3677652, 0.0 ], [ -78.8666178, -8.3677695, 0.0 ], [ -78.866629, -8.3677766, 0.0 ], [ -78.8666746, -8.3678078, 0.0 ], [ -78.8666906, -8.3678201, 0.0 ], [ -78.8667334, -8.3678578, 0.0 ], [ -78.8667491, -8.3678734, 0.0 ], [ -78.8667858, -8.3679146, 0.0 ], [ -78.8667895, -8.367919, 0.0 ], [ -78.8667928, -8.3679231, 0.0 ], [ -78.8674189, -8.3687204, 0.0 ], [ -78.8674276, -8.36873, 0.0 ], [ -78.8675532, -8.3688662, 0.0 ], [ -78.8672857, -8.3691107, 0.0 ], [ -78.8671602, -8.3689745, 0.0 ] ] ] } },
{ "type": "Feature", "properties": { "Name": "EVACUADOR TRAMO X 2+400 - 2+600", "COD_EST": "CANAL LATERAL 10", "EMPRESA": "JURP", "ESTRUCTURA": "CANAL", "FID": 25, "Field_1": "EVACUADOR TRAMO X", "NOMBRE": "EVACUADOR TRAMO X", "PROGRESIVA": "2+400 - 2+600", "TRAMO": "TRAMO X" }, "geometry": { "type": "Polygon", "coordinates": [ [ [ -78.8657662, -8.3679445, 0.0 ], [ -78.8657598, -8.3679433, 0.0 ], [ -78.8656753, -8.367925, 0.0 ], [ -78.8656619, -8.3679216, 0.0 ], [ -78.865579, -8.367897, 0.0 ], [ -78.8655669, -8.3678929, 0.0 ], [ -78.8654851, -8.3678617, 0.0 ], [ -78.8654724, -8.3678563, 0.0 ], [ -78.8653943, -8.3678194, 0.0 ], [ -78.865382, -8.367813, 0.0 ], [ -78.8653061, -8.3677699, 0.0 ], [ -78.8652951, -8.367763, 0.0 ], [ -78.8652235, -8.3677148, 0.0 ], [ -78.8652123, -8.3677066, 0.0 ], [ -78.8651446, -8.3676531, 0.0 ], [ -78.8651401, -8.3676493, 0.0 ], [ -78.8651341, -8.3676441, 0.0 ], [ -78.8650707, -8.3675855, 0.0 ], [ -78.8650609, -8.3675758, 0.0 ], [ -78.8650021, -8.3675126, 0.0 ], [ -78.8649956, -8.3675052, 0.0 ], [ -78.8649931, -8.3675021, 0.0 ], [ -78.8649393, -8.3674347, 0.0 ], [ -78.8649311, -8.3674236, 0.0 ], [ -78.8648827, -8.3673522, 0.0 ], [ -78.8648789, -8.3673464, 0.0 ], [ -78.8645958, -8.3668932, 0.0 ], [ -78.8649041, -8.3667023, 0.0 ], [ -78.8651854, -8.3671525, 0.0 ], [ -78.865228, -8.3672153, 0.0 ], [ -78.8652732, -8.3672719, 0.0 ], [ -78.8653225, -8.367325, 0.0 ], [ -78.8653758, -8.3673742, 0.0 ], [ -78.8654327, -8.3674192, 0.0 ], [ -78.8654929, -8.3674597, 0.0 ], [ -78.8655559, -8.3674956, 0.0 ], [ -78.8656216, -8.3675266, 0.0 ], [ -78.8656894, -8.3675525, 0.0 ], [ -78.865759, -8.3675731, 0.0 ], [ -78.8658334, -8.3675892, 0.0 ], [ -78.866153, -8.3676456, 0.0 ], [ -78.8660896, -8.3680017, 0.0 ], [ -78.8657662, -8.3679445, 0.0 ] ] ] } },
{ "type": "Feature", "properties": { "Name": "EVACUADOR TRAMO X 2+200 - 2+400", "COD_EST": "CANAL LATERAL 10", "EMPRESA": "JURP", "ESTRUCTURA": "CANAL", "FID": 26, "Field_1": "EVACUADOR TRAMO X", "NOMBRE": "EVACUADOR TRAMO X", "PROGRESIVA": "2+200 - 2+400", "TRAMO": "TRAMO X" }, "geometry": { "type": "Polygon", "coordinates": [ [ [ -78.8643052, -8.3664281, 0.0 ], [ -78.8642859, -8.3664005, 0.0 ], [ -78.8642638, -8.3663752, 0.0 ], [ -78.8639267, -8.3660284, 0.0 ], [ -78.8639217, -8.3660231, 0.0 ], [ -78.8638729, -8.3659687, 0.0 ], [ -78.8638687, -8.3659637, 0.0 ], [ -78.8638636, -8.3659574, 0.0 ], [ -78.8638194, -8.3658993, 0.0 ], [ -78.8638151, -8.3658934, 0.0 ], [ -78.8635136, -8.3654617, 0.0 ], [ -78.8638116, -8.3652552, 0.0 ], [ -78.8641111, -8.3656839, 0.0 ], [ -78.8641487, -8.3657333, 0.0 ], [ -78.8641901, -8.3657795, 0.0 ], [ -78.864528, -8.3661271, 0.0 ], [ -78.8645345, -8.3661342, 0.0 ], [ -78.8645662, -8.3661705, 0.0 ], [ -78.8645689, -8.3661737, 0.0 ], [ -78.864578, -8.3661856, 0.0 ], [ -78.8646057, -8.366225, 0.0 ], [ -78.864611, -8.366233, 0.0 ], [ -78.8649041, -8.3667023, 0.0 ], [ -78.8645958, -8.3668932, 0.0 ], [ -78.8643052, -8.3664281, 0.0 ] ] ] } },
{ "type": "Feature", "properties": { "Name": "EVACUADOR TRAMO X 2+000 - 2+200", "COD_EST": "CANAL LATERAL 10", "EMPRESA": "JURP", "ESTRUCTURA": "CANAL", "FID": 27, "Field_1": "EVACUADOR TRAMO X", "NOMBRE": "EVACUADOR TRAMO X", "PROGRESIVA": "2+000 - 2+200", "TRAMO": "TRAMO X" }, "geometry": { "type": "Polygon", "coordinates": [ [ [ -78.8633615, -8.3652439, 0.0 ], [ -78.8633584, -8.3652393, 0.0 ], [ -78.8632983, -8.3651476, 0.0 ], [ -78.8632927, -8.3651383, 0.0 ], [ -78.8632383, -8.365043, 0.0 ], [ -78.8632331, -8.3650333, 0.0 ], [ -78.8631847, -8.364935, 0.0 ], [ -78.8631801, -8.364925, 0.0 ], [ -78.8631377, -8.3648239, 0.0 ], [ -78.8631341, -8.3648144, 0.0 ], [ -78.8630976, -8.3647103, 0.0 ], [ -78.8630959, -8.3647051, 0.0 ], [ -78.8627961, -8.3637561, 0.0 ], [ -78.8631424, -8.3636476, 0.0 ], [ -78.8634414, -8.364594, 0.0 ], [ -78.8634748, -8.3646896, 0.0 ], [ -78.863513, -8.3647806, 0.0 ], [ -78.8635566, -8.3648691, 0.0 ], [ -78.8636055, -8.3649548, 0.0 ], [ -78.8636611, -8.3650397, 0.0 ], [ -78.8638116, -8.3652552, 0.0 ], [ -78.8635136, -8.3654617, 0.0 ], [ -78.8633615, -8.3652439, 0.0 ] ] ] } },
{ "type": "Feature", "properties": { "Name": "EVACUADOR TRAMO X 1+800 - 2+000", "COD_EST": "CANAL LATERAL 10", "EMPRESA": "JURP", "ESTRUCTURA": "CANAL", "FID": 28, "Field_1": "EVACUADOR TRAMO X", "NOMBRE": "EVACUADOR TRAMO X", "PROGRESIVA": "1+800 - 2+000", "TRAMO": "TRAMO X" }, "geometry": { "type": "Polygon", "coordinates": [ [ [ -78.8625513, -8.3629812, 0.0 ], [ -78.8625255, -8.3629078, 0.0 ], [ -78.8624963, -8.362839, 0.0 ], [ -78.8624627, -8.3627721, 0.0 ], [ -78.8624248, -8.3627074, 0.0 ], [ -78.862383, -8.3626453, 0.0 ], [ -78.8623372, -8.362586, 0.0 ], [ -78.8622859, -8.3625276, 0.0 ], [ -78.8620219, -8.3622456, 0.0 ], [ -78.8622874, -8.361999, 0.0 ], [ -78.8625534, -8.3622831, 0.0 ], [ -78.8625572, -8.3622874, 0.0 ], [ -78.8626143, -8.3623523, 0.0 ], [ -78.8626174, -8.3623559, 0.0 ], [ -78.8626216, -8.3623612, 0.0 ], [ -78.8626744, -8.3624297, 0.0 ], [ -78.8626812, -8.362439, 0.0 ], [ -78.8627295, -8.3625107, 0.0 ], [ -78.8627356, -8.3625204, 0.0 ], [ -78.8627797, -8.3625957, 0.0 ], [ -78.8627847, -8.3626051, 0.0 ], [ -78.8628235, -8.3626823, 0.0 ], [ -78.8628284, -8.3626928, 0.0 ], [ -78.8628621, -8.3627722, 0.0 ], [ -78.8628661, -8.3627824, 0.0 ], [ -78.8628949, -8.3628644, 0.0 ], [ -78.8628968, -8.3628699, 0.0 ], [ -78.8631424, -8.3636476, 0.0 ], [ -78.8627961, -8.3637561, 0.0 ], [ -78.8625513, -8.3629812, 0.0 ] ] ] } },
{ "type": "Feature", "properties": { "Name": "EVACUADOR TRAMO X 1+600 - 1+800", "COD_EST": "CANAL LATERAL 10", "EMPRESA": "JURP", "ESTRUCTURA": "CANAL", "FID": 29, "Field_1": "EVACUADOR TRAMO X", "NOMBRE": "EVACUADOR TRAMO X", "PROGRESIVA": "1+600 - 1+800", "TRAMO": "TRAMO X" }, "geometry": { "type": "Polygon", "coordinates": [ [ [ -78.8614618, -8.3616474, 0.0 ], [ -78.8614575, -8.3616427, 0.0 ], [ -78.8614068, -8.3615845, 0.0 ], [ -78.8614041, -8.3615814, 0.0 ], [ -78.8613987, -8.3615745, 0.0 ], [ -78.8613522, -8.3615129, 0.0 ], [ -78.8613449, -8.3615024, 0.0 ], [ -78.861303, -8.3614377, 0.0 ], [ -78.8612971, -8.3614279, 0.0 ], [ -78.8612592, -8.3613592, 0.0 ], [ -78.8612534, -8.3613477, 0.0 ], [ -78.8612211, -8.3612777, 0.0 ], [ -78.8612161, -8.3612659, 0.0 ], [ -78.8611883, -8.3611924, 0.0 ], [ -78.8611848, -8.3611816, 0.0 ], [ -78.8611627, -8.3611078, 0.0 ], [ -78.861161, -8.3611016, 0.0 ], [ -78.8610475, -8.3606652, 0.0 ], [ -78.861399, -8.3605745, 0.0 ], [ -78.8615116, -8.3610079, 0.0 ], [ -78.8615309, -8.3610725, 0.0 ], [ -78.8615536, -8.3611325, 0.0 ], [ -78.8615805, -8.3611908, 0.0 ], [ -78.8616115, -8.3612471, 0.0 ], [ -78.8616465, -8.361301, 0.0 ], [ -78.8616851, -8.3613523, 0.0 ], [ -78.8617295, -8.3614032, 0.0 ], [ -78.8622874, -8.361999, 0.0 ], [ -78.8620219, -8.3622456, 0.0 ], [ -78.8614618, -8.3616474, 0.0 ] ] ] } },
{ "type": "Feature", "properties": { "Name": "EVACUADOR TRAMO X 1+400 - 1+600", "COD_EST": "CANAL LATERAL 10", "EMPRESA": "JURP", "ESTRUCTURA": "CANAL", "FID": 30, "Field_1": "EVACUADOR TRAMO X", "NOMBRE": "EVACUADOR TRAMO X", "PROGRESIVA": "1+400 - 1+600", "TRAMO": "TRAMO X" }, "geometry": { "type": "Polygon", "coordinates": [ [ [ -78.8608228, -8.3598011, 0.0 ], [ -78.8608024, -8.3597331, 0.0 ], [ -78.8607781, -8.35967, 0.0 ], [ -78.8607492, -8.3596088, 0.0 ], [ -78.8607157, -8.35955, 0.0 ], [ -78.8606779, -8.3594938, 0.0 ], [ -78.860636, -8.3594406, 0.0 ], [ -78.860588, -8.3593882, 0.0 ], [ -78.8603482, -8.3591454, 0.0 ], [ -78.860607, -8.3588918, 0.0 ], [ -78.8608492, -8.359137, 0.0 ], [ -78.8608539, -8.3591419, 0.0 ], [ -78.8609088, -8.3592019, 0.0 ], [ -78.8609144, -8.3592083, 0.0 ], [ -78.8609176, -8.3592122, 0.0 ], [ -78.8609678, -8.359276, 0.0 ], [ -78.8609758, -8.359287, 0.0 ], [ -78.8610211, -8.3593544, 0.0 ], [ -78.8610281, -8.3593657, 0.0 ], [ -78.8610684, -8.3594365, 0.0 ], [ -78.8610747, -8.3594485, 0.0 ], [ -78.8611094, -8.3595219, 0.0 ], [ -78.8611147, -8.3595344, 0.0 ], [ -78.8611439, -8.3596102, 0.0 ], [ -78.8611453, -8.3596139, 0.0 ], [ -78.8611482, -8.359623, 0.0 ], [ -78.8611716, -8.3597007, 0.0 ], [ -78.8611734, -8.3597072, 0.0 ], [ -78.861399, -8.3605745, 0.0 ], [ -78.8610475, -8.3606652, 0.0 ], [ -78.8608228, -8.3598011, 0.0 ] ] ] } },
{ "type": "Feature", "properties": { "Name": "EVACUADOR TRAMO X 1+200 - 1+400", "COD_EST": "CANAL LATERAL 10", "EMPRESA": "JURP", "ESTRUCTURA": "CANAL", "FID": 31, "Field_1": "EVACUADOR TRAMO X", "NOMBRE": "EVACUADOR TRAMO X", "PROGRESIVA": "1+200 - 1+400", "TRAMO": "TRAMO X" }, "geometry": { "type": "Polygon", "coordinates": [ [ [ -78.8599029, -8.3586946, 0.0 ], [ -78.8598978, -8.3586892, 0.0 ], [ -78.8598431, -8.3586291, 0.0 ], [ -78.8598379, -8.3586231, 0.0 ], [ -78.8598336, -8.3586178, 0.0 ], [ -78.859784, -8.3585534, 0.0 ], [ -78.8597755, -8.3585413, 0.0 ], [ -78.8597313, -8.3584732, 0.0 ], [ -78.8597261, -8.3584647, 0.0 ], [ -78.8597238, -8.3584605, 0.0 ], [ -78.8596853, -8.3583889, 0.0 ], [ -78.8596789, -8.3583756, 0.0 ], [ -78.8596464, -8.3583012, 0.0 ], [ -78.8596415, -8.3582888, 0.0 ], [ -78.8596148, -8.3582107, 0.0 ], [ -78.8596106, -8.3581965, 0.0 ], [ -78.8595907, -8.3581178, 0.0 ], [ -78.8595877, -8.3581038, 0.0 ], [ -78.8595743, -8.3580234, 0.0 ], [ -78.8595725, -8.3580087, 0.0 ], [ -78.8595657, -8.3579279, 0.0 ], [ -78.8595652, -8.3579205, 0.0 ], [ -78.8595462, -8.3574757, 0.0 ], [ -78.8599089, -8.3574603, 0.0 ], [ -78.8599278, -8.3579014, 0.0 ], [ -78.8599336, -8.3579713, 0.0 ], [ -78.8599446, -8.3580367, 0.0 ], [ -78.8599609, -8.3581011, 0.0 ], [ -78.8599823, -8.3581639, 0.0 ], [ -78.8600089, -8.3582248, 0.0 ], [ -78.8600404, -8.3582833, 0.0 ], [ -78.8600765, -8.3583391, 0.0 ], [ -78.8601171, -8.3583917, 0.0 ], [ -78.8601643, -8.3584436, 0.0 ], [ -78.860607, -8.3588918, 0.0 ], [ -78.8603482, -8.3591454, 0.0 ], [ -78.8599029, -8.3586946, 0.0 ] ] ] } },
{ "type": "Feature", "properties": { "Name": "EVACUADOR TRAMO X 1+000 - 1+200", "COD_EST": "CANAL LATERAL 10", "EMPRESA": "JURP", "ESTRUCTURA": "CANAL", "FID": 32, "Field_1": "EVACUADOR TRAMO X", "NOMBRE": "EVACUADOR TRAMO X", "PROGRESIVA": "1+000 - 1+200", "TRAMO": "TRAMO X" }, "geometry": { "type": "Polygon", "coordinates": [ [ [ -78.8595179, -8.3568132, 0.0 ], [ -78.8595137, -8.3567641, 0.0 ], [ -78.8595061, -8.3567192, 0.0 ], [ -78.8594946, -8.3566752, 0.0 ], [ -78.8594783, -8.3566287, 0.0 ], [ -78.8593846, -8.3563939, 0.0 ], [ -78.8593512, -8.3563183, 0.0 ], [ -78.8593139, -8.3562484, 0.0 ], [ -78.8592716, -8.3561813, 0.0 ], [ -78.8592245, -8.3561174, 0.0 ], [ -78.8591728, -8.3560572, 0.0 ], [ -78.8591169, -8.3560009, 0.0 ], [ -78.8590584, -8.3559501, 0.0 ], [ -78.8592972, -8.3556777, 0.0 ], [ -78.8593606, -8.3557328, 0.0 ], [ -78.8593703, -8.3557419, 0.0 ], [ -78.8594356, -8.3558076, 0.0 ], [ -78.8594445, -8.3558173, 0.0 ], [ -78.8595057, -8.3558886, 0.0 ], [ -78.8595131, -8.3558979, 0.0 ], [ -78.8595681, -8.3559724, 0.0 ], [ -78.8595755, -8.3559833, 0.0 ], [ -78.8596249, -8.3560616, 0.0 ], [ -78.8596289, -8.3560682, 0.0 ], [ -78.8596315, -8.356073, 0.0 ], [ -78.859675, -8.3561547, 0.0 ], [ -78.8596808, -8.3561666, 0.0 ], [ -78.8597182, -8.3562512, 0.0 ], [ -78.8597208, -8.3562573, 0.0 ], [ -78.8598171, -8.3564987, 0.0 ], [ -78.8598196, -8.3565051, 0.0 ], [ -78.8598399, -8.356563, 0.0 ], [ -78.8598443, -8.3565776, 0.0 ], [ -78.8598595, -8.3566363, 0.0 ], [ -78.8598627, -8.3566511, 0.0 ], [ -78.8598729, -8.356711, 0.0 ], [ -78.8598748, -8.356726, 0.0 ], [ -78.85988, -8.3567865, 0.0 ], [ -78.8598804, -8.356794, 0.0 ], [ -78.8599089, -8.3574603, 0.0 ], [ -78.8595462, -8.3574757, 0.0 ], [ -78.8595179, -8.3568132, 0.0 ] ] ] } },
{ "type": "Feature", "properties": { "Name": "EVACUADOR TRAMO X 0+800 - 1+000", "COD_EST": "CANAL LATERAL 10", "EMPRESA": "JURP", "ESTRUCTURA": "CANAL", "FID": 33, "Field_1": "EVACUADOR TRAMO X", "NOMBRE": "EVACUADOR TRAMO X", "PROGRESIVA": "0+800 - 1+000", "TRAMO": "TRAMO X" }, "geometry": { "type": "Polygon", "coordinates": [ [ [ -78.8589933, -8.3559012, 0.0 ], [ -78.8589264, -8.3558583, 0.0 ], [ -78.8588536, -8.3558189, 0.0 ], [ -78.858018, -8.3554046, 0.0 ], [ -78.8580103, -8.3554006, 0.0 ], [ -78.8579556, -8.3553701, 0.0 ], [ -78.8579423, -8.3553617, 0.0 ], [ -78.8578922, -8.3553271, 0.0 ], [ -78.8578783, -8.3553166, 0.0 ], [ -78.8578316, -8.3552772, 0.0 ], [ -78.857819, -8.3552655, 0.0 ], [ -78.8577764, -8.355222, 0.0 ], [ -78.8577658, -8.3552101, 0.0 ], [ -78.8577267, -8.3551616, 0.0 ], [ -78.8577214, -8.3551547, 0.0 ], [ -78.8575529, -8.354924, 0.0 ], [ -78.8578466, -8.3547114, 0.0 ], [ -78.8580124, -8.3549386, 0.0 ], [ -78.8580424, -8.3549758, 0.0 ], [ -78.8580728, -8.3550069, 0.0 ], [ -78.8581061, -8.3550349, 0.0 ], [ -78.8581419, -8.3550596, 0.0 ], [ -78.8581837, -8.3550829, 0.0 ], [ -78.8590184, -8.3554967, 0.0 ], [ -78.8590243, -8.3554997, 0.0 ], [ -78.8591058, -8.3555439, 0.0 ], [ -78.8591106, -8.3555466, 0.0 ], [ -78.8591172, -8.3555506, 0.0 ], [ -78.8591953, -8.3556006, 0.0 ], [ -78.8592062, -8.3556082, 0.0 ], [ -78.8592804, -8.3556637, 0.0 ], [ -78.8592897, -8.3556712, 0.0 ], [ -78.8592972, -8.3556777, 0.0 ], [ -78.8590577, -8.3559494, 0.0 ], [ -78.8589933, -8.3559012, 0.0 ] ] ] } },
{ "type": "Feature", "properties": { "Name": "EVACUADOR TRAMO X 0+600 - 0+800", "COD_EST": "CANAL LATERAL 10", "EMPRESA": "JURP", "ESTRUCTURA": "CANAL", "FID": 34, "Field_1": "EVACUADOR TRAMO X", "NOMBRE": "EVACUADOR TRAMO X", "PROGRESIVA": "0+600 - 0+800", "TRAMO": "TRAMO X" }, "geometry": { "type": "Polygon", "coordinates": [ [ [ -78.8570699, -8.3542624, 0.0 ], [ -78.8570301, -8.3542117, 0.0 ], [ -78.8569891, -8.354166, 0.0 ], [ -78.8569451, -8.3541233, 0.0 ], [ -78.8568959, -8.3540816, 0.0 ], [ -78.8563536, -8.3536528, 0.0 ], [ -78.8565793, -8.3533696, 0.0 ], [ -78.8571241, -8.3538003, 0.0 ], [ -78.8571287, -8.3538042, 0.0 ], [ -78.857185, -8.3538519, 0.0 ], [ -78.8571941, -8.3538601, 0.0 ], [ -78.857247, -8.3539114, 0.0 ], [ -78.8572555, -8.3539203, 0.0 ], [ -78.8573047, -8.353975, 0.0 ], [ -78.8573092, -8.3539802, 0.0 ], [ -78.8573126, -8.3539844, 0.0 ], [ -78.857358, -8.3540424, 0.0 ], [ -78.8573617, -8.3540473, 0.0 ], [ -78.8578466, -8.3547114, 0.0 ], [ -78.8575529, -8.354924, 0.0 ], [ -78.8570699, -8.3542624, 0.0 ] ] ] } },
{ "type": "Feature", "properties": { "Name": "EVACUADOR TRAMO X 0+400 - 0+600", "COD_EST": "CANAL LATERAL 10", "EMPRESA": "JURP", "ESTRUCTURA": "CANAL", "FID": 35, "Field_1": "EVACUADOR TRAMO X", "NOMBRE": "EVACUADOR TRAMO X", "PROGRESIVA": "0+400 - 0+600", "TRAMO": "TRAMO X" }, "geometry": { "type": "Polygon", "coordinates": [ [ [ -78.8558553, -8.3532587, 0.0 ], [ -78.8558113, -8.3532264, 0.0 ], [ -78.8557678, -8.353199, 0.0 ], [ -78.8557196, -8.3531732, 0.0 ], [ -78.8554132, -8.3530226, 0.0 ], [ -78.8554058, -8.3530188, 0.0 ], [ -78.8553471, -8.3529865, 0.0 ], [ -78.8553433, -8.3529843, 0.0 ], [ -78.8553329, -8.3529777, 0.0 ], [ -78.8552774, -8.3529402, 0.0 ], [ -78.855264, -8.3529302, 0.0 ], [ -78.8552113, -8.3528869, 0.0 ], [ -78.8551998, -8.3528766, 0.0 ], [ -78.8551523, -8.3528295, 0.0 ], [ -78.8551409, -8.3528172, 0.0 ], [ -78.8550977, -8.3527657, 0.0 ], [ -78.8550877, -8.3527528, 0.0 ], [ -78.8550496, -8.3526978, 0.0 ], [ -78.855041, -8.3526841, 0.0 ], [ -78.8550079, -8.3526255, 0.0 ], [ -78.8550004, -8.3526106, 0.0 ], [ -78.8549731, -8.3525496, 0.0 ], [ -78.8549674, -8.3525354, 0.0 ], [ -78.8549454, -8.3524708, 0.0 ], [ -78.8549407, -8.3524548, 0.0 ], [ -78.8549327, -8.3524214, 0.0 ], [ -78.8552858, -8.3523372, 0.0 ], [ -78.8552919, -8.3523625, 0.0 ], [ -78.855308, -8.3524099, 0.0 ], [ -78.8553285, -8.3524556, 0.0 ], [ -78.8553531, -8.3524992, 0.0 ], [ -78.8553817, -8.3525404, 0.0 ], [ -78.8554139, -8.3525788, 0.0 ], [ -78.8554496, -8.352614, 0.0 ], [ -78.8554884, -8.3526459, 0.0 ], [ -78.85553, -8.352674, 0.0 ], [ -78.8555776, -8.3527002, 0.0 ], [ -78.8558832, -8.3528504, 0.0 ], [ -78.8558889, -8.3528533, 0.0 ], [ -78.8559455, -8.3528837, 0.0 ], [ -78.8559511, -8.3528868, 0.0 ], [ -78.8559566, -8.3528901, 0.0 ], [ -78.856011, -8.3529244, 0.0 ], [ -78.8560216, -8.3529317, 0.0 ], [ -78.8560734, -8.3529697, 0.0 ], [ -78.8560785, -8.3529736, 0.0 ], [ -78.8565793, -8.3533696, 0.0 ], [ -78.8563536, -8.3536528, 0.0 ], [ -78.8558553, -8.3532587, 0.0 ] ] ] } },
{ "type": "Feature", "properties": { "Name": "EVACUADOR TRAMO X 0+200 - 0+400", "COD_EST": "CANAL LATERAL 10", "EMPRESA": "JURP", "ESTRUCTURA": "CANAL", "FID": 36, "Field_1": "EVACUADOR TRAMO X", "NOMBRE": "EVACUADOR TRAMO X", "PROGRESIVA": "0+200 - 0+400", "TRAMO": "TRAMO X" }, "geometry": { "type": "Polygon", "coordinates": [ [ [ -78.8549251, -8.3523899, 0.0 ], [ -78.8549227, -8.3523782, 0.0 ], [ -78.854922, -8.3523735, 0.0 ], [ -78.8549125, -8.3523074, 0.0 ], [ -78.8549108, -8.3522908, 0.0 ], [ -78.8549075, -8.3522241, 0.0 ], [ -78.8549072, -8.352214, 0.0 ], [ -78.8549074, -8.3522074, 0.0 ], [ -78.8549102, -8.3521407, 0.0 ], [ -78.8549108, -8.3521324, 0.0 ], [ -78.854934, -8.3518702, 0.0 ], [ -78.8549351, -8.3518609, 0.0 ], [ -78.8549416, -8.3518147, 0.0 ], [ -78.8549428, -8.3518075, 0.0 ], [ -78.8549452, -8.3517964, 0.0 ], [ -78.8549565, -8.3517511, 0.0 ], [ -78.8549619, -8.3517333, 0.0 ], [ -78.8549781, -8.3516887, 0.0 ], [ -78.8549851, -8.3516722, 0.0 ], [ -78.8550054, -8.3516302, 0.0 ], [ -78.8550097, -8.3516219, 0.0 ], [ -78.8552084, -8.3512606, 0.0 ], [ -78.8552237, -8.3512288, 0.0 ], [ -78.8552336, -8.3512002, 0.0 ], [ -78.8552403, -8.3511707, 0.0 ], [ -78.8552436, -8.3511407, 0.0 ], [ -78.8552436, -8.3511054, 0.0 ], [ -78.8552422, -8.3510803, 0.0 ], [ -78.8552377, -8.3510421, 0.0 ], [ -78.85523, -8.3510097, 0.0 ], [ -78.8552186, -8.3509785, 0.0 ], [ -78.8552035, -8.3509488, 0.0 ], [ -78.8551851, -8.3509211, 0.0 ], [ -78.8551636, -8.3508957, 0.0 ], [ -78.8551392, -8.350873, 0.0 ], [ -78.8551157, -8.3508558, 0.0 ], [ -78.855331, -8.3505647, 0.0 ], [ -78.8553631, -8.3505882, 0.0 ], [ -78.8553729, -8.3505959, 0.0 ], [ -78.8553794, -8.3506017, 0.0 ], [ -78.8554194, -8.3506389, 0.0 ], [ -78.855434, -8.3506543, 0.0 ], [ -78.8554698, -8.3506965, 0.0 ], [ -78.855482, -8.3507128, 0.0 ], [ -78.8555122, -8.3507582, 0.0 ], [ -78.8555185, -8.3507684, 0.0 ], [ -78.8555229, -8.3507765, 0.0 ], [ -78.8555475, -8.3508251, 0.0 ], [ -78.8555559, -8.3508446, 0.0 ], [ -78.8555749, -8.3508962, 0.0 ], [ -78.8555808, -8.350916, 0.0 ], [ -78.8555934, -8.350969, 0.0 ], [ -78.8555957, -8.3509802, 0.0 ], [ -78.8555971, -8.3509898, 0.0 ], [ -78.8556034, -8.3510439, 0.0 ], [ -78.8556043, -8.3510544, 0.0 ], [ -78.8556063, -8.3510898, 0.0 ], [ -78.8556066, -8.3510999, 0.0 ], [ -78.8556067, -8.3511509, 0.0 ], [ -78.8556056, -8.3511705, 0.0 ], [ -78.8556, -8.3512206, 0.0 ], [ -78.8555982, -8.351233, 0.0 ], [ -78.8555967, -8.3512405, 0.0 ], [ -78.8555855, -8.3512897, 0.0 ], [ -78.85558, -8.3513091, 0.0 ], [ -78.8555627, -8.3513585, 0.0 ], [ -78.8555557, -8.3513754, 0.0 ], [ -78.8555339, -8.3514209, 0.0 ], [ -78.8555293, -8.3514299, 0.0 ], [ -78.8553304, -8.3517915, 0.0 ], [ -78.8553161, -8.3518209, 0.0 ], [ -78.8553066, -8.3518472, 0.0 ], [ -78.8552998, -8.3518743, 0.0 ], [ -78.8552953, -8.3519067, 0.0 ], [ -78.8552728, -8.3521601, 0.0 ], [ -78.8552705, -8.3522143, 0.0 ], [ -78.855273, -8.3522642, 0.0 ], [ -78.8552802, -8.3523138, 0.0 ], [ -78.8552858, -8.3523372, 0.0 ], [ -78.8549327, -8.3524214, 0.0 ], [ -78.8549251, -8.3523899, 0.0 ] ] ] } }
]
}
